{"type":"FeatureCollection","name":"04_cao_bang_communes_attributes","metadata":{"province_code":"04","province_name":"Cao Bằng","feature_count":56,"geometry":null,"join_key":"commune_code"},"features":[{"type":"Feature","id":"01273","properties":{"commune_code":"01273","commune_name":"Thục Phán","commune_name_en":"Thuc Phan","commune_full_name":"Phường Thục Phán","commune_full_name_en":"Thuc Phan Ward","commune_slug":"thuc_phan","unit_type":"Phường","unit_type_en":"Ward","admin_level":2,"province_code":"04","province_name":"Cao Bằng","province_full_name":"Tỉnh Cao Bằng","province_slug":"cao_bang","join_key":"01273","status":"active","dataset_effective_date":"2026-04-30","catalog_version":"2026-07-12","geometry_status":"not_embedded_boundary_available_by_url","boundary_source_url":"https://raw.githubusercontent.com/thanglequoc/vietnamese-provinces-database/master/json/geojson/04_cao_bang/wards/01273_thuc_phan.geojson","boundary_source_page":"https://github.com/thanglequoc/vietnamese-provinces-database/blob/master/json/geojson/04_cao_bang/wards/01273_thuc_phan.geojson","source_catalog":"https://github.com/thanglequoc/vietnamese-provinces-database"},"geometry":null},{"type":"Feature","id":"01279","properties":{"commune_code":"01279","commune_name":"Nùng Trí Cao","commune_name_en":"Nung Tri Cao","commune_full_name":"Phường Nùng Trí Cao","commune_full_name_en":"Nung Tri Cao Ward","commune_slug":"nung_tri_cao","unit_type":"Phường","unit_type_en":"Ward","admin_level":2,"province_code":"04","province_name":"Cao Bằng","province_full_name":"Tỉnh Cao Bằng","province_slug":"cao_bang","join_key":"01279","status":"active","dataset_effective_date":"2026-04-30","catalog_version":"2026-07-12","geometry_status":"not_embedded_boundary_available_by_url","boundary_source_url":"https://raw.githubusercontent.com/thanglequoc/vietnamese-provinces-database/master/json/geojson/04_cao_bang/wards/01279_nung_tri_cao.geojson","boundary_source_page":"https://github.com/thanglequoc/vietnamese-provinces-database/blob/master/json/geojson/04_cao_bang/wards/01279_nung_tri_cao.geojson","source_catalog":"https://github.com/thanglequoc/vietnamese-provinces-database"},"geometry":null},{"type":"Feature","id":"01288","properties":{"commune_code":"01288","commune_name":"Tân Giang","commune_name_en":"Tan Giang","commune_full_name":"Phường Tân Giang","commune_full_name_en":"Tan Giang Ward","commune_slug":"tan_giang","unit_type":"Phường","unit_type_en":"Ward","admin_level":2,"province_code":"04","province_name":"Cao Bằng","province_full_name":"Tỉnh Cao Bằng","province_slug":"cao_bang","join_key":"01288","status":"active","dataset_effective_date":"2026-04-30","catalog_version":"2026-07-12","geometry_status":"not_embedded_boundary_available_by_url","boundary_source_url":"https://raw.githubusercontent.com/thanglequoc/vietnamese-provinces-database/master/json/geojson/04_cao_bang/wards/01288_tan_giang.geojson","boundary_source_page":"https://github.com/thanglequoc/vietnamese-provinces-database/blob/master/json/geojson/04_cao_bang/wards/01288_tan_giang.geojson","source_catalog":"https://github.com/thanglequoc/vietnamese-provinces-database"},"geometry":null},{"type":"Feature","id":"01290","properties":{"commune_code":"01290","commune_name":"Bảo Lâm","commune_name_en":"Bao Lam","commune_full_name":"Xã Bảo Lâm","commune_full_name_en":"Bao Lam Commune","commune_slug":"bao_lam","unit_type":"Xã","unit_type_en":"Commune","admin_level":2,"province_code":"04","province_name":"Cao Bằng","province_full_name":"Tỉnh Cao Bằng","province_slug":"cao_bang","join_key":"01290","status":"active","dataset_effective_date":"2026-04-30","catalog_version":"2026-07-12","geometry_status":"not_embedded_boundary_available_by_url","boundary_source_url":"https://raw.githubusercontent.com/thanglequoc/vietnamese-provinces-database/master/json/geojson/04_cao_bang/wards/01290_bao_lam.geojson","boundary_source_page":"https://github.com/thanglequoc/vietnamese-provinces-database/blob/master/json/geojson/04_cao_bang/wards/01290_bao_lam.geojson","source_catalog":"https://github.com/thanglequoc/vietnamese-provinces-database"},"geometry":null},{"type":"Feature","id":"01294","properties":{"commune_code":"01294","commune_name":"Lý Bôn","commune_name_en":"Ly Bon","commune_full_name":"Xã Lý Bôn","commune_full_name_en":"Ly Bon Commune","commune_slug":"ly_bon","unit_type":"Xã","unit_type_en":"Commune","admin_level":2,"province_code":"04","province_name":"Cao Bằng","province_full_name":"Tỉnh Cao Bằng","province_slug":"cao_bang","join_key":"01294","status":"active","dataset_effective_date":"2026-04-30","catalog_version":"2026-07-12","geometry_status":"not_embedded_boundary_available_by_url","boundary_source_url":"https://raw.githubusercontent.com/thanglequoc/vietnamese-provinces-database/master/json/geojson/04_cao_bang/wards/01294_ly_bon.geojson","boundary_source_page":"https://github.com/thanglequoc/vietnamese-provinces-database/blob/master/json/geojson/04_cao_bang/wards/01294_ly_bon.geojson","source_catalog":"https://github.com/thanglequoc/vietnamese-provinces-database"},"geometry":null},{"type":"Feature","id":"01297","properties":{"commune_code":"01297","commune_name":"Nam Quang","commune_name_en":"Nam Quang","commune_full_name":"Xã Nam Quang","commune_full_name_en":"Nam Quang Commune","commune_slug":"nam_quang","unit_type":"Xã","unit_type_en":"Commune","admin_level":2,"province_code":"04","province_name":"Cao Bằng","province_full_name":"Tỉnh Cao Bằng","province_slug":"cao_bang","join_key":"01297","status":"active","dataset_effective_date":"2026-04-30","catalog_version":"2026-07-12","geometry_status":"not_embedded_boundary_available_by_url","boundary_source_url":"https://raw.githubusercontent.com/thanglequoc/vietnamese-provinces-database/master/json/geojson/04_cao_bang/wards/01297_nam_quang.geojson","boundary_source_page":"https://github.com/thanglequoc/vietnamese-provinces-database/blob/master/json/geojson/04_cao_bang/wards/01297_nam_quang.geojson","source_catalog":"https://github.com/thanglequoc/vietnamese-provinces-database"},"geometry":null},{"type":"Feature","id":"01304","properties":{"commune_code":"01304","commune_name":"Quảng Lâm","commune_name_en":"Quang Lam","commune_full_name":"Xã Quảng Lâm","commune_full_name_en":"Quang Lam Commune","commune_slug":"quang_lam","unit_type":"Xã","unit_type_en":"Commune","admin_level":2,"province_code":"04","province_name":"Cao Bằng","province_full_name":"Tỉnh Cao Bằng","province_slug":"cao_bang","join_key":"01304","status":"active","dataset_effective_date":"2026-04-30","catalog_version":"2026-07-12","geometry_status":"not_embedded_boundary_available_by_url","boundary_source_url":"https://raw.githubusercontent.com/thanglequoc/vietnamese-provinces-database/master/json/geojson/04_cao_bang/wards/01304_quang_lam.geojson","boundary_source_page":"https://github.com/thanglequoc/vietnamese-provinces-database/blob/master/json/geojson/04_cao_bang/wards/01304_quang_lam.geojson","source_catalog":"https://github.com/thanglequoc/vietnamese-provinces-database"},"geometry":null},{"type":"Feature","id":"01318","properties":{"commune_code":"01318","commune_name":"Yên Thổ","commune_name_en":"Yen Tho","commune_full_name":"Xã Yên Thổ","commune_full_name_en":"Yen Tho Commune","commune_slug":"yen_tho","unit_type":"Xã","unit_type_en":"Commune","admin_level":2,"province_code":"04","province_name":"Cao Bằng","province_full_name":"Tỉnh Cao Bằng","province_slug":"cao_bang","join_key":"01318","status":"active","dataset_effective_date":"2026-04-30","catalog_version":"2026-07-12","geometry_status":"not_embedded_boundary_available_by_url","boundary_source_url":"https://raw.githubusercontent.com/thanglequoc/vietnamese-provinces-database/master/json/geojson/04_cao_bang/wards/01318_yen_tho.geojson","boundary_source_page":"https://github.com/thanglequoc/vietnamese-provinces-database/blob/master/json/geojson/04_cao_bang/wards/01318_yen_tho.geojson","source_catalog":"https://github.com/thanglequoc/vietnamese-provinces-database"},"geometry":null},{"type":"Feature","id":"01321","properties":{"commune_code":"01321","commune_name":"Bảo Lạc","commune_name_en":"Bao Lac","commune_full_name":"Xã Bảo Lạc","commune_full_name_en":"Bao Lac Commune","commune_slug":"bao_lac","unit_type":"Xã","unit_type_en":"Commune","admin_level":2,"province_code":"04","province_name":"Cao Bằng","province_full_name":"Tỉnh Cao Bằng","province_slug":"cao_bang","join_key":"01321","status":"active","dataset_effective_date":"2026-04-30","catalog_version":"2026-07-12","geometry_status":"not_embedded_boundary_available_by_url","boundary_source_url":"https://raw.githubusercontent.com/thanglequoc/vietnamese-provinces-database/master/json/geojson/04_cao_bang/wards/01321_bao_lac.geojson","boundary_source_page":"https://github.com/thanglequoc/vietnamese-provinces-database/blob/master/json/geojson/04_cao_bang/wards/01321_bao_lac.geojson","source_catalog":"https://github.com/thanglequoc/vietnamese-provinces-database"},"geometry":null},{"type":"Feature","id":"01324","properties":{"commune_code":"01324","commune_name":"Cốc Pàng","commune_name_en":"Coc Pang","commune_full_name":"Xã Cốc Pàng","commune_full_name_en":"Coc Pang Commune","commune_slug":"coc_pang","unit_type":"Xã","unit_type_en":"Commune","admin_level":2,"province_code":"04","province_name":"Cao Bằng","province_full_name":"Tỉnh Cao Bằng","province_slug":"cao_bang","join_key":"01324","status":"active","dataset_effective_date":"2026-04-30","catalog_version":"2026-07-12","geometry_status":"not_embedded_boundary_available_by_url","boundary_source_url":"https://raw.githubusercontent.com/thanglequoc/vietnamese-provinces-database/master/json/geojson/04_cao_bang/wards/01324_coc_pang.geojson","boundary_source_page":"https://github.com/thanglequoc/vietnamese-provinces-database/blob/master/json/geojson/04_cao_bang/wards/01324_coc_pang.geojson","source_catalog":"https://github.com/thanglequoc/vietnamese-provinces-database"},"geometry":null},{"type":"Feature","id":"01327","properties":{"commune_code":"01327","commune_name":"Cô Ba","commune_name_en":"Co Ba","commune_full_name":"Xã Cô Ba","commune_full_name_en":"Co Ba Commune","commune_slug":"co_ba","unit_type":"Xã","unit_type_en":"Commune","admin_level":2,"province_code":"04","province_name":"Cao Bằng","province_full_name":"Tỉnh Cao Bằng","province_slug":"cao_bang","join_key":"01327","status":"active","dataset_effective_date":"2026-04-30","catalog_version":"2026-07-12","geometry_status":"not_embedded_boundary_available_by_url","boundary_source_url":"https://raw.githubusercontent.com/thanglequoc/vietnamese-provinces-database/master/json/geojson/04_cao_bang/wards/01327_co_ba.geojson","boundary_source_page":"https://github.com/thanglequoc/vietnamese-provinces-database/blob/master/json/geojson/04_cao_bang/wards/01327_co_ba.geojson","source_catalog":"https://github.com/thanglequoc/vietnamese-provinces-database"},"geometry":null},{"type":"Feature","id":"01336","properties":{"commune_code":"01336","commune_name":"Khánh Xuân","commune_name_en":"Khanh Xuan","commune_full_name":"Xã Khánh Xuân","commune_full_name_en":"Khanh Xuan Commune","commune_slug":"khanh_xuan","unit_type":"Xã","unit_type_en":"Commune","admin_level":2,"province_code":"04","province_name":"Cao Bằng","province_full_name":"Tỉnh Cao Bằng","province_slug":"cao_bang","join_key":"01336","status":"active","dataset_effective_date":"2026-04-30","catalog_version":"2026-07-12","geometry_status":"not_embedded_boundary_available_by_url","boundary_source_url":"https://raw.githubusercontent.com/thanglequoc/vietnamese-provinces-database/master/json/geojson/04_cao_bang/wards/01336_khanh_xuan.geojson","boundary_source_page":"https://github.com/thanglequoc/vietnamese-provinces-database/blob/master/json/geojson/04_cao_bang/wards/01336_khanh_xuan.geojson","source_catalog":"https://github.com/thanglequoc/vietnamese-provinces-database"},"geometry":null},{"type":"Feature","id":"01339","properties":{"commune_code":"01339","commune_name":"Xuân Trường","commune_name_en":"Xuan Truong","commune_full_name":"Xã Xuân Trường","commune_full_name_en":"Xuan Truong Commune","commune_slug":"xuan_truong","unit_type":"Xã","unit_type_en":"Commune","admin_level":2,"province_code":"04","province_name":"Cao Bằng","province_full_name":"Tỉnh Cao Bằng","province_slug":"cao_bang","join_key":"01339","status":"active","dataset_effective_date":"2026-04-30","catalog_version":"2026-07-12","geometry_status":"not_embedded_boundary_available_by_url","boundary_source_url":"https://raw.githubusercontent.com/thanglequoc/vietnamese-provinces-database/master/json/geojson/04_cao_bang/wards/01339_xuan_truong.geojson","boundary_source_page":"https://github.com/thanglequoc/vietnamese-provinces-database/blob/master/json/geojson/04_cao_bang/wards/01339_xuan_truong.geojson","source_catalog":"https://github.com/thanglequoc/vietnamese-provinces-database"},"geometry":null},{"type":"Feature","id":"01351","properties":{"commune_code":"01351","commune_name":"Hưng Đạo","commune_name_en":"Hung Dao","commune_full_name":"Xã Hưng Đạo","commune_full_name_en":"Hung Dao Commune","commune_slug":"hung_dao","unit_type":"Xã","unit_type_en":"Commune","admin_level":2,"province_code":"04","province_name":"Cao Bằng","province_full_name":"Tỉnh Cao Bằng","province_slug":"cao_bang","join_key":"01351","status":"active","dataset_effective_date":"2026-04-30","catalog_version":"2026-07-12","geometry_status":"not_embedded_boundary_available_by_url","boundary_source_url":"https://raw.githubusercontent.com/thanglequoc/vietnamese-provinces-database/master/json/geojson/04_cao_bang/wards/01351_hung_dao.geojson","boundary_source_page":"https://github.com/thanglequoc/vietnamese-provinces-database/blob/master/json/geojson/04_cao_bang/wards/01351_hung_dao.geojson","source_catalog":"https://github.com/thanglequoc/vietnamese-provinces-database"},"geometry":null},{"type":"Feature","id":"01354","properties":{"commune_code":"01354","commune_name":"Huy Giáp","commune_name_en":"Huy Giap","commune_full_name":"Xã Huy Giáp","commune_full_name_en":"Huy Giap Commune","commune_slug":"huy_giap","unit_type":"Xã","unit_type_en":"Commune","admin_level":2,"province_code":"04","province_name":"Cao Bằng","province_full_name":"Tỉnh Cao Bằng","province_slug":"cao_bang","join_key":"01354","status":"active","dataset_effective_date":"2026-04-30","catalog_version":"2026-07-12","geometry_status":"not_embedded_boundary_available_by_url","boundary_source_url":"https://raw.githubusercontent.com/thanglequoc/vietnamese-provinces-database/master/json/geojson/04_cao_bang/wards/01354_huy_giap.geojson","boundary_source_page":"https://github.com/thanglequoc/vietnamese-provinces-database/blob/master/json/geojson/04_cao_bang/wards/01354_huy_giap.geojson","source_catalog":"https://github.com/thanglequoc/vietnamese-provinces-database"},"geometry":null},{"type":"Feature","id":"01360","properties":{"commune_code":"01360","commune_name":"Sơn Lộ","commune_name_en":"Son Lo","commune_full_name":"Xã Sơn Lộ","commune_full_name_en":"Son Lo Commune","commune_slug":"son_lo","unit_type":"Xã","unit_type_en":"Commune","admin_level":2,"province_code":"04","province_name":"Cao Bằng","province_full_name":"Tỉnh Cao Bằng","province_slug":"cao_bang","join_key":"01360","status":"active","dataset_effective_date":"2026-04-30","catalog_version":"2026-07-12","geometry_status":"not_embedded_boundary_available_by_url","boundary_source_url":"https://raw.githubusercontent.com/thanglequoc/vietnamese-provinces-database/master/json/geojson/04_cao_bang/wards/01360_son_lo.geojson","boundary_source_page":"https://github.com/thanglequoc/vietnamese-provinces-database/blob/master/json/geojson/04_cao_bang/wards/01360_son_lo.geojson","source_catalog":"https://github.com/thanglequoc/vietnamese-provinces-database"},"geometry":null},{"type":"Feature","id":"01363","properties":{"commune_code":"01363","commune_name":"Thông Nông","commune_name_en":"Thong Nong","commune_full_name":"Xã Thông Nông","commune_full_name_en":"Thong Nong Commune","commune_slug":"thong_nong","unit_type":"Xã","unit_type_en":"Commune","admin_level":2,"province_code":"04","province_name":"Cao Bằng","province_full_name":"Tỉnh Cao Bằng","province_slug":"cao_bang","join_key":"01363","status":"active","dataset_effective_date":"2026-04-30","catalog_version":"2026-07-12","geometry_status":"not_embedded_boundary_available_by_url","boundary_source_url":"https://raw.githubusercontent.com/thanglequoc/vietnamese-provinces-database/master/json/geojson/04_cao_bang/wards/01363_thong_nong.geojson","boundary_source_page":"https://github.com/thanglequoc/vietnamese-provinces-database/blob/master/json/geojson/04_cao_bang/wards/01363_thong_nong.geojson","source_catalog":"https://github.com/thanglequoc/vietnamese-provinces-database"},"geometry":null},{"type":"Feature","id":"01366","properties":{"commune_code":"01366","commune_name":"Cần Yên","commune_name_en":"Can Yen","commune_full_name":"Xã Cần Yên","commune_full_name_en":"Can Yen Commune","commune_slug":"can_yen","unit_type":"Xã","unit_type_en":"Commune","admin_level":2,"province_code":"04","province_name":"Cao Bằng","province_full_name":"Tỉnh Cao Bằng","province_slug":"cao_bang","join_key":"01366","status":"active","dataset_effective_date":"2026-04-30","catalog_version":"2026-07-12","geometry_status":"not_embedded_boundary_available_by_url","boundary_source_url":"https://raw.githubusercontent.com/thanglequoc/vietnamese-provinces-database/master/json/geojson/04_cao_bang/wards/01366_can_yen.geojson","boundary_source_page":"https://github.com/thanglequoc/vietnamese-provinces-database/blob/master/json/geojson/04_cao_bang/wards/01366_can_yen.geojson","source_catalog":"https://github.com/thanglequoc/vietnamese-provinces-database"},"geometry":null},{"type":"Feature","id":"01387","properties":{"commune_code":"01387","commune_name":"Thanh Long","commune_name_en":"Thanh Long","commune_full_name":"Xã Thanh Long","commune_full_name_en":"Thanh Long Commune","commune_slug":"thanh_long","unit_type":"Xã","unit_type_en":"Commune","admin_level":2,"province_code":"04","province_name":"Cao Bằng","province_full_name":"Tỉnh Cao Bằng","province_slug":"cao_bang","join_key":"01387","status":"active","dataset_effective_date":"2026-04-30","catalog_version":"2026-07-12","geometry_status":"not_embedded_boundary_available_by_url","boundary_source_url":"https://raw.githubusercontent.com/thanglequoc/vietnamese-provinces-database/master/json/geojson/04_cao_bang/wards/01387_thanh_long.geojson","boundary_source_page":"https://github.com/thanglequoc/vietnamese-provinces-database/blob/master/json/geojson/04_cao_bang/wards/01387_thanh_long.geojson","source_catalog":"https://github.com/thanglequoc/vietnamese-provinces-database"},"geometry":null},{"type":"Feature","id":"01392","properties":{"commune_code":"01392","commune_name":"Trường Hà","commune_name_en":"Truong Ha","commune_full_name":"Xã Trường Hà","commune_full_name_en":"Truong Ha Commune","commune_slug":"truong_ha","unit_type":"Xã","unit_type_en":"Commune","admin_level":2,"province_code":"04","province_name":"Cao Bằng","province_full_name":"Tỉnh Cao Bằng","province_slug":"cao_bang","join_key":"01392","status":"active","dataset_effective_date":"2026-04-30","catalog_version":"2026-07-12","geometry_status":"not_embedded_boundary_available_by_url","boundary_source_url":"https://raw.githubusercontent.com/thanglequoc/vietnamese-provinces-database/master/json/geojson/04_cao_bang/wards/01392_truong_ha.geojson","boundary_source_page":"https://github.com/thanglequoc/vietnamese-provinces-database/blob/master/json/geojson/04_cao_bang/wards/01392_truong_ha.geojson","source_catalog":"https://github.com/thanglequoc/vietnamese-provinces-database"},"geometry":null},{"type":"Feature","id":"01393","properties":{"commune_code":"01393","commune_name":"Lũng Nặm","commune_name_en":"Lung Nam","commune_full_name":"Xã Lũng Nặm","commune_full_name_en":"Lung Nam Commune","commune_slug":"lung_nam","unit_type":"Xã","unit_type_en":"Commune","admin_level":2,"province_code":"04","province_name":"Cao Bằng","province_full_name":"Tỉnh Cao Bằng","province_slug":"cao_bang","join_key":"01393","status":"active","dataset_effective_date":"2026-04-30","catalog_version":"2026-07-12","geometry_status":"not_embedded_boundary_available_by_url","boundary_source_url":"https://raw.githubusercontent.com/thanglequoc/vietnamese-provinces-database/master/json/geojson/04_cao_bang/wards/01393_lung_nam.geojson","boundary_source_page":"https://github.com/thanglequoc/vietnamese-provinces-database/blob/master/json/geojson/04_cao_bang/wards/01393_lung_nam.geojson","source_catalog":"https://github.com/thanglequoc/vietnamese-provinces-database"},"geometry":null},{"type":"Feature","id":"01414","properties":{"commune_code":"01414","commune_name":"Tổng Cọt","commune_name_en":"Tong Cot","commune_full_name":"Xã Tổng Cọt","commune_full_name_en":"Tong Cot Commune","commune_slug":"tong_cot","unit_type":"Xã","unit_type_en":"Commune","admin_level":2,"province_code":"04","province_name":"Cao Bằng","province_full_name":"Tỉnh Cao Bằng","province_slug":"cao_bang","join_key":"01414","status":"active","dataset_effective_date":"2026-04-30","catalog_version":"2026-07-12","geometry_status":"not_embedded_boundary_available_by_url","boundary_source_url":"https://raw.githubusercontent.com/thanglequoc/vietnamese-provinces-database/master/json/geojson/04_cao_bang/wards/01414_tong_cot.geojson","boundary_source_page":"https://github.com/thanglequoc/vietnamese-provinces-database/blob/master/json/geojson/04_cao_bang/wards/01414_tong_cot.geojson","source_catalog":"https://github.com/thanglequoc/vietnamese-provinces-database"},"geometry":null},{"type":"Feature","id":"01438","properties":{"commune_code":"01438","commune_name":"Hà Quảng","commune_name_en":"Ha Quang","commune_full_name":"Xã Hà Quảng","commune_full_name_en":"Ha Quang Commune","commune_slug":"ha_quang","unit_type":"Xã","unit_type_en":"Commune","admin_level":2,"province_code":"04","province_name":"Cao Bằng","province_full_name":"Tỉnh Cao Bằng","province_slug":"cao_bang","join_key":"01438","status":"active","dataset_effective_date":"2026-04-30","catalog_version":"2026-07-12","geometry_status":"not_embedded_boundary_available_by_url","boundary_source_url":"https://raw.githubusercontent.com/thanglequoc/vietnamese-provinces-database/master/json/geojson/04_cao_bang/wards/01438_ha_quang.geojson","boundary_source_page":"https://github.com/thanglequoc/vietnamese-provinces-database/blob/master/json/geojson/04_cao_bang/wards/01438_ha_quang.geojson","source_catalog":"https://github.com/thanglequoc/vietnamese-provinces-database"},"geometry":null},{"type":"Feature","id":"01447","properties":{"commune_code":"01447","commune_name":"Trà Lĩnh","commune_name_en":"Tra Linh","commune_full_name":"Xã Trà Lĩnh","commune_full_name_en":"Tra Linh Commune","commune_slug":"tra_linh","unit_type":"Xã","unit_type_en":"Commune","admin_level":2,"province_code":"04","province_name":"Cao Bằng","province_full_name":"Tỉnh Cao Bằng","province_slug":"cao_bang","join_key":"01447","status":"active","dataset_effective_date":"2026-04-30","catalog_version":"2026-07-12","geometry_status":"not_embedded_boundary_available_by_url","boundary_source_url":"https://raw.githubusercontent.com/thanglequoc/vietnamese-provinces-database/master/json/geojson/04_cao_bang/wards/01447_tra_linh.geojson","boundary_source_page":"https://github.com/thanglequoc/vietnamese-provinces-database/blob/master/json/geojson/04_cao_bang/wards/01447_tra_linh.geojson","source_catalog":"https://github.com/thanglequoc/vietnamese-provinces-database"},"geometry":null},{"type":"Feature","id":"01456","properties":{"commune_code":"01456","commune_name":"Quang Hán","commune_name_en":"Quang Han","commune_full_name":"Xã Quang Hán","commune_full_name_en":"Quang Han Commune","commune_slug":"quang_han","unit_type":"Xã","unit_type_en":"Commune","admin_level":2,"province_code":"04","province_name":"Cao Bằng","province_full_name":"Tỉnh Cao Bằng","province_slug":"cao_bang","join_key":"01456","status":"active","dataset_effective_date":"2026-04-30","catalog_version":"2026-07-12","geometry_status":"not_embedded_boundary_available_by_url","boundary_source_url":"https://raw.githubusercontent.com/thanglequoc/vietnamese-provinces-database/master/json/geojson/04_cao_bang/wards/01456_quang_han.geojson","boundary_source_page":"https://github.com/thanglequoc/vietnamese-provinces-database/blob/master/json/geojson/04_cao_bang/wards/01456_quang_han.geojson","source_catalog":"https://github.com/thanglequoc/vietnamese-provinces-database"},"geometry":null},{"type":"Feature","id":"01465","properties":{"commune_code":"01465","commune_name":"Quang Trung","commune_name_en":"Quang Trung","commune_full_name":"Xã Quang Trung","commune_full_name_en":"Quang Trung Commune","commune_slug":"quang_trung","unit_type":"Xã","unit_type_en":"Commune","admin_level":2,"province_code":"04","province_name":"Cao Bằng","province_full_name":"Tỉnh Cao Bằng","province_slug":"cao_bang","join_key":"01465","status":"active","dataset_effective_date":"2026-04-30","catalog_version":"2026-07-12","geometry_status":"not_embedded_boundary_available_by_url","boundary_source_url":"https://raw.githubusercontent.com/thanglequoc/vietnamese-provinces-database/master/json/geojson/04_cao_bang/wards/01465_quang_trung.geojson","boundary_source_page":"https://github.com/thanglequoc/vietnamese-provinces-database/blob/master/json/geojson/04_cao_bang/wards/01465_quang_trung.geojson","source_catalog":"https://github.com/thanglequoc/vietnamese-provinces-database"},"geometry":null},{"type":"Feature","id":"01477","properties":{"commune_code":"01477","commune_name":"Trùng Khánh","commune_name_en":"Trung Khanh","commune_full_name":"Xã Trùng Khánh","commune_full_name_en":"Trung Khanh Commune","commune_slug":"trung_khanh","unit_type":"Xã","unit_type_en":"Commune","admin_level":2,"province_code":"04","province_name":"Cao Bằng","province_full_name":"Tỉnh Cao Bằng","province_slug":"cao_bang","join_key":"01477","status":"active","dataset_effective_date":"2026-04-30","catalog_version":"2026-07-12","geometry_status":"not_embedded_boundary_available_by_url","boundary_source_url":"https://raw.githubusercontent.com/thanglequoc/vietnamese-provinces-database/master/json/geojson/04_cao_bang/wards/01477_trung_khanh.geojson","boundary_source_page":"https://github.com/thanglequoc/vietnamese-provinces-database/blob/master/json/geojson/04_cao_bang/wards/01477_trung_khanh.geojson","source_catalog":"https://github.com/thanglequoc/vietnamese-provinces-database"},"geometry":null},{"type":"Feature","id":"01489","properties":{"commune_code":"01489","commune_name":"Đình Phong","commune_name_en":"Dinh Phong","commune_full_name":"Xã Đình Phong","commune_full_name_en":"Dinh Phong Commune","commune_slug":"dinh_phong","unit_type":"Xã","unit_type_en":"Commune","admin_level":2,"province_code":"04","province_name":"Cao Bằng","province_full_name":"Tỉnh Cao Bằng","province_slug":"cao_bang","join_key":"01489","status":"active","dataset_effective_date":"2026-04-30","catalog_version":"2026-07-12","geometry_status":"not_embedded_boundary_available_by_url","boundary_source_url":"https://raw.githubusercontent.com/thanglequoc/vietnamese-provinces-database/master/json/geojson/04_cao_bang/wards/01489_dinh_phong.geojson","boundary_source_page":"https://github.com/thanglequoc/vietnamese-provinces-database/blob/master/json/geojson/04_cao_bang/wards/01489_dinh_phong.geojson","source_catalog":"https://github.com/thanglequoc/vietnamese-provinces-database"},"geometry":null},{"type":"Feature","id":"01501","properties":{"commune_code":"01501","commune_name":"Đàm Thuỷ","commune_name_en":"Dam Thuy","commune_full_name":"Xã Đàm Thuỷ","commune_full_name_en":"Dam Thuy Commune","commune_slug":"dam_thuy","unit_type":"Xã","unit_type_en":"Commune","admin_level":2,"province_code":"04","province_name":"Cao Bằng","province_full_name":"Tỉnh Cao Bằng","province_slug":"cao_bang","join_key":"01501","status":"active","dataset_effective_date":"2026-04-30","catalog_version":"2026-07-12","geometry_status":"not_embedded_boundary_available_by_url","boundary_source_url":"https://raw.githubusercontent.com/thanglequoc/vietnamese-provinces-database/master/json/geojson/04_cao_bang/wards/01501_dam_thuy.geojson","boundary_source_page":"https://github.com/thanglequoc/vietnamese-provinces-database/blob/master/json/geojson/04_cao_bang/wards/01501_dam_thuy.geojson","source_catalog":"https://github.com/thanglequoc/vietnamese-provinces-database"},"geometry":null},{"type":"Feature","id":"01525","properties":{"commune_code":"01525","commune_name":"Đoài Dương","commune_name_en":"Doai Duong","commune_full_name":"Xã Đoài Dương","commune_full_name_en":"Doai Duong Commune","commune_slug":"doai_duong","unit_type":"Xã","unit_type_en":"Commune","admin_level":2,"province_code":"04","province_name":"Cao Bằng","province_full_name":"Tỉnh Cao Bằng","province_slug":"cao_bang","join_key":"01525","status":"active","dataset_effective_date":"2026-04-30","catalog_version":"2026-07-12","geometry_status":"not_embedded_boundary_available_by_url","boundary_source_url":"https://raw.githubusercontent.com/thanglequoc/vietnamese-provinces-database/master/json/geojson/04_cao_bang/wards/01525_doai_duong.geojson","boundary_source_page":"https://github.com/thanglequoc/vietnamese-provinces-database/blob/master/json/geojson/04_cao_bang/wards/01525_doai_duong.geojson","source_catalog":"https://github.com/thanglequoc/vietnamese-provinces-database"},"geometry":null},{"type":"Feature","id":"01537","properties":{"commune_code":"01537","commune_name":"Lý Quốc","commune_name_en":"Ly Quoc","commune_full_name":"Xã Lý Quốc","commune_full_name_en":"Ly Quoc Commune","commune_slug":"ly_quoc","unit_type":"Xã","unit_type_en":"Commune","admin_level":2,"province_code":"04","province_name":"Cao Bằng","province_full_name":"Tỉnh Cao Bằng","province_slug":"cao_bang","join_key":"01537","status":"active","dataset_effective_date":"2026-04-30","catalog_version":"2026-07-12","geometry_status":"not_embedded_boundary_available_by_url","boundary_source_url":"https://raw.githubusercontent.com/thanglequoc/vietnamese-provinces-database/master/json/geojson/04_cao_bang/wards/01537_ly_quoc.geojson","boundary_source_page":"https://github.com/thanglequoc/vietnamese-provinces-database/blob/master/json/geojson/04_cao_bang/wards/01537_ly_quoc.geojson","source_catalog":"https://github.com/thanglequoc/vietnamese-provinces-database"},"geometry":null},{"type":"Feature","id":"01552","properties":{"commune_code":"01552","commune_name":"Quang Long","commune_name_en":"Quang Long","commune_full_name":"Xã Quang Long","commune_full_name_en":"Quang Long Commune","commune_slug":"quang_long","unit_type":"Xã","unit_type_en":"Commune","admin_level":2,"province_code":"04","province_name":"Cao Bằng","province_full_name":"Tỉnh Cao Bằng","province_slug":"cao_bang","join_key":"01552","status":"active","dataset_effective_date":"2026-04-30","catalog_version":"2026-07-12","geometry_status":"not_embedded_boundary_available_by_url","boundary_source_url":"https://raw.githubusercontent.com/thanglequoc/vietnamese-provinces-database/master/json/geojson/04_cao_bang/wards/01552_quang_long.geojson","boundary_source_page":"https://github.com/thanglequoc/vietnamese-provinces-database/blob/master/json/geojson/04_cao_bang/wards/01552_quang_long.geojson","source_catalog":"https://github.com/thanglequoc/vietnamese-provinces-database"},"geometry":null},{"type":"Feature","id":"01558","properties":{"commune_code":"01558","commune_name":"Hạ Lang","commune_name_en":"Ha Lang","commune_full_name":"Xã Hạ Lang","commune_full_name_en":"Ha Lang Commune","commune_slug":"ha_lang","unit_type":"Xã","unit_type_en":"Commune","admin_level":2,"province_code":"04","province_name":"Cao Bằng","province_full_name":"Tỉnh Cao Bằng","province_slug":"cao_bang","join_key":"01558","status":"active","dataset_effective_date":"2026-04-30","catalog_version":"2026-07-12","geometry_status":"not_embedded_boundary_available_by_url","boundary_source_url":"https://raw.githubusercontent.com/thanglequoc/vietnamese-provinces-database/master/json/geojson/04_cao_bang/wards/01558_ha_lang.geojson","boundary_source_page":"https://github.com/thanglequoc/vietnamese-provinces-database/blob/master/json/geojson/04_cao_bang/wards/01558_ha_lang.geojson","source_catalog":"https://github.com/thanglequoc/vietnamese-provinces-database"},"geometry":null},{"type":"Feature","id":"01561","properties":{"commune_code":"01561","commune_name":"Vinh Quý","commune_name_en":"Vinh Quy","commune_full_name":"Xã Vinh Quý","commune_full_name_en":"Vinh Quy Commune","commune_slug":"vinh_quy","unit_type":"Xã","unit_type_en":"Commune","admin_level":2,"province_code":"04","province_name":"Cao Bằng","province_full_name":"Tỉnh Cao Bằng","province_slug":"cao_bang","join_key":"01561","status":"active","dataset_effective_date":"2026-04-30","catalog_version":"2026-07-12","geometry_status":"not_embedded_boundary_available_by_url","boundary_source_url":"https://raw.githubusercontent.com/thanglequoc/vietnamese-provinces-database/master/json/geojson/04_cao_bang/wards/01561_vinh_quy.geojson","boundary_source_page":"https://github.com/thanglequoc/vietnamese-provinces-database/blob/master/json/geojson/04_cao_bang/wards/01561_vinh_quy.geojson","source_catalog":"https://github.com/thanglequoc/vietnamese-provinces-database"},"geometry":null},{"type":"Feature","id":"01576","properties":{"commune_code":"01576","commune_name":"Quảng Uyên","commune_name_en":"Quang Uyen","commune_full_name":"Xã Quảng Uyên","commune_full_name_en":"Quang Uyen Commune","commune_slug":"quang_uyen","unit_type":"Xã","unit_type_en":"Commune","admin_level":2,"province_code":"04","province_name":"Cao Bằng","province_full_name":"Tỉnh Cao Bằng","province_slug":"cao_bang","join_key":"01576","status":"active","dataset_effective_date":"2026-04-30","catalog_version":"2026-07-12","geometry_status":"not_embedded_boundary_available_by_url","boundary_source_url":"https://raw.githubusercontent.com/thanglequoc/vietnamese-provinces-database/master/json/geojson/04_cao_bang/wards/01576_quang_uyen.geojson","boundary_source_page":"https://github.com/thanglequoc/vietnamese-provinces-database/blob/master/json/geojson/04_cao_bang/wards/01576_quang_uyen.geojson","source_catalog":"https://github.com/thanglequoc/vietnamese-provinces-database"},"geometry":null},{"type":"Feature","id":"01594","properties":{"commune_code":"01594","commune_name":"Độc Lập","commune_name_en":"Doc Lap","commune_full_name":"Xã Độc Lập","commune_full_name_en":"Doc Lap Commune","commune_slug":"doc_lap","unit_type":"Xã","unit_type_en":"Commune","admin_level":2,"province_code":"04","province_name":"Cao Bằng","province_full_name":"Tỉnh Cao Bằng","province_slug":"cao_bang","join_key":"01594","status":"active","dataset_effective_date":"2026-04-30","catalog_version":"2026-07-12","geometry_status":"not_embedded_boundary_available_by_url","boundary_source_url":"https://raw.githubusercontent.com/thanglequoc/vietnamese-provinces-database/master/json/geojson/04_cao_bang/wards/01594_doc_lap.geojson","boundary_source_page":"https://github.com/thanglequoc/vietnamese-provinces-database/blob/master/json/geojson/04_cao_bang/wards/01594_doc_lap.geojson","source_catalog":"https://github.com/thanglequoc/vietnamese-provinces-database"},"geometry":null},{"type":"Feature","id":"01618","properties":{"commune_code":"01618","commune_name":"Hạnh Phúc","commune_name_en":"Hanh Phuc","commune_full_name":"Xã Hạnh Phúc","commune_full_name_en":"Hanh Phuc Commune","commune_slug":"hanh_phuc","unit_type":"Xã","unit_type_en":"Commune","admin_level":2,"province_code":"04","province_name":"Cao Bằng","province_full_name":"Tỉnh Cao Bằng","province_slug":"cao_bang","join_key":"01618","status":"active","dataset_effective_date":"2026-04-30","catalog_version":"2026-07-12","geometry_status":"not_embedded_boundary_available_by_url","boundary_source_url":"https://raw.githubusercontent.com/thanglequoc/vietnamese-provinces-database/master/json/geojson/04_cao_bang/wards/01618_hanh_phuc.geojson","boundary_source_page":"https://github.com/thanglequoc/vietnamese-provinces-database/blob/master/json/geojson/04_cao_bang/wards/01618_hanh_phuc.geojson","source_catalog":"https://github.com/thanglequoc/vietnamese-provinces-database"},"geometry":null},{"type":"Feature","id":"01636","properties":{"commune_code":"01636","commune_name":"Bế Văn Đàn","commune_name_en":"Be Van Dan","commune_full_name":"Xã Bế Văn Đàn","commune_full_name_en":"Be Van Dan Commune","commune_slug":"be_van_dan","unit_type":"Xã","unit_type_en":"Commune","admin_level":2,"province_code":"04","province_name":"Cao Bằng","province_full_name":"Tỉnh Cao Bằng","province_slug":"cao_bang","join_key":"01636","status":"active","dataset_effective_date":"2026-04-30","catalog_version":"2026-07-12","geometry_status":"not_embedded_boundary_available_by_url","boundary_source_url":"https://raw.githubusercontent.com/thanglequoc/vietnamese-provinces-database/master/json/geojson/04_cao_bang/wards/01636_be_van_dan.geojson","boundary_source_page":"https://github.com/thanglequoc/vietnamese-provinces-database/blob/master/json/geojson/04_cao_bang/wards/01636_be_van_dan.geojson","source_catalog":"https://github.com/thanglequoc/vietnamese-provinces-database"},"geometry":null},{"type":"Feature","id":"01648","properties":{"commune_code":"01648","commune_name":"Phục Hoà","commune_name_en":"Phuc Hoa","commune_full_name":"Xã Phục Hoà","commune_full_name_en":"Phuc Hoa Commune","commune_slug":"phuc_hoa","unit_type":"Xã","unit_type_en":"Commune","admin_level":2,"province_code":"04","province_name":"Cao Bằng","province_full_name":"Tỉnh Cao Bằng","province_slug":"cao_bang","join_key":"01648","status":"active","dataset_effective_date":"2026-04-30","catalog_version":"2026-07-12","geometry_status":"not_embedded_boundary_available_by_url","boundary_source_url":"https://raw.githubusercontent.com/thanglequoc/vietnamese-provinces-database/master/json/geojson/04_cao_bang/wards/01648_phuc_hoa.geojson","boundary_source_page":"https://github.com/thanglequoc/vietnamese-provinces-database/blob/master/json/geojson/04_cao_bang/wards/01648_phuc_hoa.geojson","source_catalog":"https://github.com/thanglequoc/vietnamese-provinces-database"},"geometry":null},{"type":"Feature","id":"01654","properties":{"commune_code":"01654","commune_name":"Hoà An","commune_name_en":"Hoa An","commune_full_name":"Xã Hoà An","commune_full_name_en":"Hoa An Commune","commune_slug":"hoa_an","unit_type":"Xã","unit_type_en":"Commune","admin_level":2,"province_code":"04","province_name":"Cao Bằng","province_full_name":"Tỉnh Cao Bằng","province_slug":"cao_bang","join_key":"01654","status":"active","dataset_effective_date":"2026-04-30","catalog_version":"2026-07-12","geometry_status":"not_embedded_boundary_available_by_url","boundary_source_url":"https://raw.githubusercontent.com/thanglequoc/vietnamese-provinces-database/master/json/geojson/04_cao_bang/wards/01654_hoa_an.geojson","boundary_source_page":"https://github.com/thanglequoc/vietnamese-provinces-database/blob/master/json/geojson/04_cao_bang/wards/01654_hoa_an.geojson","source_catalog":"https://github.com/thanglequoc/vietnamese-provinces-database"},"geometry":null},{"type":"Feature","id":"01660","properties":{"commune_code":"01660","commune_name":"Nam Tuấn","commune_name_en":"Nam Tuan","commune_full_name":"Xã Nam Tuấn","commune_full_name_en":"Nam Tuan Commune","commune_slug":"nam_tuan","unit_type":"Xã","unit_type_en":"Commune","admin_level":2,"province_code":"04","province_name":"Cao Bằng","province_full_name":"Tỉnh Cao Bằng","province_slug":"cao_bang","join_key":"01660","status":"active","dataset_effective_date":"2026-04-30","catalog_version":"2026-07-12","geometry_status":"not_embedded_boundary_available_by_url","boundary_source_url":"https://raw.githubusercontent.com/thanglequoc/vietnamese-provinces-database/master/json/geojson/04_cao_bang/wards/01660_nam_tuan.geojson","boundary_source_page":"https://github.com/thanglequoc/vietnamese-provinces-database/blob/master/json/geojson/04_cao_bang/wards/01660_nam_tuan.geojson","source_catalog":"https://github.com/thanglequoc/vietnamese-provinces-database"},"geometry":null},{"type":"Feature","id":"01699","properties":{"commune_code":"01699","commune_name":"Nguyễn Huệ","commune_name_en":"Nguyen Hue","commune_full_name":"Xã Nguyễn Huệ","commune_full_name_en":"Nguyen Hue Commune","commune_slug":"nguyen_hue","unit_type":"Xã","unit_type_en":"Commune","admin_level":2,"province_code":"04","province_name":"Cao Bằng","province_full_name":"Tỉnh Cao Bằng","province_slug":"cao_bang","join_key":"01699","status":"active","dataset_effective_date":"2026-04-30","catalog_version":"2026-07-12","geometry_status":"not_embedded_boundary_available_by_url","boundary_source_url":"https://raw.githubusercontent.com/thanglequoc/vietnamese-provinces-database/master/json/geojson/04_cao_bang/wards/01699_nguyen_hue.geojson","boundary_source_page":"https://github.com/thanglequoc/vietnamese-provinces-database/blob/master/json/geojson/04_cao_bang/wards/01699_nguyen_hue.geojson","source_catalog":"https://github.com/thanglequoc/vietnamese-provinces-database"},"geometry":null},{"type":"Feature","id":"01708","properties":{"commune_code":"01708","commune_name":"Bạch Đằng","commune_name_en":"Bach Dang","commune_full_name":"Xã Bạch Đằng","commune_full_name_en":"Bach Dang Commune","commune_slug":"bach_dang","unit_type":"Xã","unit_type_en":"Commune","admin_level":2,"province_code":"04","province_name":"Cao Bằng","province_full_name":"Tỉnh Cao Bằng","province_slug":"cao_bang","join_key":"01708","status":"active","dataset_effective_date":"2026-04-30","catalog_version":"2026-07-12","geometry_status":"not_embedded_boundary_available_by_url","boundary_source_url":"https://raw.githubusercontent.com/thanglequoc/vietnamese-provinces-database/master/json/geojson/04_cao_bang/wards/01708_bach_dang.geojson","boundary_source_page":"https://github.com/thanglequoc/vietnamese-provinces-database/blob/master/json/geojson/04_cao_bang/wards/01708_bach_dang.geojson","source_catalog":"https://github.com/thanglequoc/vietnamese-provinces-database"},"geometry":null},{"type":"Feature","id":"01726","properties":{"commune_code":"01726","commune_name":"Nguyên Bình","commune_name_en":"Nguyen Binh","commune_full_name":"Xã Nguyên Bình","commune_full_name_en":"Nguyen Binh Commune","commune_slug":"nguyen_binh","unit_type":"Xã","unit_type_en":"Commune","admin_level":2,"province_code":"04","province_name":"Cao Bằng","province_full_name":"Tỉnh Cao Bằng","province_slug":"cao_bang","join_key":"01726","status":"active","dataset_effective_date":"2026-04-30","catalog_version":"2026-07-12","geometry_status":"not_embedded_boundary_available_by_url","boundary_source_url":"https://raw.githubusercontent.com/thanglequoc/vietnamese-provinces-database/master/json/geojson/04_cao_bang/wards/01726_nguyen_binh.geojson","boundary_source_page":"https://github.com/thanglequoc/vietnamese-provinces-database/blob/master/json/geojson/04_cao_bang/wards/01726_nguyen_binh.geojson","source_catalog":"https://github.com/thanglequoc/vietnamese-provinces-database"},"geometry":null},{"type":"Feature","id":"01729","properties":{"commune_code":"01729","commune_name":"Tĩnh Túc","commune_name_en":"Tinh Tuc","commune_full_name":"Xã Tĩnh Túc","commune_full_name_en":"Tinh Tuc Commune","commune_slug":"tinh_tuc","unit_type":"Xã","unit_type_en":"Commune","admin_level":2,"province_code":"04","province_name":"Cao Bằng","province_full_name":"Tỉnh Cao Bằng","province_slug":"cao_bang","join_key":"01729","status":"active","dataset_effective_date":"2026-04-30","catalog_version":"2026-07-12","geometry_status":"not_embedded_boundary_available_by_url","boundary_source_url":"https://raw.githubusercontent.com/thanglequoc/vietnamese-provinces-database/master/json/geojson/04_cao_bang/wards/01729_tinh_tuc.geojson","boundary_source_page":"https://github.com/thanglequoc/vietnamese-provinces-database/blob/master/json/geojson/04_cao_bang/wards/01729_tinh_tuc.geojson","source_catalog":"https://github.com/thanglequoc/vietnamese-provinces-database"},"geometry":null},{"type":"Feature","id":"01738","properties":{"commune_code":"01738","commune_name":"Ca Thành","commune_name_en":"Ca Thanh","commune_full_name":"Xã Ca Thành","commune_full_name_en":"Ca Thanh Commune","commune_slug":"ca_thanh","unit_type":"Xã","unit_type_en":"Commune","admin_level":2,"province_code":"04","province_name":"Cao Bằng","province_full_name":"Tỉnh Cao Bằng","province_slug":"cao_bang","join_key":"01738","status":"active","dataset_effective_date":"2026-04-30","catalog_version":"2026-07-12","geometry_status":"not_embedded_boundary_available_by_url","boundary_source_url":"https://raw.githubusercontent.com/thanglequoc/vietnamese-provinces-database/master/json/geojson/04_cao_bang/wards/01738_ca_thanh.geojson","boundary_source_page":"https://github.com/thanglequoc/vietnamese-provinces-database/blob/master/json/geojson/04_cao_bang/wards/01738_ca_thanh.geojson","source_catalog":"https://github.com/thanglequoc/vietnamese-provinces-database"},"geometry":null},{"type":"Feature","id":"01747","properties":{"commune_code":"01747","commune_name":"Minh Tâm","commune_name_en":"Minh Tam","commune_full_name":"Xã Minh Tâm","commune_full_name_en":"Minh Tam Commune","commune_slug":"minh_tam","unit_type":"Xã","unit_type_en":"Commune","admin_level":2,"province_code":"04","province_name":"Cao Bằng","province_full_name":"Tỉnh Cao Bằng","province_slug":"cao_bang","join_key":"01747","status":"active","dataset_effective_date":"2026-04-30","catalog_version":"2026-07-12","geometry_status":"not_embedded_boundary_available_by_url","boundary_source_url":"https://raw.githubusercontent.com/thanglequoc/vietnamese-provinces-database/master/json/geojson/04_cao_bang/wards/01747_minh_tam.geojson","boundary_source_page":"https://github.com/thanglequoc/vietnamese-provinces-database/blob/master/json/geojson/04_cao_bang/wards/01747_minh_tam.geojson","source_catalog":"https://github.com/thanglequoc/vietnamese-provinces-database"},"geometry":null},{"type":"Feature","id":"01768","properties":{"commune_code":"01768","commune_name":"Phan Thanh","commune_name_en":"Phan Thanh","commune_full_name":"Xã Phan Thanh","commune_full_name_en":"Phan Thanh Commune","commune_slug":"phan_thanh","unit_type":"Xã","unit_type_en":"Commune","admin_level":2,"province_code":"04","province_name":"Cao Bằng","province_full_name":"Tỉnh Cao Bằng","province_slug":"cao_bang","join_key":"01768","status":"active","dataset_effective_date":"2026-04-30","catalog_version":"2026-07-12","geometry_status":"not_embedded_boundary_available_by_url","boundary_source_url":"https://raw.githubusercontent.com/thanglequoc/vietnamese-provinces-database/master/json/geojson/04_cao_bang/wards/01768_phan_thanh.geojson","boundary_source_page":"https://github.com/thanglequoc/vietnamese-provinces-database/blob/master/json/geojson/04_cao_bang/wards/01768_phan_thanh.geojson","source_catalog":"https://github.com/thanglequoc/vietnamese-provinces-database"},"geometry":null},{"type":"Feature","id":"01774","properties":{"commune_code":"01774","commune_name":"Tam Kim","commune_name_en":"Tam Kim","commune_full_name":"Xã Tam Kim","commune_full_name_en":"Tam Kim Commune","commune_slug":"tam_kim","unit_type":"Xã","unit_type_en":"Commune","admin_level":2,"province_code":"04","province_name":"Cao Bằng","province_full_name":"Tỉnh Cao Bằng","province_slug":"cao_bang","join_key":"01774","status":"active","dataset_effective_date":"2026-04-30","catalog_version":"2026-07-12","geometry_status":"not_embedded_boundary_available_by_url","boundary_source_url":"https://raw.githubusercontent.com/thanglequoc/vietnamese-provinces-database/master/json/geojson/04_cao_bang/wards/01774_tam_kim.geojson","boundary_source_page":"https://github.com/thanglequoc/vietnamese-provinces-database/blob/master/json/geojson/04_cao_bang/wards/01774_tam_kim.geojson","source_catalog":"https://github.com/thanglequoc/vietnamese-provinces-database"},"geometry":null},{"type":"Feature","id":"01777","properties":{"commune_code":"01777","commune_name":"Thành Công","commune_name_en":"Thanh Cong","commune_full_name":"Xã Thành Công","commune_full_name_en":"Thanh Cong Commune","commune_slug":"thanh_cong","unit_type":"Xã","unit_type_en":"Commune","admin_level":2,"province_code":"04","province_name":"Cao Bằng","province_full_name":"Tỉnh Cao Bằng","province_slug":"cao_bang","join_key":"01777","status":"active","dataset_effective_date":"2026-04-30","catalog_version":"2026-07-12","geometry_status":"not_embedded_boundary_available_by_url","boundary_source_url":"https://raw.githubusercontent.com/thanglequoc/vietnamese-provinces-database/master/json/geojson/04_cao_bang/wards/01777_thanh_cong.geojson","boundary_source_page":"https://github.com/thanglequoc/vietnamese-provinces-database/blob/master/json/geojson/04_cao_bang/wards/01777_thanh_cong.geojson","source_catalog":"https://github.com/thanglequoc/vietnamese-provinces-database"},"geometry":null},{"type":"Feature","id":"01786","properties":{"commune_code":"01786","commune_name":"Đông Khê","commune_name_en":"Dong Khe","commune_full_name":"Xã Đông Khê","commune_full_name_en":"Dong Khe Commune","commune_slug":"dong_khe","unit_type":"Xã","unit_type_en":"Commune","admin_level":2,"province_code":"04","province_name":"Cao Bằng","province_full_name":"Tỉnh Cao Bằng","province_slug":"cao_bang","join_key":"01786","status":"active","dataset_effective_date":"2026-04-30","catalog_version":"2026-07-12","geometry_status":"not_embedded_boundary_available_by_url","boundary_source_url":"https://raw.githubusercontent.com/thanglequoc/vietnamese-provinces-database/master/json/geojson/04_cao_bang/wards/01786_dong_khe.geojson","boundary_source_page":"https://github.com/thanglequoc/vietnamese-provinces-database/blob/master/json/geojson/04_cao_bang/wards/01786_dong_khe.geojson","source_catalog":"https://github.com/thanglequoc/vietnamese-provinces-database"},"geometry":null},{"type":"Feature","id":"01789","properties":{"commune_code":"01789","commune_name":"Canh Tân","commune_name_en":"Canh Tan","commune_full_name":"Xã Canh Tân","commune_full_name_en":"Canh Tan Commune","commune_slug":"canh_tan","unit_type":"Xã","unit_type_en":"Commune","admin_level":2,"province_code":"04","province_name":"Cao Bằng","province_full_name":"Tỉnh Cao Bằng","province_slug":"cao_bang","join_key":"01789","status":"active","dataset_effective_date":"2026-04-30","catalog_version":"2026-07-12","geometry_status":"not_embedded_boundary_available_by_url","boundary_source_url":"https://raw.githubusercontent.com/thanglequoc/vietnamese-provinces-database/master/json/geojson/04_cao_bang/wards/01789_canh_tan.geojson","boundary_source_page":"https://github.com/thanglequoc/vietnamese-provinces-database/blob/master/json/geojson/04_cao_bang/wards/01789_canh_tan.geojson","source_catalog":"https://github.com/thanglequoc/vietnamese-provinces-database"},"geometry":null},{"type":"Feature","id":"01792","properties":{"commune_code":"01792","commune_name":"Kim Đồng","commune_name_en":"Kim Dong","commune_full_name":"Xã Kim Đồng","commune_full_name_en":"Kim Dong Commune","commune_slug":"kim_dong","unit_type":"Xã","unit_type_en":"Commune","admin_level":2,"province_code":"04","province_name":"Cao Bằng","province_full_name":"Tỉnh Cao Bằng","province_slug":"cao_bang","join_key":"01792","status":"active","dataset_effective_date":"2026-04-30","catalog_version":"2026-07-12","geometry_status":"not_embedded_boundary_available_by_url","boundary_source_url":"https://raw.githubusercontent.com/thanglequoc/vietnamese-provinces-database/master/json/geojson/04_cao_bang/wards/01792_kim_dong.geojson","boundary_source_page":"https://github.com/thanglequoc/vietnamese-provinces-database/blob/master/json/geojson/04_cao_bang/wards/01792_kim_dong.geojson","source_catalog":"https://github.com/thanglequoc/vietnamese-provinces-database"},"geometry":null},{"type":"Feature","id":"01795","properties":{"commune_code":"01795","commune_name":"Minh Khai","commune_name_en":"Minh Khai","commune_full_name":"Xã Minh Khai","commune_full_name_en":"Minh Khai Commune","commune_slug":"minh_khai","unit_type":"Xã","unit_type_en":"Commune","admin_level":2,"province_code":"04","province_name":"Cao Bằng","province_full_name":"Tỉnh Cao Bằng","province_slug":"cao_bang","join_key":"01795","status":"active","dataset_effective_date":"2026-04-30","catalog_version":"2026-07-12","geometry_status":"not_embedded_boundary_available_by_url","boundary_source_url":"https://raw.githubusercontent.com/thanglequoc/vietnamese-provinces-database/master/json/geojson/04_cao_bang/wards/01795_minh_khai.geojson","boundary_source_page":"https://github.com/thanglequoc/vietnamese-provinces-database/blob/master/json/geojson/04_cao_bang/wards/01795_minh_khai.geojson","source_catalog":"https://github.com/thanglequoc/vietnamese-provinces-database"},"geometry":null},{"type":"Feature","id":"01807","properties":{"commune_code":"01807","commune_name":"Thạch An","commune_name_en":"Thach An","commune_full_name":"Xã Thạch An","commune_full_name_en":"Thach An Commune","commune_slug":"thach_an","unit_type":"Xã","unit_type_en":"Commune","admin_level":2,"province_code":"04","province_name":"Cao Bằng","province_full_name":"Tỉnh Cao Bằng","province_slug":"cao_bang","join_key":"01807","status":"active","dataset_effective_date":"2026-04-30","catalog_version":"2026-07-12","geometry_status":"not_embedded_boundary_available_by_url","boundary_source_url":"https://raw.githubusercontent.com/thanglequoc/vietnamese-provinces-database/master/json/geojson/04_cao_bang/wards/01807_thach_an.geojson","boundary_source_page":"https://github.com/thanglequoc/vietnamese-provinces-database/blob/master/json/geojson/04_cao_bang/wards/01807_thach_an.geojson","source_catalog":"https://github.com/thanglequoc/vietnamese-provinces-database"},"geometry":null},{"type":"Feature","id":"01822","properties":{"commune_code":"01822","commune_name":"Đức Long","commune_name_en":"Duc Long","commune_full_name":"Xã Đức Long","commune_full_name_en":"Duc Long Commune","commune_slug":"duc_long","unit_type":"Xã","unit_type_en":"Commune","admin_level":2,"province_code":"04","province_name":"Cao Bằng","province_full_name":"Tỉnh Cao Bằng","province_slug":"cao_bang","join_key":"01822","status":"active","dataset_effective_date":"2026-04-30","catalog_version":"2026-07-12","geometry_status":"not_embedded_boundary_available_by_url","boundary_source_url":"https://raw.githubusercontent.com/thanglequoc/vietnamese-provinces-database/master/json/geojson/04_cao_bang/wards/01822_duc_long.geojson","boundary_source_page":"https://github.com/thanglequoc/vietnamese-provinces-database/blob/master/json/geojson/04_cao_bang/wards/01822_duc_long.geojson","source_catalog":"https://github.com/thanglequoc/vietnamese-provinces-database"},"geometry":null}]}