{"type":"FeatureCollection","name":"11_dien_bien_communes_attributes","metadata":{"province_code":"11","province_name":"Điện Biên","feature_count":45,"geometry":null,"join_key":"commune_code"},"features":[{"type":"Feature","id":"03127","properties":{"commune_code":"03127","commune_name":"Điện Biên Phủ","commune_name_en":"Dien Bien Phu","commune_full_name":"Phường Điện Biên Phủ","commune_full_name_en":"Dien Bien Phu Ward","commune_slug":"dien_bien_phu","unit_type":"Phường","unit_type_en":"Ward","admin_level":2,"province_code":"11","province_name":"Điện Biên","province_full_name":"Tỉnh Điện Biên","province_slug":"dien_bien","join_key":"03127","status":"active","dataset_effective_date":"2026-04-30","catalog_version":"2026-07-12","geometry_status":"not_embedded_boundary_available_by_url","boundary_source_url":"https://raw.githubusercontent.com/thanglequoc/vietnamese-provinces-database/master/json/geojson/11_dien_bien/wards/03127_dien_bien_phu.geojson","boundary_source_page":"https://github.com/thanglequoc/vietnamese-provinces-database/blob/master/json/geojson/11_dien_bien/wards/03127_dien_bien_phu.geojson","source_catalog":"https://github.com/thanglequoc/vietnamese-provinces-database"},"geometry":null},{"type":"Feature","id":"03151","properties":{"commune_code":"03151","commune_name":"Mường Lay","commune_name_en":"Muong Lay","commune_full_name":"Phường Mường Lay","commune_full_name_en":"Muong Lay Ward","commune_slug":"muong_lay","unit_type":"Phường","unit_type_en":"Ward","admin_level":2,"province_code":"11","province_name":"Điện Biên","province_full_name":"Tỉnh Điện Biên","province_slug":"dien_bien","join_key":"03151","status":"active","dataset_effective_date":"2026-04-30","catalog_version":"2026-07-12","geometry_status":"not_embedded_boundary_available_by_url","boundary_source_url":"https://raw.githubusercontent.com/thanglequoc/vietnamese-provinces-database/master/json/geojson/11_dien_bien/wards/03151_muong_lay.geojson","boundary_source_page":"https://github.com/thanglequoc/vietnamese-provinces-database/blob/master/json/geojson/11_dien_bien/wards/03151_muong_lay.geojson","source_catalog":"https://github.com/thanglequoc/vietnamese-provinces-database"},"geometry":null},{"type":"Feature","id":"03158","properties":{"commune_code":"03158","commune_name":"Sín Thầu","commune_name_en":"Sin Thau","commune_full_name":"Xã Sín Thầu","commune_full_name_en":"Sin Thau Commune","commune_slug":"sin_thau","unit_type":"Xã","unit_type_en":"Commune","admin_level":2,"province_code":"11","province_name":"Điện Biên","province_full_name":"Tỉnh Điện Biên","province_slug":"dien_bien","join_key":"03158","status":"active","dataset_effective_date":"2026-04-30","catalog_version":"2026-07-12","geometry_status":"not_embedded_boundary_available_by_url","boundary_source_url":"https://raw.githubusercontent.com/thanglequoc/vietnamese-provinces-database/master/json/geojson/11_dien_bien/wards/03158_sin_thau.geojson","boundary_source_page":"https://github.com/thanglequoc/vietnamese-provinces-database/blob/master/json/geojson/11_dien_bien/wards/03158_sin_thau.geojson","source_catalog":"https://github.com/thanglequoc/vietnamese-provinces-database"},"geometry":null},{"type":"Feature","id":"03160","properties":{"commune_code":"03160","commune_name":"Mường Nhé","commune_name_en":"Muong Nhe","commune_full_name":"Xã Mường Nhé","commune_full_name_en":"Muong Nhe Commune","commune_slug":"muong_nhe","unit_type":"Xã","unit_type_en":"Commune","admin_level":2,"province_code":"11","province_name":"Điện Biên","province_full_name":"Tỉnh Điện Biên","province_slug":"dien_bien","join_key":"03160","status":"active","dataset_effective_date":"2026-04-30","catalog_version":"2026-07-12","geometry_status":"not_embedded_boundary_available_by_url","boundary_source_url":"https://raw.githubusercontent.com/thanglequoc/vietnamese-provinces-database/master/json/geojson/11_dien_bien/wards/03160_muong_nhe.geojson","boundary_source_page":"https://github.com/thanglequoc/vietnamese-provinces-database/blob/master/json/geojson/11_dien_bien/wards/03160_muong_nhe.geojson","source_catalog":"https://github.com/thanglequoc/vietnamese-provinces-database"},"geometry":null},{"type":"Feature","id":"03162","properties":{"commune_code":"03162","commune_name":"Nậm Kè","commune_name_en":"Nam Ke","commune_full_name":"Xã Nậm Kè","commune_full_name_en":"Nam Ke Commune","commune_slug":"nam_ke","unit_type":"Xã","unit_type_en":"Commune","admin_level":2,"province_code":"11","province_name":"Điện Biên","province_full_name":"Tỉnh Điện Biên","province_slug":"dien_bien","join_key":"03162","status":"active","dataset_effective_date":"2026-04-30","catalog_version":"2026-07-12","geometry_status":"not_embedded_boundary_available_by_url","boundary_source_url":"https://raw.githubusercontent.com/thanglequoc/vietnamese-provinces-database/master/json/geojson/11_dien_bien/wards/03162_nam_ke.geojson","boundary_source_page":"https://github.com/thanglequoc/vietnamese-provinces-database/blob/master/json/geojson/11_dien_bien/wards/03162_nam_ke.geojson","source_catalog":"https://github.com/thanglequoc/vietnamese-provinces-database"},"geometry":null},{"type":"Feature","id":"03163","properties":{"commune_code":"03163","commune_name":"Mường Toong","commune_name_en":"Muong Toong","commune_full_name":"Xã Mường Toong","commune_full_name_en":"Muong Toong Commune","commune_slug":"muong_toong","unit_type":"Xã","unit_type_en":"Commune","admin_level":2,"province_code":"11","province_name":"Điện Biên","province_full_name":"Tỉnh Điện Biên","province_slug":"dien_bien","join_key":"03163","status":"active","dataset_effective_date":"2026-04-30","catalog_version":"2026-07-12","geometry_status":"not_embedded_boundary_available_by_url","boundary_source_url":"https://raw.githubusercontent.com/thanglequoc/vietnamese-provinces-database/master/json/geojson/11_dien_bien/wards/03163_muong_toong.geojson","boundary_source_page":"https://github.com/thanglequoc/vietnamese-provinces-database/blob/master/json/geojson/11_dien_bien/wards/03163_muong_toong.geojson","source_catalog":"https://github.com/thanglequoc/vietnamese-provinces-database"},"geometry":null},{"type":"Feature","id":"03164","properties":{"commune_code":"03164","commune_name":"Quảng Lâm","commune_name_en":"Quang Lam","commune_full_name":"Xã Quảng Lâm","commune_full_name_en":"Quang Lam Commune","commune_slug":"quang_lam","unit_type":"Xã","unit_type_en":"Commune","admin_level":2,"province_code":"11","province_name":"Điện Biên","province_full_name":"Tỉnh Điện Biên","province_slug":"dien_bien","join_key":"03164","status":"active","dataset_effective_date":"2026-04-30","catalog_version":"2026-07-12","geometry_status":"not_embedded_boundary_available_by_url","boundary_source_url":"https://raw.githubusercontent.com/thanglequoc/vietnamese-provinces-database/master/json/geojson/11_dien_bien/wards/03164_quang_lam.geojson","boundary_source_page":"https://github.com/thanglequoc/vietnamese-provinces-database/blob/master/json/geojson/11_dien_bien/wards/03164_quang_lam.geojson","source_catalog":"https://github.com/thanglequoc/vietnamese-provinces-database"},"geometry":null},{"type":"Feature","id":"03166","properties":{"commune_code":"03166","commune_name":"Mường Chà","commune_name_en":"Muong Cha","commune_full_name":"Xã Mường Chà","commune_full_name_en":"Muong Cha Commune","commune_slug":"muong_cha","unit_type":"Xã","unit_type_en":"Commune","admin_level":2,"province_code":"11","province_name":"Điện Biên","province_full_name":"Tỉnh Điện Biên","province_slug":"dien_bien","join_key":"03166","status":"active","dataset_effective_date":"2026-04-30","catalog_version":"2026-07-12","geometry_status":"not_embedded_boundary_available_by_url","boundary_source_url":"https://raw.githubusercontent.com/thanglequoc/vietnamese-provinces-database/master/json/geojson/11_dien_bien/wards/03166_muong_cha.geojson","boundary_source_page":"https://github.com/thanglequoc/vietnamese-provinces-database/blob/master/json/geojson/11_dien_bien/wards/03166_muong_cha.geojson","source_catalog":"https://github.com/thanglequoc/vietnamese-provinces-database"},"geometry":null},{"type":"Feature","id":"03169","properties":{"commune_code":"03169","commune_name":"Nà Hỳ","commune_name_en":"Na Hy","commune_full_name":"Xã Nà Hỳ","commune_full_name_en":"Na Hy Commune","commune_slug":"na_hy","unit_type":"Xã","unit_type_en":"Commune","admin_level":2,"province_code":"11","province_name":"Điện Biên","province_full_name":"Tỉnh Điện Biên","province_slug":"dien_bien","join_key":"03169","status":"active","dataset_effective_date":"2026-04-30","catalog_version":"2026-07-12","geometry_status":"not_embedded_boundary_available_by_url","boundary_source_url":"https://raw.githubusercontent.com/thanglequoc/vietnamese-provinces-database/master/json/geojson/11_dien_bien/wards/03169_na_hy.geojson","boundary_source_page":"https://github.com/thanglequoc/vietnamese-provinces-database/blob/master/json/geojson/11_dien_bien/wards/03169_na_hy.geojson","source_catalog":"https://github.com/thanglequoc/vietnamese-provinces-database"},"geometry":null},{"type":"Feature","id":"03172","properties":{"commune_code":"03172","commune_name":"Na Sang","commune_name_en":"Na Sang","commune_full_name":"Xã Na Sang","commune_full_name_en":"Na Sang Commune","commune_slug":"na_sang","unit_type":"Xã","unit_type_en":"Commune","admin_level":2,"province_code":"11","province_name":"Điện Biên","province_full_name":"Tỉnh Điện Biên","province_slug":"dien_bien","join_key":"03172","status":"active","dataset_effective_date":"2026-04-30","catalog_version":"2026-07-12","geometry_status":"not_embedded_boundary_available_by_url","boundary_source_url":"https://raw.githubusercontent.com/thanglequoc/vietnamese-provinces-database/master/json/geojson/11_dien_bien/wards/03172_na_sang.geojson","boundary_source_page":"https://github.com/thanglequoc/vietnamese-provinces-database/blob/master/json/geojson/11_dien_bien/wards/03172_na_sang.geojson","source_catalog":"https://github.com/thanglequoc/vietnamese-provinces-database"},"geometry":null},{"type":"Feature","id":"03175","properties":{"commune_code":"03175","commune_name":"Chà Tở","commune_name_en":"Cha To","commune_full_name":"Xã Chà Tở","commune_full_name_en":"Cha To Commune","commune_slug":"cha_to","unit_type":"Xã","unit_type_en":"Commune","admin_level":2,"province_code":"11","province_name":"Điện Biên","province_full_name":"Tỉnh Điện Biên","province_slug":"dien_bien","join_key":"03175","status":"active","dataset_effective_date":"2026-04-30","catalog_version":"2026-07-12","geometry_status":"not_embedded_boundary_available_by_url","boundary_source_url":"https://raw.githubusercontent.com/thanglequoc/vietnamese-provinces-database/master/json/geojson/11_dien_bien/wards/03175_cha_to.geojson","boundary_source_page":"https://github.com/thanglequoc/vietnamese-provinces-database/blob/master/json/geojson/11_dien_bien/wards/03175_cha_to.geojson","source_catalog":"https://github.com/thanglequoc/vietnamese-provinces-database"},"geometry":null},{"type":"Feature","id":"03176","properties":{"commune_code":"03176","commune_name":"Nà Bủng","commune_name_en":"Na Bung","commune_full_name":"Xã Nà Bủng","commune_full_name_en":"Na Bung Commune","commune_slug":"na_bung","unit_type":"Xã","unit_type_en":"Commune","admin_level":2,"province_code":"11","province_name":"Điện Biên","province_full_name":"Tỉnh Điện Biên","province_slug":"dien_bien","join_key":"03176","status":"active","dataset_effective_date":"2026-04-30","catalog_version":"2026-07-12","geometry_status":"not_embedded_boundary_available_by_url","boundary_source_url":"https://raw.githubusercontent.com/thanglequoc/vietnamese-provinces-database/master/json/geojson/11_dien_bien/wards/03176_na_bung.geojson","boundary_source_page":"https://github.com/thanglequoc/vietnamese-provinces-database/blob/master/json/geojson/11_dien_bien/wards/03176_na_bung.geojson","source_catalog":"https://github.com/thanglequoc/vietnamese-provinces-database"},"geometry":null},{"type":"Feature","id":"03181","properties":{"commune_code":"03181","commune_name":"Mường Tùng","commune_name_en":"Muong Tung","commune_full_name":"Xã Mường Tùng","commune_full_name_en":"Muong Tung Commune","commune_slug":"muong_tung","unit_type":"Xã","unit_type_en":"Commune","admin_level":2,"province_code":"11","province_name":"Điện Biên","province_full_name":"Tỉnh Điện Biên","province_slug":"dien_bien","join_key":"03181","status":"active","dataset_effective_date":"2026-04-30","catalog_version":"2026-07-12","geometry_status":"not_embedded_boundary_available_by_url","boundary_source_url":"https://raw.githubusercontent.com/thanglequoc/vietnamese-provinces-database/master/json/geojson/11_dien_bien/wards/03181_muong_tung.geojson","boundary_source_page":"https://github.com/thanglequoc/vietnamese-provinces-database/blob/master/json/geojson/11_dien_bien/wards/03181_muong_tung.geojson","source_catalog":"https://github.com/thanglequoc/vietnamese-provinces-database"},"geometry":null},{"type":"Feature","id":"03193","properties":{"commune_code":"03193","commune_name":"Pa Ham","commune_name_en":"Pa Ham","commune_full_name":"Xã Pa Ham","commune_full_name_en":"Pa Ham Commune","commune_slug":"pa_ham","unit_type":"Xã","unit_type_en":"Commune","admin_level":2,"province_code":"11","province_name":"Điện Biên","province_full_name":"Tỉnh Điện Biên","province_slug":"dien_bien","join_key":"03193","status":"active","dataset_effective_date":"2026-04-30","catalog_version":"2026-07-12","geometry_status":"not_embedded_boundary_available_by_url","boundary_source_url":"https://raw.githubusercontent.com/thanglequoc/vietnamese-provinces-database/master/json/geojson/11_dien_bien/wards/03193_pa_ham.geojson","boundary_source_page":"https://github.com/thanglequoc/vietnamese-provinces-database/blob/master/json/geojson/11_dien_bien/wards/03193_pa_ham.geojson","source_catalog":"https://github.com/thanglequoc/vietnamese-provinces-database"},"geometry":null},{"type":"Feature","id":"03194","properties":{"commune_code":"03194","commune_name":"Nậm Nèn","commune_name_en":"Nam Nen","commune_full_name":"Xã Nậm Nèn","commune_full_name_en":"Nam Nen Commune","commune_slug":"nam_nen","unit_type":"Xã","unit_type_en":"Commune","admin_level":2,"province_code":"11","province_name":"Điện Biên","province_full_name":"Tỉnh Điện Biên","province_slug":"dien_bien","join_key":"03194","status":"active","dataset_effective_date":"2026-04-30","catalog_version":"2026-07-12","geometry_status":"not_embedded_boundary_available_by_url","boundary_source_url":"https://raw.githubusercontent.com/thanglequoc/vietnamese-provinces-database/master/json/geojson/11_dien_bien/wards/03194_nam_nen.geojson","boundary_source_page":"https://github.com/thanglequoc/vietnamese-provinces-database/blob/master/json/geojson/11_dien_bien/wards/03194_nam_nen.geojson","source_catalog":"https://github.com/thanglequoc/vietnamese-provinces-database"},"geometry":null},{"type":"Feature","id":"03199","properties":{"commune_code":"03199","commune_name":"Si Pa Phìn","commune_name_en":"Si Pa Phin","commune_full_name":"Xã Si Pa Phìn","commune_full_name_en":"Si Pa Phin Commune","commune_slug":"si_pa_phin","unit_type":"Xã","unit_type_en":"Commune","admin_level":2,"province_code":"11","province_name":"Điện Biên","province_full_name":"Tỉnh Điện Biên","province_slug":"dien_bien","join_key":"03199","status":"active","dataset_effective_date":"2026-04-30","catalog_version":"2026-07-12","geometry_status":"not_embedded_boundary_available_by_url","boundary_source_url":"https://raw.githubusercontent.com/thanglequoc/vietnamese-provinces-database/master/json/geojson/11_dien_bien/wards/03199_si_pa_phin.geojson","boundary_source_page":"https://github.com/thanglequoc/vietnamese-provinces-database/blob/master/json/geojson/11_dien_bien/wards/03199_si_pa_phin.geojson","source_catalog":"https://github.com/thanglequoc/vietnamese-provinces-database"},"geometry":null},{"type":"Feature","id":"03202","properties":{"commune_code":"03202","commune_name":"Mường Pồn","commune_name_en":"Muong Pon","commune_full_name":"Xã Mường Pồn","commune_full_name_en":"Muong Pon Commune","commune_slug":"muong_pon","unit_type":"Xã","unit_type_en":"Commune","admin_level":2,"province_code":"11","province_name":"Điện Biên","province_full_name":"Tỉnh Điện Biên","province_slug":"dien_bien","join_key":"03202","status":"active","dataset_effective_date":"2026-04-30","catalog_version":"2026-07-12","geometry_status":"not_embedded_boundary_available_by_url","boundary_source_url":"https://raw.githubusercontent.com/thanglequoc/vietnamese-provinces-database/master/json/geojson/11_dien_bien/wards/03202_muong_pon.geojson","boundary_source_page":"https://github.com/thanglequoc/vietnamese-provinces-database/blob/master/json/geojson/11_dien_bien/wards/03202_muong_pon.geojson","source_catalog":"https://github.com/thanglequoc/vietnamese-provinces-database"},"geometry":null},{"type":"Feature","id":"03203","properties":{"commune_code":"03203","commune_name":"Na Son","commune_name_en":"Na Son","commune_full_name":"Xã Na Son","commune_full_name_en":"Na Son Commune","commune_slug":"na_son","unit_type":"Xã","unit_type_en":"Commune","admin_level":2,"province_code":"11","province_name":"Điện Biên","province_full_name":"Tỉnh Điện Biên","province_slug":"dien_bien","join_key":"03203","status":"active","dataset_effective_date":"2026-04-30","catalog_version":"2026-07-12","geometry_status":"not_embedded_boundary_available_by_url","boundary_source_url":"https://raw.githubusercontent.com/thanglequoc/vietnamese-provinces-database/master/json/geojson/11_dien_bien/wards/03203_na_son.geojson","boundary_source_page":"https://github.com/thanglequoc/vietnamese-provinces-database/blob/master/json/geojson/11_dien_bien/wards/03203_na_son.geojson","source_catalog":"https://github.com/thanglequoc/vietnamese-provinces-database"},"geometry":null},{"type":"Feature","id":"03208","properties":{"commune_code":"03208","commune_name":"Xa Dung","commune_name_en":"Xa Dung","commune_full_name":"Xã Xa Dung","commune_full_name_en":"Xa Dung Commune","commune_slug":"xa_dung","unit_type":"Xã","unit_type_en":"Commune","admin_level":2,"province_code":"11","province_name":"Điện Biên","province_full_name":"Tỉnh Điện Biên","province_slug":"dien_bien","join_key":"03208","status":"active","dataset_effective_date":"2026-04-30","catalog_version":"2026-07-12","geometry_status":"not_embedded_boundary_available_by_url","boundary_source_url":"https://raw.githubusercontent.com/thanglequoc/vietnamese-provinces-database/master/json/geojson/11_dien_bien/wards/03208_xa_dung.geojson","boundary_source_page":"https://github.com/thanglequoc/vietnamese-provinces-database/blob/master/json/geojson/11_dien_bien/wards/03208_xa_dung.geojson","source_catalog":"https://github.com/thanglequoc/vietnamese-provinces-database"},"geometry":null},{"type":"Feature","id":"03214","properties":{"commune_code":"03214","commune_name":"Mường Luân","commune_name_en":"Muong Luan","commune_full_name":"Xã Mường Luân","commune_full_name_en":"Muong Luan Commune","commune_slug":"muong_luan","unit_type":"Xã","unit_type_en":"Commune","admin_level":2,"province_code":"11","province_name":"Điện Biên","province_full_name":"Tỉnh Điện Biên","province_slug":"dien_bien","join_key":"03214","status":"active","dataset_effective_date":"2026-04-30","catalog_version":"2026-07-12","geometry_status":"not_embedded_boundary_available_by_url","boundary_source_url":"https://raw.githubusercontent.com/thanglequoc/vietnamese-provinces-database/master/json/geojson/11_dien_bien/wards/03214_muong_luan.geojson","boundary_source_page":"https://github.com/thanglequoc/vietnamese-provinces-database/blob/master/json/geojson/11_dien_bien/wards/03214_muong_luan.geojson","source_catalog":"https://github.com/thanglequoc/vietnamese-provinces-database"},"geometry":null},{"type":"Feature","id":"03217","properties":{"commune_code":"03217","commune_name":"Tủa Chùa","commune_name_en":"Tua Chua","commune_full_name":"Xã Tủa Chùa","commune_full_name_en":"Tua Chua Commune","commune_slug":"tua_chua","unit_type":"Xã","unit_type_en":"Commune","admin_level":2,"province_code":"11","province_name":"Điện Biên","province_full_name":"Tỉnh Điện Biên","province_slug":"dien_bien","join_key":"03217","status":"active","dataset_effective_date":"2026-04-30","catalog_version":"2026-07-12","geometry_status":"not_embedded_boundary_available_by_url","boundary_source_url":"https://raw.githubusercontent.com/thanglequoc/vietnamese-provinces-database/master/json/geojson/11_dien_bien/wards/03217_tua_chua.geojson","boundary_source_page":"https://github.com/thanglequoc/vietnamese-provinces-database/blob/master/json/geojson/11_dien_bien/wards/03217_tua_chua.geojson","source_catalog":"https://github.com/thanglequoc/vietnamese-provinces-database"},"geometry":null},{"type":"Feature","id":"03220","properties":{"commune_code":"03220","commune_name":"Tủa Thàng","commune_name_en":"Tua Thang","commune_full_name":"Xã Tủa Thàng","commune_full_name_en":"Tua Thang Commune","commune_slug":"tua_thang","unit_type":"Xã","unit_type_en":"Commune","admin_level":2,"province_code":"11","province_name":"Điện Biên","province_full_name":"Tỉnh Điện Biên","province_slug":"dien_bien","join_key":"03220","status":"active","dataset_effective_date":"2026-04-30","catalog_version":"2026-07-12","geometry_status":"not_embedded_boundary_available_by_url","boundary_source_url":"https://raw.githubusercontent.com/thanglequoc/vietnamese-provinces-database/master/json/geojson/11_dien_bien/wards/03220_tua_thang.geojson","boundary_source_page":"https://github.com/thanglequoc/vietnamese-provinces-database/blob/master/json/geojson/11_dien_bien/wards/03220_tua_thang.geojson","source_catalog":"https://github.com/thanglequoc/vietnamese-provinces-database"},"geometry":null},{"type":"Feature","id":"03226","properties":{"commune_code":"03226","commune_name":"Sín Chải","commune_name_en":"Sin Chai","commune_full_name":"Xã Sín Chải","commune_full_name_en":"Sin Chai Commune","commune_slug":"sin_chai","unit_type":"Xã","unit_type_en":"Commune","admin_level":2,"province_code":"11","province_name":"Điện Biên","province_full_name":"Tỉnh Điện Biên","province_slug":"dien_bien","join_key":"03226","status":"active","dataset_effective_date":"2026-04-30","catalog_version":"2026-07-12","geometry_status":"not_embedded_boundary_available_by_url","boundary_source_url":"https://raw.githubusercontent.com/thanglequoc/vietnamese-provinces-database/master/json/geojson/11_dien_bien/wards/03226_sin_chai.geojson","boundary_source_page":"https://github.com/thanglequoc/vietnamese-provinces-database/blob/master/json/geojson/11_dien_bien/wards/03226_sin_chai.geojson","source_catalog":"https://github.com/thanglequoc/vietnamese-provinces-database"},"geometry":null},{"type":"Feature","id":"03241","properties":{"commune_code":"03241","commune_name":"Sính Phình","commune_name_en":"Sinh Phinh","commune_full_name":"Xã Sính Phình","commune_full_name_en":"Sinh Phinh Commune","commune_slug":"sinh_phinh","unit_type":"Xã","unit_type_en":"Commune","admin_level":2,"province_code":"11","province_name":"Điện Biên","province_full_name":"Tỉnh Điện Biên","province_slug":"dien_bien","join_key":"03241","status":"active","dataset_effective_date":"2026-04-30","catalog_version":"2026-07-12","geometry_status":"not_embedded_boundary_available_by_url","boundary_source_url":"https://raw.githubusercontent.com/thanglequoc/vietnamese-provinces-database/master/json/geojson/11_dien_bien/wards/03241_sinh_phinh.geojson","boundary_source_page":"https://github.com/thanglequoc/vietnamese-provinces-database/blob/master/json/geojson/11_dien_bien/wards/03241_sinh_phinh.geojson","source_catalog":"https://github.com/thanglequoc/vietnamese-provinces-database"},"geometry":null},{"type":"Feature","id":"03244","properties":{"commune_code":"03244","commune_name":"Sáng Nhè","commune_name_en":"Sang Nhe","commune_full_name":"Xã Sáng Nhè","commune_full_name_en":"Sang Nhe Commune","commune_slug":"sang_nhe","unit_type":"Xã","unit_type_en":"Commune","admin_level":2,"province_code":"11","province_name":"Điện Biên","province_full_name":"Tỉnh Điện Biên","province_slug":"dien_bien","join_key":"03244","status":"active","dataset_effective_date":"2026-04-30","catalog_version":"2026-07-12","geometry_status":"not_embedded_boundary_available_by_url","boundary_source_url":"https://raw.githubusercontent.com/thanglequoc/vietnamese-provinces-database/master/json/geojson/11_dien_bien/wards/03244_sang_nhe.geojson","boundary_source_page":"https://github.com/thanglequoc/vietnamese-provinces-database/blob/master/json/geojson/11_dien_bien/wards/03244_sang_nhe.geojson","source_catalog":"https://github.com/thanglequoc/vietnamese-provinces-database"},"geometry":null},{"type":"Feature","id":"03253","properties":{"commune_code":"03253","commune_name":"Tuần Giáo","commune_name_en":"Tuan Giao","commune_full_name":"Xã Tuần Giáo","commune_full_name_en":"Tuan Giao Commune","commune_slug":"tuan_giao","unit_type":"Xã","unit_type_en":"Commune","admin_level":2,"province_code":"11","province_name":"Điện Biên","province_full_name":"Tỉnh Điện Biên","province_slug":"dien_bien","join_key":"03253","status":"active","dataset_effective_date":"2026-04-30","catalog_version":"2026-07-12","geometry_status":"not_embedded_boundary_available_by_url","boundary_source_url":"https://raw.githubusercontent.com/thanglequoc/vietnamese-provinces-database/master/json/geojson/11_dien_bien/wards/03253_tuan_giao.geojson","boundary_source_page":"https://github.com/thanglequoc/vietnamese-provinces-database/blob/master/json/geojson/11_dien_bien/wards/03253_tuan_giao.geojson","source_catalog":"https://github.com/thanglequoc/vietnamese-provinces-database"},"geometry":null},{"type":"Feature","id":"03256","properties":{"commune_code":"03256","commune_name":"Mường Ảng","commune_name_en":"Muong Ang","commune_full_name":"Xã Mường Ảng","commune_full_name_en":"Muong Ang Commune","commune_slug":"muong_ang","unit_type":"Xã","unit_type_en":"Commune","admin_level":2,"province_code":"11","province_name":"Điện Biên","province_full_name":"Tỉnh Điện Biên","province_slug":"dien_bien","join_key":"03256","status":"active","dataset_effective_date":"2026-04-30","catalog_version":"2026-07-12","geometry_status":"not_embedded_boundary_available_by_url","boundary_source_url":"https://raw.githubusercontent.com/thanglequoc/vietnamese-provinces-database/master/json/geojson/11_dien_bien/wards/03256_muong_ang.geojson","boundary_source_page":"https://github.com/thanglequoc/vietnamese-provinces-database/blob/master/json/geojson/11_dien_bien/wards/03256_muong_ang.geojson","source_catalog":"https://github.com/thanglequoc/vietnamese-provinces-database"},"geometry":null},{"type":"Feature","id":"03260","properties":{"commune_code":"03260","commune_name":"Pú Nhung","commune_name_en":"Pu Nhung","commune_full_name":"Xã Pú Nhung","commune_full_name_en":"Pu Nhung Commune","commune_slug":"pu_nhung","unit_type":"Xã","unit_type_en":"Commune","admin_level":2,"province_code":"11","province_name":"Điện Biên","province_full_name":"Tỉnh Điện Biên","province_slug":"dien_bien","join_key":"03260","status":"active","dataset_effective_date":"2026-04-30","catalog_version":"2026-07-12","geometry_status":"not_embedded_boundary_available_by_url","boundary_source_url":"https://raw.githubusercontent.com/thanglequoc/vietnamese-provinces-database/master/json/geojson/11_dien_bien/wards/03260_pu_nhung.geojson","boundary_source_page":"https://github.com/thanglequoc/vietnamese-provinces-database/blob/master/json/geojson/11_dien_bien/wards/03260_pu_nhung.geojson","source_catalog":"https://github.com/thanglequoc/vietnamese-provinces-database"},"geometry":null},{"type":"Feature","id":"03268","properties":{"commune_code":"03268","commune_name":"Mường Mùn","commune_name_en":"Muong Mun","commune_full_name":"Xã Mường Mùn","commune_full_name_en":"Muong Mun Commune","commune_slug":"muong_mun","unit_type":"Xã","unit_type_en":"Commune","admin_level":2,"province_code":"11","province_name":"Điện Biên","province_full_name":"Tỉnh Điện Biên","province_slug":"dien_bien","join_key":"03268","status":"active","dataset_effective_date":"2026-04-30","catalog_version":"2026-07-12","geometry_status":"not_embedded_boundary_available_by_url","boundary_source_url":"https://raw.githubusercontent.com/thanglequoc/vietnamese-provinces-database/master/json/geojson/11_dien_bien/wards/03268_muong_mun.geojson","boundary_source_page":"https://github.com/thanglequoc/vietnamese-provinces-database/blob/master/json/geojson/11_dien_bien/wards/03268_muong_mun.geojson","source_catalog":"https://github.com/thanglequoc/vietnamese-provinces-database"},"geometry":null},{"type":"Feature","id":"03283","properties":{"commune_code":"03283","commune_name":"Chiềng Sinh","commune_name_en":"Chieng Sinh","commune_full_name":"Xã Chiềng Sinh","commune_full_name_en":"Chieng Sinh Commune","commune_slug":"chieng_sinh","unit_type":"Xã","unit_type_en":"Commune","admin_level":2,"province_code":"11","province_name":"Điện Biên","province_full_name":"Tỉnh Điện Biên","province_slug":"dien_bien","join_key":"03283","status":"active","dataset_effective_date":"2026-04-30","catalog_version":"2026-07-12","geometry_status":"not_embedded_boundary_available_by_url","boundary_source_url":"https://raw.githubusercontent.com/thanglequoc/vietnamese-provinces-database/master/json/geojson/11_dien_bien/wards/03283_chieng_sinh.geojson","boundary_source_page":"https://github.com/thanglequoc/vietnamese-provinces-database/blob/master/json/geojson/11_dien_bien/wards/03283_chieng_sinh.geojson","source_catalog":"https://github.com/thanglequoc/vietnamese-provinces-database"},"geometry":null},{"type":"Feature","id":"03295","properties":{"commune_code":"03295","commune_name":"Quài Tở","commune_name_en":"Quai To","commune_full_name":"Xã Quài Tở","commune_full_name_en":"Quai To Commune","commune_slug":"quai_to","unit_type":"Xã","unit_type_en":"Commune","admin_level":2,"province_code":"11","province_name":"Điện Biên","province_full_name":"Tỉnh Điện Biên","province_slug":"dien_bien","join_key":"03295","status":"active","dataset_effective_date":"2026-04-30","catalog_version":"2026-07-12","geometry_status":"not_embedded_boundary_available_by_url","boundary_source_url":"https://raw.githubusercontent.com/thanglequoc/vietnamese-provinces-database/master/json/geojson/11_dien_bien/wards/03295_quai_to.geojson","boundary_source_page":"https://github.com/thanglequoc/vietnamese-provinces-database/blob/master/json/geojson/11_dien_bien/wards/03295_quai_to.geojson","source_catalog":"https://github.com/thanglequoc/vietnamese-provinces-database"},"geometry":null},{"type":"Feature","id":"03301","properties":{"commune_code":"03301","commune_name":"Búng Lao","commune_name_en":"Bung Lao","commune_full_name":"Xã Búng Lao","commune_full_name_en":"Bung Lao Commune","commune_slug":"bung_lao","unit_type":"Xã","unit_type_en":"Commune","admin_level":2,"province_code":"11","province_name":"Điện Biên","province_full_name":"Tỉnh Điện Biên","province_slug":"dien_bien","join_key":"03301","status":"active","dataset_effective_date":"2026-04-30","catalog_version":"2026-07-12","geometry_status":"not_embedded_boundary_available_by_url","boundary_source_url":"https://raw.githubusercontent.com/thanglequoc/vietnamese-provinces-database/master/json/geojson/11_dien_bien/wards/03301_bung_lao.geojson","boundary_source_page":"https://github.com/thanglequoc/vietnamese-provinces-database/blob/master/json/geojson/11_dien_bien/wards/03301_bung_lao.geojson","source_catalog":"https://github.com/thanglequoc/vietnamese-provinces-database"},"geometry":null},{"type":"Feature","id":"03313","properties":{"commune_code":"03313","commune_name":"Mường Lạn","commune_name_en":"Muong Lan","commune_full_name":"Xã Mường Lạn","commune_full_name_en":"Muong Lan Commune","commune_slug":"muong_lan","unit_type":"Xã","unit_type_en":"Commune","admin_level":2,"province_code":"11","province_name":"Điện Biên","province_full_name":"Tỉnh Điện Biên","province_slug":"dien_bien","join_key":"03313","status":"active","dataset_effective_date":"2026-04-30","catalog_version":"2026-07-12","geometry_status":"not_embedded_boundary_available_by_url","boundary_source_url":"https://raw.githubusercontent.com/thanglequoc/vietnamese-provinces-database/master/json/geojson/11_dien_bien/wards/03313_muong_lan.geojson","boundary_source_page":"https://github.com/thanglequoc/vietnamese-provinces-database/blob/master/json/geojson/11_dien_bien/wards/03313_muong_lan.geojson","source_catalog":"https://github.com/thanglequoc/vietnamese-provinces-database"},"geometry":null},{"type":"Feature","id":"03316","properties":{"commune_code":"03316","commune_name":"Nà Tấu","commune_name_en":"Na Tau","commune_full_name":"Xã Nà Tấu","commune_full_name_en":"Na Tau Commune","commune_slug":"na_tau","unit_type":"Xã","unit_type_en":"Commune","admin_level":2,"province_code":"11","province_name":"Điện Biên","province_full_name":"Tỉnh Điện Biên","province_slug":"dien_bien","join_key":"03316","status":"active","dataset_effective_date":"2026-04-30","catalog_version":"2026-07-12","geometry_status":"not_embedded_boundary_available_by_url","boundary_source_url":"https://raw.githubusercontent.com/thanglequoc/vietnamese-provinces-database/master/json/geojson/11_dien_bien/wards/03316_na_tau.geojson","boundary_source_page":"https://github.com/thanglequoc/vietnamese-provinces-database/blob/master/json/geojson/11_dien_bien/wards/03316_na_tau.geojson","source_catalog":"https://github.com/thanglequoc/vietnamese-provinces-database"},"geometry":null},{"type":"Feature","id":"03325","properties":{"commune_code":"03325","commune_name":"Mường Phăng","commune_name_en":"Muong Phang","commune_full_name":"Xã Mường Phăng","commune_full_name_en":"Muong Phang Commune","commune_slug":"muong_phang","unit_type":"Xã","unit_type_en":"Commune","admin_level":2,"province_code":"11","province_name":"Điện Biên","province_full_name":"Tỉnh Điện Biên","province_slug":"dien_bien","join_key":"03325","status":"active","dataset_effective_date":"2026-04-30","catalog_version":"2026-07-12","geometry_status":"not_embedded_boundary_available_by_url","boundary_source_url":"https://raw.githubusercontent.com/thanglequoc/vietnamese-provinces-database/master/json/geojson/11_dien_bien/wards/03325_muong_phang.geojson","boundary_source_page":"https://github.com/thanglequoc/vietnamese-provinces-database/blob/master/json/geojson/11_dien_bien/wards/03325_muong_phang.geojson","source_catalog":"https://github.com/thanglequoc/vietnamese-provinces-database"},"geometry":null},{"type":"Feature","id":"03328","properties":{"commune_code":"03328","commune_name":"Thanh Nưa","commune_name_en":"Thanh Nua","commune_full_name":"Xã Thanh Nưa","commune_full_name_en":"Thanh Nua Commune","commune_slug":"thanh_nua","unit_type":"Xã","unit_type_en":"Commune","admin_level":2,"province_code":"11","province_name":"Điện Biên","province_full_name":"Tỉnh Điện Biên","province_slug":"dien_bien","join_key":"03328","status":"active","dataset_effective_date":"2026-04-30","catalog_version":"2026-07-12","geometry_status":"not_embedded_boundary_available_by_url","boundary_source_url":"https://raw.githubusercontent.com/thanglequoc/vietnamese-provinces-database/master/json/geojson/11_dien_bien/wards/03328_thanh_nua.geojson","boundary_source_page":"https://github.com/thanglequoc/vietnamese-provinces-database/blob/master/json/geojson/11_dien_bien/wards/03328_thanh_nua.geojson","source_catalog":"https://github.com/thanglequoc/vietnamese-provinces-database"},"geometry":null},{"type":"Feature","id":"03334","properties":{"commune_code":"03334","commune_name":"Mường Thanh","commune_name_en":"Muong Thanh","commune_full_name":"Phường Mường Thanh","commune_full_name_en":"Muong Thanh Ward","commune_slug":"muong_thanh","unit_type":"Phường","unit_type_en":"Ward","admin_level":2,"province_code":"11","province_name":"Điện Biên","province_full_name":"Tỉnh Điện Biên","province_slug":"dien_bien","join_key":"03334","status":"active","dataset_effective_date":"2026-04-30","catalog_version":"2026-07-12","geometry_status":"not_embedded_boundary_available_by_url","boundary_source_url":"https://raw.githubusercontent.com/thanglequoc/vietnamese-provinces-database/master/json/geojson/11_dien_bien/wards/03334_muong_thanh.geojson","boundary_source_page":"https://github.com/thanglequoc/vietnamese-provinces-database/blob/master/json/geojson/11_dien_bien/wards/03334_muong_thanh.geojson","source_catalog":"https://github.com/thanglequoc/vietnamese-provinces-database"},"geometry":null},{"type":"Feature","id":"03349","properties":{"commune_code":"03349","commune_name":"Thanh Yên","commune_name_en":"Thanh Yen","commune_full_name":"Xã Thanh Yên","commune_full_name_en":"Thanh Yen Commune","commune_slug":"thanh_yen","unit_type":"Xã","unit_type_en":"Commune","admin_level":2,"province_code":"11","province_name":"Điện Biên","province_full_name":"Tỉnh Điện Biên","province_slug":"dien_bien","join_key":"03349","status":"active","dataset_effective_date":"2026-04-30","catalog_version":"2026-07-12","geometry_status":"not_embedded_boundary_available_by_url","boundary_source_url":"https://raw.githubusercontent.com/thanglequoc/vietnamese-provinces-database/master/json/geojson/11_dien_bien/wards/03349_thanh_yen.geojson","boundary_source_page":"https://github.com/thanglequoc/vietnamese-provinces-database/blob/master/json/geojson/11_dien_bien/wards/03349_thanh_yen.geojson","source_catalog":"https://github.com/thanglequoc/vietnamese-provinces-database"},"geometry":null},{"type":"Feature","id":"03352","properties":{"commune_code":"03352","commune_name":"Thanh An","commune_name_en":"Thanh An","commune_full_name":"Xã Thanh An","commune_full_name_en":"Thanh An Commune","commune_slug":"thanh_an","unit_type":"Xã","unit_type_en":"Commune","admin_level":2,"province_code":"11","province_name":"Điện Biên","province_full_name":"Tỉnh Điện Biên","province_slug":"dien_bien","join_key":"03352","status":"active","dataset_effective_date":"2026-04-30","catalog_version":"2026-07-12","geometry_status":"not_embedded_boundary_available_by_url","boundary_source_url":"https://raw.githubusercontent.com/thanglequoc/vietnamese-provinces-database/master/json/geojson/11_dien_bien/wards/03352_thanh_an.geojson","boundary_source_page":"https://github.com/thanglequoc/vietnamese-provinces-database/blob/master/json/geojson/11_dien_bien/wards/03352_thanh_an.geojson","source_catalog":"https://github.com/thanglequoc/vietnamese-provinces-database"},"geometry":null},{"type":"Feature","id":"03356","properties":{"commune_code":"03356","commune_name":"Sam Mứn","commune_name_en":"Sam Mun","commune_full_name":"Xã Sam Mứn","commune_full_name_en":"Sam Mun Commune","commune_slug":"sam_mun","unit_type":"Xã","unit_type_en":"Commune","admin_level":2,"province_code":"11","province_name":"Điện Biên","province_full_name":"Tỉnh Điện Biên","province_slug":"dien_bien","join_key":"03356","status":"active","dataset_effective_date":"2026-04-30","catalog_version":"2026-07-12","geometry_status":"not_embedded_boundary_available_by_url","boundary_source_url":"https://raw.githubusercontent.com/thanglequoc/vietnamese-provinces-database/master/json/geojson/11_dien_bien/wards/03356_sam_mun.geojson","boundary_source_page":"https://github.com/thanglequoc/vietnamese-provinces-database/blob/master/json/geojson/11_dien_bien/wards/03356_sam_mun.geojson","source_catalog":"https://github.com/thanglequoc/vietnamese-provinces-database"},"geometry":null},{"type":"Feature","id":"03358","properties":{"commune_code":"03358","commune_name":"Núa Ngam","commune_name_en":"Nua Ngam","commune_full_name":"Xã Núa Ngam","commune_full_name_en":"Nua Ngam Commune","commune_slug":"nua_ngam","unit_type":"Xã","unit_type_en":"Commune","admin_level":2,"province_code":"11","province_name":"Điện Biên","province_full_name":"Tỉnh Điện Biên","province_slug":"dien_bien","join_key":"03358","status":"active","dataset_effective_date":"2026-04-30","catalog_version":"2026-07-12","geometry_status":"not_embedded_boundary_available_by_url","boundary_source_url":"https://raw.githubusercontent.com/thanglequoc/vietnamese-provinces-database/master/json/geojson/11_dien_bien/wards/03358_nua_ngam.geojson","boundary_source_page":"https://github.com/thanglequoc/vietnamese-provinces-database/blob/master/json/geojson/11_dien_bien/wards/03358_nua_ngam.geojson","source_catalog":"https://github.com/thanglequoc/vietnamese-provinces-database"},"geometry":null},{"type":"Feature","id":"03368","properties":{"commune_code":"03368","commune_name":"Mường Nhà","commune_name_en":"Muong Nha","commune_full_name":"Xã Mường Nhà","commune_full_name_en":"Muong Nha Commune","commune_slug":"muong_nha","unit_type":"Xã","unit_type_en":"Commune","admin_level":2,"province_code":"11","province_name":"Điện Biên","province_full_name":"Tỉnh Điện Biên","province_slug":"dien_bien","join_key":"03368","status":"active","dataset_effective_date":"2026-04-30","catalog_version":"2026-07-12","geometry_status":"not_embedded_boundary_available_by_url","boundary_source_url":"https://raw.githubusercontent.com/thanglequoc/vietnamese-provinces-database/master/json/geojson/11_dien_bien/wards/03368_muong_nha.geojson","boundary_source_page":"https://github.com/thanglequoc/vietnamese-provinces-database/blob/master/json/geojson/11_dien_bien/wards/03368_muong_nha.geojson","source_catalog":"https://github.com/thanglequoc/vietnamese-provinces-database"},"geometry":null},{"type":"Feature","id":"03370","properties":{"commune_code":"03370","commune_name":"Pu Nhi","commune_name_en":"Pu Nhi","commune_full_name":"Xã Pu Nhi","commune_full_name_en":"Pu Nhi Commune","commune_slug":"pu_nhi","unit_type":"Xã","unit_type_en":"Commune","admin_level":2,"province_code":"11","province_name":"Điện Biên","province_full_name":"Tỉnh Điện Biên","province_slug":"dien_bien","join_key":"03370","status":"active","dataset_effective_date":"2026-04-30","catalog_version":"2026-07-12","geometry_status":"not_embedded_boundary_available_by_url","boundary_source_url":"https://raw.githubusercontent.com/thanglequoc/vietnamese-provinces-database/master/json/geojson/11_dien_bien/wards/03370_pu_nhi.geojson","boundary_source_page":"https://github.com/thanglequoc/vietnamese-provinces-database/blob/master/json/geojson/11_dien_bien/wards/03370_pu_nhi.geojson","source_catalog":"https://github.com/thanglequoc/vietnamese-provinces-database"},"geometry":null},{"type":"Feature","id":"03382","properties":{"commune_code":"03382","commune_name":"Phình Giàng","commune_name_en":"Phinh Giang","commune_full_name":"Xã Phình Giàng","commune_full_name_en":"Phinh Giang Commune","commune_slug":"phinh_giang","unit_type":"Xã","unit_type_en":"Commune","admin_level":2,"province_code":"11","province_name":"Điện Biên","province_full_name":"Tỉnh Điện Biên","province_slug":"dien_bien","join_key":"03382","status":"active","dataset_effective_date":"2026-04-30","catalog_version":"2026-07-12","geometry_status":"not_embedded_boundary_available_by_url","boundary_source_url":"https://raw.githubusercontent.com/thanglequoc/vietnamese-provinces-database/master/json/geojson/11_dien_bien/wards/03382_phinh_giang.geojson","boundary_source_page":"https://github.com/thanglequoc/vietnamese-provinces-database/blob/master/json/geojson/11_dien_bien/wards/03382_phinh_giang.geojson","source_catalog":"https://github.com/thanglequoc/vietnamese-provinces-database"},"geometry":null},{"type":"Feature","id":"03385","properties":{"commune_code":"03385","commune_name":"Tìa Dình","commune_name_en":"Tia Dinh","commune_full_name":"Xã Tìa Dình","commune_full_name_en":"Tia Dinh Commune","commune_slug":"tia_dinh","unit_type":"Xã","unit_type_en":"Commune","admin_level":2,"province_code":"11","province_name":"Điện Biên","province_full_name":"Tỉnh Điện Biên","province_slug":"dien_bien","join_key":"03385","status":"active","dataset_effective_date":"2026-04-30","catalog_version":"2026-07-12","geometry_status":"not_embedded_boundary_available_by_url","boundary_source_url":"https://raw.githubusercontent.com/thanglequoc/vietnamese-provinces-database/master/json/geojson/11_dien_bien/wards/03385_tia_dinh.geojson","boundary_source_page":"https://github.com/thanglequoc/vietnamese-provinces-database/blob/master/json/geojson/11_dien_bien/wards/03385_tia_dinh.geojson","source_catalog":"https://github.com/thanglequoc/vietnamese-provinces-database"},"geometry":null}]}