{"type":"FeatureCollection","name":"12_lai_chau_communes_attributes","metadata":{"province_code":"12","province_name":"Lai Châu","feature_count":38,"geometry":null,"join_key":"commune_code"},"features":[{"type":"Feature","id":"03388","properties":{"commune_code":"03388","commune_name":"Đoàn Kết","commune_name_en":"Doan Ket","commune_full_name":"Phường Đoàn Kết","commune_full_name_en":"Doan Ket Ward","commune_slug":"doan_ket","unit_type":"Phường","unit_type_en":"Ward","admin_level":2,"province_code":"12","province_name":"Lai Châu","province_full_name":"Tỉnh Lai Châu","province_slug":"lai_chau","join_key":"03388","status":"active","dataset_effective_date":"2026-04-30","catalog_version":"2026-07-12","geometry_status":"not_embedded_boundary_available_by_url","boundary_source_url":"https://raw.githubusercontent.com/thanglequoc/vietnamese-provinces-database/master/json/geojson/12_lai_chau/wards/03388_doan_ket.geojson","boundary_source_page":"https://github.com/thanglequoc/vietnamese-provinces-database/blob/master/json/geojson/12_lai_chau/wards/03388_doan_ket.geojson","source_catalog":"https://github.com/thanglequoc/vietnamese-provinces-database"},"geometry":null},{"type":"Feature","id":"03390","properties":{"commune_code":"03390","commune_name":"Bình Lư","commune_name_en":"Binh Lu","commune_full_name":"Xã Bình Lư","commune_full_name_en":"Binh Lu Commune","commune_slug":"binh_lu","unit_type":"Xã","unit_type_en":"Commune","admin_level":2,"province_code":"12","province_name":"Lai Châu","province_full_name":"Tỉnh Lai Châu","province_slug":"lai_chau","join_key":"03390","status":"active","dataset_effective_date":"2026-04-30","catalog_version":"2026-07-12","geometry_status":"not_embedded_boundary_available_by_url","boundary_source_url":"https://raw.githubusercontent.com/thanglequoc/vietnamese-provinces-database/master/json/geojson/12_lai_chau/wards/03390_binh_lu.geojson","boundary_source_page":"https://github.com/thanglequoc/vietnamese-provinces-database/blob/master/json/geojson/12_lai_chau/wards/03390_binh_lu.geojson","source_catalog":"https://github.com/thanglequoc/vietnamese-provinces-database"},"geometry":null},{"type":"Feature","id":"03394","properties":{"commune_code":"03394","commune_name":"Sin Suối Hồ","commune_name_en":"Sin Suoi Ho","commune_full_name":"Xã Sin Suối Hồ","commune_full_name_en":"Sin Suoi Ho Commune","commune_slug":"sin_suoi_ho","unit_type":"Xã","unit_type_en":"Commune","admin_level":2,"province_code":"12","province_name":"Lai Châu","province_full_name":"Tỉnh Lai Châu","province_slug":"lai_chau","join_key":"03394","status":"active","dataset_effective_date":"2026-04-30","catalog_version":"2026-07-12","geometry_status":"not_embedded_boundary_available_by_url","boundary_source_url":"https://raw.githubusercontent.com/thanglequoc/vietnamese-provinces-database/master/json/geojson/12_lai_chau/wards/03394_sin_suoi_ho.geojson","boundary_source_page":"https://github.com/thanglequoc/vietnamese-provinces-database/blob/master/json/geojson/12_lai_chau/wards/03394_sin_suoi_ho.geojson","source_catalog":"https://github.com/thanglequoc/vietnamese-provinces-database"},"geometry":null},{"type":"Feature","id":"03405","properties":{"commune_code":"03405","commune_name":"Tả Lèng","commune_name_en":"Ta Leng","commune_full_name":"Xã Tả Lèng","commune_full_name_en":"Ta Leng Commune","commune_slug":"ta_leng","unit_type":"Xã","unit_type_en":"Commune","admin_level":2,"province_code":"12","province_name":"Lai Châu","province_full_name":"Tỉnh Lai Châu","province_slug":"lai_chau","join_key":"03405","status":"active","dataset_effective_date":"2026-04-30","catalog_version":"2026-07-12","geometry_status":"not_embedded_boundary_available_by_url","boundary_source_url":"https://raw.githubusercontent.com/thanglequoc/vietnamese-provinces-database/master/json/geojson/12_lai_chau/wards/03405_ta_leng.geojson","boundary_source_page":"https://github.com/thanglequoc/vietnamese-provinces-database/blob/master/json/geojson/12_lai_chau/wards/03405_ta_leng.geojson","source_catalog":"https://github.com/thanglequoc/vietnamese-provinces-database"},"geometry":null},{"type":"Feature","id":"03408","properties":{"commune_code":"03408","commune_name":"Tân Phong","commune_name_en":"Tan Phong","commune_full_name":"Phường Tân Phong","commune_full_name_en":"Tan Phong Ward","commune_slug":"tan_phong","unit_type":"Phường","unit_type_en":"Ward","admin_level":2,"province_code":"12","province_name":"Lai Châu","province_full_name":"Tỉnh Lai Châu","province_slug":"lai_chau","join_key":"03408","status":"active","dataset_effective_date":"2026-04-30","catalog_version":"2026-07-12","geometry_status":"not_embedded_boundary_available_by_url","boundary_source_url":"https://raw.githubusercontent.com/thanglequoc/vietnamese-provinces-database/master/json/geojson/12_lai_chau/wards/03408_tan_phong.geojson","boundary_source_page":"https://github.com/thanglequoc/vietnamese-provinces-database/blob/master/json/geojson/12_lai_chau/wards/03408_tan_phong.geojson","source_catalog":"https://github.com/thanglequoc/vietnamese-provinces-database"},"geometry":null},{"type":"Feature","id":"03424","properties":{"commune_code":"03424","commune_name":"Bản Bo","commune_name_en":"Ban Bo","commune_full_name":"Xã Bản Bo","commune_full_name_en":"Ban Bo Commune","commune_slug":"ban_bo","unit_type":"Xã","unit_type_en":"Commune","admin_level":2,"province_code":"12","province_name":"Lai Châu","province_full_name":"Tỉnh Lai Châu","province_slug":"lai_chau","join_key":"03424","status":"active","dataset_effective_date":"2026-04-30","catalog_version":"2026-07-12","geometry_status":"not_embedded_boundary_available_by_url","boundary_source_url":"https://raw.githubusercontent.com/thanglequoc/vietnamese-provinces-database/master/json/geojson/12_lai_chau/wards/03424_ban_bo.geojson","boundary_source_page":"https://github.com/thanglequoc/vietnamese-provinces-database/blob/master/json/geojson/12_lai_chau/wards/03424_ban_bo.geojson","source_catalog":"https://github.com/thanglequoc/vietnamese-provinces-database"},"geometry":null},{"type":"Feature","id":"03430","properties":{"commune_code":"03430","commune_name":"Khun Há","commune_name_en":"Khun Ha","commune_full_name":"Xã Khun Há","commune_full_name_en":"Khun Ha Commune","commune_slug":"khun_ha","unit_type":"Xã","unit_type_en":"Commune","admin_level":2,"province_code":"12","province_name":"Lai Châu","province_full_name":"Tỉnh Lai Châu","province_slug":"lai_chau","join_key":"03430","status":"active","dataset_effective_date":"2026-04-30","catalog_version":"2026-07-12","geometry_status":"not_embedded_boundary_available_by_url","boundary_source_url":"https://raw.githubusercontent.com/thanglequoc/vietnamese-provinces-database/master/json/geojson/12_lai_chau/wards/03430_khun_ha.geojson","boundary_source_page":"https://github.com/thanglequoc/vietnamese-provinces-database/blob/master/json/geojson/12_lai_chau/wards/03430_khun_ha.geojson","source_catalog":"https://github.com/thanglequoc/vietnamese-provinces-database"},"geometry":null},{"type":"Feature","id":"03433","properties":{"commune_code":"03433","commune_name":"Bum Tở","commune_name_en":"Bum To","commune_full_name":"Xã Bum Tở","commune_full_name_en":"Bum To Commune","commune_slug":"bum_to","unit_type":"Xã","unit_type_en":"Commune","admin_level":2,"province_code":"12","province_name":"Lai Châu","province_full_name":"Tỉnh Lai Châu","province_slug":"lai_chau","join_key":"03433","status":"active","dataset_effective_date":"2026-04-30","catalog_version":"2026-07-12","geometry_status":"not_embedded_boundary_available_by_url","boundary_source_url":"https://raw.githubusercontent.com/thanglequoc/vietnamese-provinces-database/master/json/geojson/12_lai_chau/wards/03433_bum_to.geojson","boundary_source_page":"https://github.com/thanglequoc/vietnamese-provinces-database/blob/master/json/geojson/12_lai_chau/wards/03433_bum_to.geojson","source_catalog":"https://github.com/thanglequoc/vietnamese-provinces-database"},"geometry":null},{"type":"Feature","id":"03434","properties":{"commune_code":"03434","commune_name":"Nậm Hàng","commune_name_en":"Nam Hang","commune_full_name":"Xã Nậm Hàng","commune_full_name_en":"Nam Hang Commune","commune_slug":"nam_hang","unit_type":"Xã","unit_type_en":"Commune","admin_level":2,"province_code":"12","province_name":"Lai Châu","province_full_name":"Tỉnh Lai Châu","province_slug":"lai_chau","join_key":"03434","status":"active","dataset_effective_date":"2026-04-30","catalog_version":"2026-07-12","geometry_status":"not_embedded_boundary_available_by_url","boundary_source_url":"https://raw.githubusercontent.com/thanglequoc/vietnamese-provinces-database/master/json/geojson/12_lai_chau/wards/03434_nam_hang.geojson","boundary_source_page":"https://github.com/thanglequoc/vietnamese-provinces-database/blob/master/json/geojson/12_lai_chau/wards/03434_nam_hang.geojson","source_catalog":"https://github.com/thanglequoc/vietnamese-provinces-database"},"geometry":null},{"type":"Feature","id":"03439","properties":{"commune_code":"03439","commune_name":"Thu Lũm","commune_name_en":"Thu Lum","commune_full_name":"Xã Thu Lũm","commune_full_name_en":"Thu Lum Commune","commune_slug":"thu_lum","unit_type":"Xã","unit_type_en":"Commune","admin_level":2,"province_code":"12","province_name":"Lai Châu","province_full_name":"Tỉnh Lai Châu","province_slug":"lai_chau","join_key":"03439","status":"active","dataset_effective_date":"2026-04-30","catalog_version":"2026-07-12","geometry_status":"not_embedded_boundary_available_by_url","boundary_source_url":"https://raw.githubusercontent.com/thanglequoc/vietnamese-provinces-database/master/json/geojson/12_lai_chau/wards/03439_thu_lum.geojson","boundary_source_page":"https://github.com/thanglequoc/vietnamese-provinces-database/blob/master/json/geojson/12_lai_chau/wards/03439_thu_lum.geojson","source_catalog":"https://github.com/thanglequoc/vietnamese-provinces-database"},"geometry":null},{"type":"Feature","id":"03442","properties":{"commune_code":"03442","commune_name":"Pa Ủ","commune_name_en":"Pa U","commune_full_name":"Xã Pa Ủ","commune_full_name_en":"Pa U Commune","commune_slug":"pa_u","unit_type":"Xã","unit_type_en":"Commune","admin_level":2,"province_code":"12","province_name":"Lai Châu","province_full_name":"Tỉnh Lai Châu","province_slug":"lai_chau","join_key":"03442","status":"active","dataset_effective_date":"2026-04-30","catalog_version":"2026-07-12","geometry_status":"not_embedded_boundary_available_by_url","boundary_source_url":"https://raw.githubusercontent.com/thanglequoc/vietnamese-provinces-database/master/json/geojson/12_lai_chau/wards/03442_pa_u.geojson","boundary_source_page":"https://github.com/thanglequoc/vietnamese-provinces-database/blob/master/json/geojson/12_lai_chau/wards/03442_pa_u.geojson","source_catalog":"https://github.com/thanglequoc/vietnamese-provinces-database"},"geometry":null},{"type":"Feature","id":"03445","properties":{"commune_code":"03445","commune_name":"Mường Tè","commune_name_en":"Muong Te","commune_full_name":"Xã Mường Tè","commune_full_name_en":"Muong Te Commune","commune_slug":"muong_te","unit_type":"Xã","unit_type_en":"Commune","admin_level":2,"province_code":"12","province_name":"Lai Châu","province_full_name":"Tỉnh Lai Châu","province_slug":"lai_chau","join_key":"03445","status":"active","dataset_effective_date":"2026-04-30","catalog_version":"2026-07-12","geometry_status":"not_embedded_boundary_available_by_url","boundary_source_url":"https://raw.githubusercontent.com/thanglequoc/vietnamese-provinces-database/master/json/geojson/12_lai_chau/wards/03445_muong_te.geojson","boundary_source_page":"https://github.com/thanglequoc/vietnamese-provinces-database/blob/master/json/geojson/12_lai_chau/wards/03445_muong_te.geojson","source_catalog":"https://github.com/thanglequoc/vietnamese-provinces-database"},"geometry":null},{"type":"Feature","id":"03451","properties":{"commune_code":"03451","commune_name":"Mù Cả","commune_name_en":"Mu Ca","commune_full_name":"Xã Mù Cả","commune_full_name_en":"Mu Ca Commune","commune_slug":"mu_ca","unit_type":"Xã","unit_type_en":"Commune","admin_level":2,"province_code":"12","province_name":"Lai Châu","province_full_name":"Tỉnh Lai Châu","province_slug":"lai_chau","join_key":"03451","status":"active","dataset_effective_date":"2026-04-30","catalog_version":"2026-07-12","geometry_status":"not_embedded_boundary_available_by_url","boundary_source_url":"https://raw.githubusercontent.com/thanglequoc/vietnamese-provinces-database/master/json/geojson/12_lai_chau/wards/03451_mu_ca.geojson","boundary_source_page":"https://github.com/thanglequoc/vietnamese-provinces-database/blob/master/json/geojson/12_lai_chau/wards/03451_mu_ca.geojson","source_catalog":"https://github.com/thanglequoc/vietnamese-provinces-database"},"geometry":null},{"type":"Feature","id":"03460","properties":{"commune_code":"03460","commune_name":"Hua Bum","commune_name_en":"Hua Bum","commune_full_name":"Xã Hua Bum","commune_full_name_en":"Hua Bum Commune","commune_slug":"hua_bum","unit_type":"Xã","unit_type_en":"Commune","admin_level":2,"province_code":"12","province_name":"Lai Châu","province_full_name":"Tỉnh Lai Châu","province_slug":"lai_chau","join_key":"03460","status":"active","dataset_effective_date":"2026-04-30","catalog_version":"2026-07-12","geometry_status":"not_embedded_boundary_available_by_url","boundary_source_url":"https://raw.githubusercontent.com/thanglequoc/vietnamese-provinces-database/master/json/geojson/12_lai_chau/wards/03460_hua_bum.geojson","boundary_source_page":"https://github.com/thanglequoc/vietnamese-provinces-database/blob/master/json/geojson/12_lai_chau/wards/03460_hua_bum.geojson","source_catalog":"https://github.com/thanglequoc/vietnamese-provinces-database"},"geometry":null},{"type":"Feature","id":"03463","properties":{"commune_code":"03463","commune_name":"Tà Tổng","commune_name_en":"Ta Tong","commune_full_name":"Xã Tà Tổng","commune_full_name_en":"Ta Tong Commune","commune_slug":"ta_tong","unit_type":"Xã","unit_type_en":"Commune","admin_level":2,"province_code":"12","province_name":"Lai Châu","province_full_name":"Tỉnh Lai Châu","province_slug":"lai_chau","join_key":"03463","status":"active","dataset_effective_date":"2026-04-30","catalog_version":"2026-07-12","geometry_status":"not_embedded_boundary_available_by_url","boundary_source_url":"https://raw.githubusercontent.com/thanglequoc/vietnamese-provinces-database/master/json/geojson/12_lai_chau/wards/03463_ta_tong.geojson","boundary_source_page":"https://github.com/thanglequoc/vietnamese-provinces-database/blob/master/json/geojson/12_lai_chau/wards/03463_ta_tong.geojson","source_catalog":"https://github.com/thanglequoc/vietnamese-provinces-database"},"geometry":null},{"type":"Feature","id":"03466","properties":{"commune_code":"03466","commune_name":"Bum Nưa","commune_name_en":"Bum Nua","commune_full_name":"Xã Bum Nưa","commune_full_name_en":"Bum Nua Commune","commune_slug":"bum_nua","unit_type":"Xã","unit_type_en":"Commune","admin_level":2,"province_code":"12","province_name":"Lai Châu","province_full_name":"Tỉnh Lai Châu","province_slug":"lai_chau","join_key":"03466","status":"active","dataset_effective_date":"2026-04-30","catalog_version":"2026-07-12","geometry_status":"not_embedded_boundary_available_by_url","boundary_source_url":"https://raw.githubusercontent.com/thanglequoc/vietnamese-provinces-database/master/json/geojson/12_lai_chau/wards/03466_bum_nua.geojson","boundary_source_page":"https://github.com/thanglequoc/vietnamese-provinces-database/blob/master/json/geojson/12_lai_chau/wards/03466_bum_nua.geojson","source_catalog":"https://github.com/thanglequoc/vietnamese-provinces-database"},"geometry":null},{"type":"Feature","id":"03472","properties":{"commune_code":"03472","commune_name":"Mường Mô","commune_name_en":"Muong Mo","commune_full_name":"Xã Mường Mô","commune_full_name_en":"Muong Mo Commune","commune_slug":"muong_mo","unit_type":"Xã","unit_type_en":"Commune","admin_level":2,"province_code":"12","province_name":"Lai Châu","province_full_name":"Tỉnh Lai Châu","province_slug":"lai_chau","join_key":"03472","status":"active","dataset_effective_date":"2026-04-30","catalog_version":"2026-07-12","geometry_status":"not_embedded_boundary_available_by_url","boundary_source_url":"https://raw.githubusercontent.com/thanglequoc/vietnamese-provinces-database/master/json/geojson/12_lai_chau/wards/03472_muong_mo.geojson","boundary_source_page":"https://github.com/thanglequoc/vietnamese-provinces-database/blob/master/json/geojson/12_lai_chau/wards/03472_muong_mo.geojson","source_catalog":"https://github.com/thanglequoc/vietnamese-provinces-database"},"geometry":null},{"type":"Feature","id":"03478","properties":{"commune_code":"03478","commune_name":"Sìn Hồ","commune_name_en":"Sin Ho","commune_full_name":"Xã Sìn Hồ","commune_full_name_en":"Sin Ho Commune","commune_slug":"sin_ho","unit_type":"Xã","unit_type_en":"Commune","admin_level":2,"province_code":"12","province_name":"Lai Châu","province_full_name":"Tỉnh Lai Châu","province_slug":"lai_chau","join_key":"03478","status":"active","dataset_effective_date":"2026-04-30","catalog_version":"2026-07-12","geometry_status":"not_embedded_boundary_available_by_url","boundary_source_url":"https://raw.githubusercontent.com/thanglequoc/vietnamese-provinces-database/master/json/geojson/12_lai_chau/wards/03478_sin_ho.geojson","boundary_source_page":"https://github.com/thanglequoc/vietnamese-provinces-database/blob/master/json/geojson/12_lai_chau/wards/03478_sin_ho.geojson","source_catalog":"https://github.com/thanglequoc/vietnamese-provinces-database"},"geometry":null},{"type":"Feature","id":"03487","properties":{"commune_code":"03487","commune_name":"Lê Lợi","commune_name_en":"Le Loi","commune_full_name":"Xã Lê Lợi","commune_full_name_en":"Le Loi Commune","commune_slug":"le_loi","unit_type":"Xã","unit_type_en":"Commune","admin_level":2,"province_code":"12","province_name":"Lai Châu","province_full_name":"Tỉnh Lai Châu","province_slug":"lai_chau","join_key":"03487","status":"active","dataset_effective_date":"2026-04-30","catalog_version":"2026-07-12","geometry_status":"not_embedded_boundary_available_by_url","boundary_source_url":"https://raw.githubusercontent.com/thanglequoc/vietnamese-provinces-database/master/json/geojson/12_lai_chau/wards/03487_le_loi.geojson","boundary_source_page":"https://github.com/thanglequoc/vietnamese-provinces-database/blob/master/json/geojson/12_lai_chau/wards/03487_le_loi.geojson","source_catalog":"https://github.com/thanglequoc/vietnamese-provinces-database"},"geometry":null},{"type":"Feature","id":"03503","properties":{"commune_code":"03503","commune_name":"Pa Tần","commune_name_en":"Pa Tan","commune_full_name":"Xã Pa Tần","commune_full_name_en":"Pa Tan Commune","commune_slug":"pa_tan","unit_type":"Xã","unit_type_en":"Commune","admin_level":2,"province_code":"12","province_name":"Lai Châu","province_full_name":"Tỉnh Lai Châu","province_slug":"lai_chau","join_key":"03503","status":"active","dataset_effective_date":"2026-04-30","catalog_version":"2026-07-12","geometry_status":"not_embedded_boundary_available_by_url","boundary_source_url":"https://raw.githubusercontent.com/thanglequoc/vietnamese-provinces-database/master/json/geojson/12_lai_chau/wards/03503_pa_tan.geojson","boundary_source_page":"https://github.com/thanglequoc/vietnamese-provinces-database/blob/master/json/geojson/12_lai_chau/wards/03503_pa_tan.geojson","source_catalog":"https://github.com/thanglequoc/vietnamese-provinces-database"},"geometry":null},{"type":"Feature","id":"03508","properties":{"commune_code":"03508","commune_name":"Hồng Thu","commune_name_en":"Hong Thu","commune_full_name":"Xã Hồng Thu","commune_full_name_en":"Hong Thu Commune","commune_slug":"hong_thu","unit_type":"Xã","unit_type_en":"Commune","admin_level":2,"province_code":"12","province_name":"Lai Châu","province_full_name":"Tỉnh Lai Châu","province_slug":"lai_chau","join_key":"03508","status":"active","dataset_effective_date":"2026-04-30","catalog_version":"2026-07-12","geometry_status":"not_embedded_boundary_available_by_url","boundary_source_url":"https://raw.githubusercontent.com/thanglequoc/vietnamese-provinces-database/master/json/geojson/12_lai_chau/wards/03508_hong_thu.geojson","boundary_source_page":"https://github.com/thanglequoc/vietnamese-provinces-database/blob/master/json/geojson/12_lai_chau/wards/03508_hong_thu.geojson","source_catalog":"https://github.com/thanglequoc/vietnamese-provinces-database"},"geometry":null},{"type":"Feature","id":"03517","properties":{"commune_code":"03517","commune_name":"Nậm Tăm","commune_name_en":"Nam Tam","commune_full_name":"Xã Nậm Tăm","commune_full_name_en":"Nam Tam Commune","commune_slug":"nam_tam","unit_type":"Xã","unit_type_en":"Commune","admin_level":2,"province_code":"12","province_name":"Lai Châu","province_full_name":"Tỉnh Lai Châu","province_slug":"lai_chau","join_key":"03517","status":"active","dataset_effective_date":"2026-04-30","catalog_version":"2026-07-12","geometry_status":"not_embedded_boundary_available_by_url","boundary_source_url":"https://raw.githubusercontent.com/thanglequoc/vietnamese-provinces-database/master/json/geojson/12_lai_chau/wards/03517_nam_tam.geojson","boundary_source_page":"https://github.com/thanglequoc/vietnamese-provinces-database/blob/master/json/geojson/12_lai_chau/wards/03517_nam_tam.geojson","source_catalog":"https://github.com/thanglequoc/vietnamese-provinces-database"},"geometry":null},{"type":"Feature","id":"03529","properties":{"commune_code":"03529","commune_name":"Tủa Sín Chải","commune_name_en":"Tua Sin Chai","commune_full_name":"Xã Tủa Sín Chải","commune_full_name_en":"Tua Sin Chai Commune","commune_slug":"tua_sin_chai","unit_type":"Xã","unit_type_en":"Commune","admin_level":2,"province_code":"12","province_name":"Lai Châu","province_full_name":"Tỉnh Lai Châu","province_slug":"lai_chau","join_key":"03529","status":"active","dataset_effective_date":"2026-04-30","catalog_version":"2026-07-12","geometry_status":"not_embedded_boundary_available_by_url","boundary_source_url":"https://raw.githubusercontent.com/thanglequoc/vietnamese-provinces-database/master/json/geojson/12_lai_chau/wards/03529_tua_sin_chai.geojson","boundary_source_page":"https://github.com/thanglequoc/vietnamese-provinces-database/blob/master/json/geojson/12_lai_chau/wards/03529_tua_sin_chai.geojson","source_catalog":"https://github.com/thanglequoc/vietnamese-provinces-database"},"geometry":null},{"type":"Feature","id":"03532","properties":{"commune_code":"03532","commune_name":"Pu Sam Cáp","commune_name_en":"Pu Sam Cap","commune_full_name":"Xã Pu Sam Cáp","commune_full_name_en":"Pu Sam Cap Commune","commune_slug":"pu_sam_cap","unit_type":"Xã","unit_type_en":"Commune","admin_level":2,"province_code":"12","province_name":"Lai Châu","province_full_name":"Tỉnh Lai Châu","province_slug":"lai_chau","join_key":"03532","status":"active","dataset_effective_date":"2026-04-30","catalog_version":"2026-07-12","geometry_status":"not_embedded_boundary_available_by_url","boundary_source_url":"https://raw.githubusercontent.com/thanglequoc/vietnamese-provinces-database/master/json/geojson/12_lai_chau/wards/03532_pu_sam_cap.geojson","boundary_source_page":"https://github.com/thanglequoc/vietnamese-provinces-database/blob/master/json/geojson/12_lai_chau/wards/03532_pu_sam_cap.geojson","source_catalog":"https://github.com/thanglequoc/vietnamese-provinces-database"},"geometry":null},{"type":"Feature","id":"03538","properties":{"commune_code":"03538","commune_name":"Nậm Mạ","commune_name_en":"Nam Ma","commune_full_name":"Xã Nậm Mạ","commune_full_name_en":"Nam Ma Commune","commune_slug":"nam_ma","unit_type":"Xã","unit_type_en":"Commune","admin_level":2,"province_code":"12","province_name":"Lai Châu","province_full_name":"Tỉnh Lai Châu","province_slug":"lai_chau","join_key":"03538","status":"active","dataset_effective_date":"2026-04-30","catalog_version":"2026-07-12","geometry_status":"not_embedded_boundary_available_by_url","boundary_source_url":"https://raw.githubusercontent.com/thanglequoc/vietnamese-provinces-database/master/json/geojson/12_lai_chau/wards/03538_nam_ma.geojson","boundary_source_page":"https://github.com/thanglequoc/vietnamese-provinces-database/blob/master/json/geojson/12_lai_chau/wards/03538_nam_ma.geojson","source_catalog":"https://github.com/thanglequoc/vietnamese-provinces-database"},"geometry":null},{"type":"Feature","id":"03544","properties":{"commune_code":"03544","commune_name":"Nậm Cuổi","commune_name_en":"Nam Cuoi","commune_full_name":"Xã Nậm Cuổi","commune_full_name_en":"Nam Cuoi Commune","commune_slug":"nam_cuoi","unit_type":"Xã","unit_type_en":"Commune","admin_level":2,"province_code":"12","province_name":"Lai Châu","province_full_name":"Tỉnh Lai Châu","province_slug":"lai_chau","join_key":"03544","status":"active","dataset_effective_date":"2026-04-30","catalog_version":"2026-07-12","geometry_status":"not_embedded_boundary_available_by_url","boundary_source_url":"https://raw.githubusercontent.com/thanglequoc/vietnamese-provinces-database/master/json/geojson/12_lai_chau/wards/03544_nam_cuoi.geojson","boundary_source_page":"https://github.com/thanglequoc/vietnamese-provinces-database/blob/master/json/geojson/12_lai_chau/wards/03544_nam_cuoi.geojson","source_catalog":"https://github.com/thanglequoc/vietnamese-provinces-database"},"geometry":null},{"type":"Feature","id":"03549","properties":{"commune_code":"03549","commune_name":"Phong Thổ","commune_name_en":"Phong Tho","commune_full_name":"Xã Phong Thổ","commune_full_name_en":"Phong Tho Commune","commune_slug":"phong_tho","unit_type":"Xã","unit_type_en":"Commune","admin_level":2,"province_code":"12","province_name":"Lai Châu","province_full_name":"Tỉnh Lai Châu","province_slug":"lai_chau","join_key":"03549","status":"active","dataset_effective_date":"2026-04-30","catalog_version":"2026-07-12","geometry_status":"not_embedded_boundary_available_by_url","boundary_source_url":"https://raw.githubusercontent.com/thanglequoc/vietnamese-provinces-database/master/json/geojson/12_lai_chau/wards/03549_phong_tho.geojson","boundary_source_page":"https://github.com/thanglequoc/vietnamese-provinces-database/blob/master/json/geojson/12_lai_chau/wards/03549_phong_tho.geojson","source_catalog":"https://github.com/thanglequoc/vietnamese-provinces-database"},"geometry":null},{"type":"Feature","id":"03562","properties":{"commune_code":"03562","commune_name":"Sì Lở Lầu","commune_name_en":"Si Lo Lau","commune_full_name":"Xã Sì Lở Lầu","commune_full_name_en":"Si Lo Lau Commune","commune_slug":"si_lo_lau","unit_type":"Xã","unit_type_en":"Commune","admin_level":2,"province_code":"12","province_name":"Lai Châu","province_full_name":"Tỉnh Lai Châu","province_slug":"lai_chau","join_key":"03562","status":"active","dataset_effective_date":"2026-04-30","catalog_version":"2026-07-12","geometry_status":"not_embedded_boundary_available_by_url","boundary_source_url":"https://raw.githubusercontent.com/thanglequoc/vietnamese-provinces-database/master/json/geojson/12_lai_chau/wards/03562_si_lo_lau.geojson","boundary_source_page":"https://github.com/thanglequoc/vietnamese-provinces-database/blob/master/json/geojson/12_lai_chau/wards/03562_si_lo_lau.geojson","source_catalog":"https://github.com/thanglequoc/vietnamese-provinces-database"},"geometry":null},{"type":"Feature","id":"03571","properties":{"commune_code":"03571","commune_name":"Dào San","commune_name_en":"Dao San","commune_full_name":"Xã Dào San","commune_full_name_en":"Dao San Commune","commune_slug":"dao_san","unit_type":"Xã","unit_type_en":"Commune","admin_level":2,"province_code":"12","province_name":"Lai Châu","province_full_name":"Tỉnh Lai Châu","province_slug":"lai_chau","join_key":"03571","status":"active","dataset_effective_date":"2026-04-30","catalog_version":"2026-07-12","geometry_status":"not_embedded_boundary_available_by_url","boundary_source_url":"https://raw.githubusercontent.com/thanglequoc/vietnamese-provinces-database/master/json/geojson/12_lai_chau/wards/03571_dao_san.geojson","boundary_source_page":"https://github.com/thanglequoc/vietnamese-provinces-database/blob/master/json/geojson/12_lai_chau/wards/03571_dao_san.geojson","source_catalog":"https://github.com/thanglequoc/vietnamese-provinces-database"},"geometry":null},{"type":"Feature","id":"03583","properties":{"commune_code":"03583","commune_name":"Khổng Lào","commune_name_en":"Khong Lao","commune_full_name":"Xã Khổng Lào","commune_full_name_en":"Khong Lao Commune","commune_slug":"khong_lao","unit_type":"Xã","unit_type_en":"Commune","admin_level":2,"province_code":"12","province_name":"Lai Châu","province_full_name":"Tỉnh Lai Châu","province_slug":"lai_chau","join_key":"03583","status":"active","dataset_effective_date":"2026-04-30","catalog_version":"2026-07-12","geometry_status":"not_embedded_boundary_available_by_url","boundary_source_url":"https://raw.githubusercontent.com/thanglequoc/vietnamese-provinces-database/master/json/geojson/12_lai_chau/wards/03583_khong_lao.geojson","boundary_source_page":"https://github.com/thanglequoc/vietnamese-provinces-database/blob/master/json/geojson/12_lai_chau/wards/03583_khong_lao.geojson","source_catalog":"https://github.com/thanglequoc/vietnamese-provinces-database"},"geometry":null},{"type":"Feature","id":"03595","properties":{"commune_code":"03595","commune_name":"Than Uyên","commune_name_en":"Than Uyen","commune_full_name":"Xã Than Uyên","commune_full_name_en":"Than Uyen Commune","commune_slug":"than_uyen","unit_type":"Xã","unit_type_en":"Commune","admin_level":2,"province_code":"12","province_name":"Lai Châu","province_full_name":"Tỉnh Lai Châu","province_slug":"lai_chau","join_key":"03595","status":"active","dataset_effective_date":"2026-04-30","catalog_version":"2026-07-12","geometry_status":"not_embedded_boundary_available_by_url","boundary_source_url":"https://raw.githubusercontent.com/thanglequoc/vietnamese-provinces-database/master/json/geojson/12_lai_chau/wards/03595_than_uyen.geojson","boundary_source_page":"https://github.com/thanglequoc/vietnamese-provinces-database/blob/master/json/geojson/12_lai_chau/wards/03595_than_uyen.geojson","source_catalog":"https://github.com/thanglequoc/vietnamese-provinces-database"},"geometry":null},{"type":"Feature","id":"03598","properties":{"commune_code":"03598","commune_name":"Tân Uyên","commune_name_en":"Tan Uyen","commune_full_name":"Xã Tân Uyên","commune_full_name_en":"Tan Uyen Commune","commune_slug":"tan_uyen","unit_type":"Xã","unit_type_en":"Commune","admin_level":2,"province_code":"12","province_name":"Lai Châu","province_full_name":"Tỉnh Lai Châu","province_slug":"lai_chau","join_key":"03598","status":"active","dataset_effective_date":"2026-04-30","catalog_version":"2026-07-12","geometry_status":"not_embedded_boundary_available_by_url","boundary_source_url":"https://raw.githubusercontent.com/thanglequoc/vietnamese-provinces-database/master/json/geojson/12_lai_chau/wards/03598_tan_uyen.geojson","boundary_source_page":"https://github.com/thanglequoc/vietnamese-provinces-database/blob/master/json/geojson/12_lai_chau/wards/03598_tan_uyen.geojson","source_catalog":"https://github.com/thanglequoc/vietnamese-provinces-database"},"geometry":null},{"type":"Feature","id":"03601","properties":{"commune_code":"03601","commune_name":"Mường Khoa","commune_name_en":"Muong Khoa","commune_full_name":"Xã Mường Khoa","commune_full_name_en":"Muong Khoa Commune","commune_slug":"muong_khoa","unit_type":"Xã","unit_type_en":"Commune","admin_level":2,"province_code":"12","province_name":"Lai Châu","province_full_name":"Tỉnh Lai Châu","province_slug":"lai_chau","join_key":"03601","status":"active","dataset_effective_date":"2026-04-30","catalog_version":"2026-07-12","geometry_status":"not_embedded_boundary_available_by_url","boundary_source_url":"https://raw.githubusercontent.com/thanglequoc/vietnamese-provinces-database/master/json/geojson/12_lai_chau/wards/03601_muong_khoa.geojson","boundary_source_page":"https://github.com/thanglequoc/vietnamese-provinces-database/blob/master/json/geojson/12_lai_chau/wards/03601_muong_khoa.geojson","source_catalog":"https://github.com/thanglequoc/vietnamese-provinces-database"},"geometry":null},{"type":"Feature","id":"03613","properties":{"commune_code":"03613","commune_name":"Nậm Sỏ","commune_name_en":"Nam So","commune_full_name":"Xã Nậm Sỏ","commune_full_name_en":"Nam So Commune","commune_slug":"nam_so","unit_type":"Xã","unit_type_en":"Commune","admin_level":2,"province_code":"12","province_name":"Lai Châu","province_full_name":"Tỉnh Lai Châu","province_slug":"lai_chau","join_key":"03613","status":"active","dataset_effective_date":"2026-04-30","catalog_version":"2026-07-12","geometry_status":"not_embedded_boundary_available_by_url","boundary_source_url":"https://raw.githubusercontent.com/thanglequoc/vietnamese-provinces-database/master/json/geojson/12_lai_chau/wards/03613_nam_so.geojson","boundary_source_page":"https://github.com/thanglequoc/vietnamese-provinces-database/blob/master/json/geojson/12_lai_chau/wards/03613_nam_so.geojson","source_catalog":"https://github.com/thanglequoc/vietnamese-provinces-database"},"geometry":null},{"type":"Feature","id":"03616","properties":{"commune_code":"03616","commune_name":"Pắc Ta","commune_name_en":"Pac Ta","commune_full_name":"Xã Pắc Ta","commune_full_name_en":"Pac Ta Commune","commune_slug":"pac_ta","unit_type":"Xã","unit_type_en":"Commune","admin_level":2,"province_code":"12","province_name":"Lai Châu","province_full_name":"Tỉnh Lai Châu","province_slug":"lai_chau","join_key":"03616","status":"active","dataset_effective_date":"2026-04-30","catalog_version":"2026-07-12","geometry_status":"not_embedded_boundary_available_by_url","boundary_source_url":"https://raw.githubusercontent.com/thanglequoc/vietnamese-provinces-database/master/json/geojson/12_lai_chau/wards/03616_pac_ta.geojson","boundary_source_page":"https://github.com/thanglequoc/vietnamese-provinces-database/blob/master/json/geojson/12_lai_chau/wards/03616_pac_ta.geojson","source_catalog":"https://github.com/thanglequoc/vietnamese-provinces-database"},"geometry":null},{"type":"Feature","id":"03618","properties":{"commune_code":"03618","commune_name":"Mường Than","commune_name_en":"Muong Than","commune_full_name":"Xã Mường Than","commune_full_name_en":"Muong Than Commune","commune_slug":"muong_than","unit_type":"Xã","unit_type_en":"Commune","admin_level":2,"province_code":"12","province_name":"Lai Châu","province_full_name":"Tỉnh Lai Châu","province_slug":"lai_chau","join_key":"03618","status":"active","dataset_effective_date":"2026-04-30","catalog_version":"2026-07-12","geometry_status":"not_embedded_boundary_available_by_url","boundary_source_url":"https://raw.githubusercontent.com/thanglequoc/vietnamese-provinces-database/master/json/geojson/12_lai_chau/wards/03618_muong_than.geojson","boundary_source_page":"https://github.com/thanglequoc/vietnamese-provinces-database/blob/master/json/geojson/12_lai_chau/wards/03618_muong_than.geojson","source_catalog":"https://github.com/thanglequoc/vietnamese-provinces-database"},"geometry":null},{"type":"Feature","id":"03637","properties":{"commune_code":"03637","commune_name":"Mường Kim","commune_name_en":"Muong Kim","commune_full_name":"Xã Mường Kim","commune_full_name_en":"Muong Kim Commune","commune_slug":"muong_kim","unit_type":"Xã","unit_type_en":"Commune","admin_level":2,"province_code":"12","province_name":"Lai Châu","province_full_name":"Tỉnh Lai Châu","province_slug":"lai_chau","join_key":"03637","status":"active","dataset_effective_date":"2026-04-30","catalog_version":"2026-07-12","geometry_status":"not_embedded_boundary_available_by_url","boundary_source_url":"https://raw.githubusercontent.com/thanglequoc/vietnamese-provinces-database/master/json/geojson/12_lai_chau/wards/03637_muong_kim.geojson","boundary_source_page":"https://github.com/thanglequoc/vietnamese-provinces-database/blob/master/json/geojson/12_lai_chau/wards/03637_muong_kim.geojson","source_catalog":"https://github.com/thanglequoc/vietnamese-provinces-database"},"geometry":null},{"type":"Feature","id":"03640","properties":{"commune_code":"03640","commune_name":"Khoen On","commune_name_en":"Khoen On","commune_full_name":"Xã Khoen On","commune_full_name_en":"Khoen On Commune","commune_slug":"khoen_on","unit_type":"Xã","unit_type_en":"Commune","admin_level":2,"province_code":"12","province_name":"Lai Châu","province_full_name":"Tỉnh Lai Châu","province_slug":"lai_chau","join_key":"03640","status":"active","dataset_effective_date":"2026-04-30","catalog_version":"2026-07-12","geometry_status":"not_embedded_boundary_available_by_url","boundary_source_url":"https://raw.githubusercontent.com/thanglequoc/vietnamese-provinces-database/master/json/geojson/12_lai_chau/wards/03640_khoen_on.geojson","boundary_source_page":"https://github.com/thanglequoc/vietnamese-provinces-database/blob/master/json/geojson/12_lai_chau/wards/03640_khoen_on.geojson","source_catalog":"https://github.com/thanglequoc/vietnamese-provinces-database"},"geometry":null}]}