{"type":"FeatureCollection","name":"22_quang_ninh_communes_attributes","metadata":{"province_code":"22","province_name":"Quảng Ninh","feature_count":54,"geometry":null,"join_key":"commune_code"},"features":[{"type":"Feature","id":"06652","properties":{"commune_code":"06652","commune_name":"Hà Tu","commune_name_en":"Ha Tu","commune_full_name":"Phường Hà Tu","commune_full_name_en":"Ha Tu Ward","commune_slug":"ha_tu","unit_type":"Phường","unit_type_en":"Ward","admin_level":2,"province_code":"22","province_name":"Quảng Ninh","province_full_name":"Tỉnh Quảng Ninh","province_slug":"quang_ninh","join_key":"06652","status":"active","dataset_effective_date":"2026-04-30","catalog_version":"2026-07-12","geometry_status":"not_embedded_boundary_available_by_url","boundary_source_url":"https://raw.githubusercontent.com/thanglequoc/vietnamese-provinces-database/master/json/geojson/22_quang_ninh/wards/06652_ha_tu.geojson","boundary_source_page":"https://github.com/thanglequoc/vietnamese-provinces-database/blob/master/json/geojson/22_quang_ninh/wards/06652_ha_tu.geojson","source_catalog":"https://github.com/thanglequoc/vietnamese-provinces-database"},"geometry":null},{"type":"Feature","id":"06658","properties":{"commune_code":"06658","commune_name":"Cao Xanh","commune_name_en":"Cao Xanh","commune_full_name":"Phường Cao Xanh","commune_full_name_en":"Cao Xanh Ward","commune_slug":"cao_xanh","unit_type":"Phường","unit_type_en":"Ward","admin_level":2,"province_code":"22","province_name":"Quảng Ninh","province_full_name":"Tỉnh Quảng Ninh","province_slug":"quang_ninh","join_key":"06658","status":"active","dataset_effective_date":"2026-04-30","catalog_version":"2026-07-12","geometry_status":"not_embedded_boundary_available_by_url","boundary_source_url":"https://raw.githubusercontent.com/thanglequoc/vietnamese-provinces-database/master/json/geojson/22_quang_ninh/wards/06658_cao_xanh.geojson","boundary_source_page":"https://github.com/thanglequoc/vietnamese-provinces-database/blob/master/json/geojson/22_quang_ninh/wards/06658_cao_xanh.geojson","source_catalog":"https://github.com/thanglequoc/vietnamese-provinces-database"},"geometry":null},{"type":"Feature","id":"06661","properties":{"commune_code":"06661","commune_name":"Việt Hưng","commune_name_en":"Viet Hung","commune_full_name":"Phường Việt Hưng","commune_full_name_en":"Viet Hung Ward","commune_slug":"viet_hung","unit_type":"Phường","unit_type_en":"Ward","admin_level":2,"province_code":"22","province_name":"Quảng Ninh","province_full_name":"Tỉnh Quảng Ninh","province_slug":"quang_ninh","join_key":"06661","status":"active","dataset_effective_date":"2026-04-30","catalog_version":"2026-07-12","geometry_status":"not_embedded_boundary_available_by_url","boundary_source_url":"https://raw.githubusercontent.com/thanglequoc/vietnamese-provinces-database/master/json/geojson/22_quang_ninh/wards/06661_viet_hung.geojson","boundary_source_page":"https://github.com/thanglequoc/vietnamese-provinces-database/blob/master/json/geojson/22_quang_ninh/wards/06661_viet_hung.geojson","source_catalog":"https://github.com/thanglequoc/vietnamese-provinces-database"},"geometry":null},{"type":"Feature","id":"06673","properties":{"commune_code":"06673","commune_name":"Bãi Cháy","commune_name_en":"Bai Chay","commune_full_name":"Phường Bãi Cháy","commune_full_name_en":"Bai Chay Ward","commune_slug":"bai_chay","unit_type":"Phường","unit_type_en":"Ward","admin_level":2,"province_code":"22","province_name":"Quảng Ninh","province_full_name":"Tỉnh Quảng Ninh","province_slug":"quang_ninh","join_key":"06673","status":"active","dataset_effective_date":"2026-04-30","catalog_version":"2026-07-12","geometry_status":"not_embedded_boundary_available_by_url","boundary_source_url":"https://raw.githubusercontent.com/thanglequoc/vietnamese-provinces-database/master/json/geojson/22_quang_ninh/wards/06673_bai_chay.geojson","boundary_source_page":"https://github.com/thanglequoc/vietnamese-provinces-database/blob/master/json/geojson/22_quang_ninh/wards/06673_bai_chay.geojson","source_catalog":"https://github.com/thanglequoc/vietnamese-provinces-database"},"geometry":null},{"type":"Feature","id":"06676","properties":{"commune_code":"06676","commune_name":"Hà Lầm","commune_name_en":"Ha Lam","commune_full_name":"Phường Hà Lầm","commune_full_name_en":"Ha Lam Ward","commune_slug":"ha_lam","unit_type":"Phường","unit_type_en":"Ward","admin_level":2,"province_code":"22","province_name":"Quảng Ninh","province_full_name":"Tỉnh Quảng Ninh","province_slug":"quang_ninh","join_key":"06676","status":"active","dataset_effective_date":"2026-04-30","catalog_version":"2026-07-12","geometry_status":"not_embedded_boundary_available_by_url","boundary_source_url":"https://raw.githubusercontent.com/thanglequoc/vietnamese-provinces-database/master/json/geojson/22_quang_ninh/wards/06676_ha_lam.geojson","boundary_source_page":"https://github.com/thanglequoc/vietnamese-provinces-database/blob/master/json/geojson/22_quang_ninh/wards/06676_ha_lam.geojson","source_catalog":"https://github.com/thanglequoc/vietnamese-provinces-database"},"geometry":null},{"type":"Feature","id":"06685","properties":{"commune_code":"06685","commune_name":"Hồng Gai","commune_name_en":"Hong Gai","commune_full_name":"Phường Hồng Gai","commune_full_name_en":"Hong Gai Ward","commune_slug":"hong_gai","unit_type":"Phường","unit_type_en":"Ward","admin_level":2,"province_code":"22","province_name":"Quảng Ninh","province_full_name":"Tỉnh Quảng Ninh","province_slug":"quang_ninh","join_key":"06685","status":"active","dataset_effective_date":"2026-04-30","catalog_version":"2026-07-12","geometry_status":"not_embedded_boundary_available_by_url","boundary_source_url":"https://raw.githubusercontent.com/thanglequoc/vietnamese-provinces-database/master/json/geojson/22_quang_ninh/wards/06685_hong_gai.geojson","boundary_source_page":"https://github.com/thanglequoc/vietnamese-provinces-database/blob/master/json/geojson/22_quang_ninh/wards/06685_hong_gai.geojson","source_catalog":"https://github.com/thanglequoc/vietnamese-provinces-database"},"geometry":null},{"type":"Feature","id":"06688","properties":{"commune_code":"06688","commune_name":"Hạ Long","commune_name_en":"Ha Long","commune_full_name":"Phường Hạ Long","commune_full_name_en":"Ha Long Ward","commune_slug":"ha_long","unit_type":"Phường","unit_type_en":"Ward","admin_level":2,"province_code":"22","province_name":"Quảng Ninh","province_full_name":"Tỉnh Quảng Ninh","province_slug":"quang_ninh","join_key":"06688","status":"active","dataset_effective_date":"2026-04-30","catalog_version":"2026-07-12","geometry_status":"not_embedded_boundary_available_by_url","boundary_source_url":"https://raw.githubusercontent.com/thanglequoc/vietnamese-provinces-database/master/json/geojson/22_quang_ninh/wards/06688_ha_long.geojson","boundary_source_page":"https://github.com/thanglequoc/vietnamese-provinces-database/blob/master/json/geojson/22_quang_ninh/wards/06688_ha_long.geojson","source_catalog":"https://github.com/thanglequoc/vietnamese-provinces-database"},"geometry":null},{"type":"Feature","id":"06706","properties":{"commune_code":"06706","commune_name":"Tuần Châu","commune_name_en":"Tuan Chau","commune_full_name":"Phường Tuần Châu","commune_full_name_en":"Tuan Chau Ward","commune_slug":"tuan_chau","unit_type":"Phường","unit_type_en":"Ward","admin_level":2,"province_code":"22","province_name":"Quảng Ninh","province_full_name":"Tỉnh Quảng Ninh","province_slug":"quang_ninh","join_key":"06706","status":"active","dataset_effective_date":"2026-04-30","catalog_version":"2026-07-12","geometry_status":"not_embedded_boundary_available_by_url","boundary_source_url":"https://raw.githubusercontent.com/thanglequoc/vietnamese-provinces-database/master/json/geojson/22_quang_ninh/wards/06706_tuan_chau.geojson","boundary_source_page":"https://github.com/thanglequoc/vietnamese-provinces-database/blob/master/json/geojson/22_quang_ninh/wards/06706_tuan_chau.geojson","source_catalog":"https://github.com/thanglequoc/vietnamese-provinces-database"},"geometry":null},{"type":"Feature","id":"06709","properties":{"commune_code":"06709","commune_name":"Móng Cái 2","commune_name_en":"Mong Cai 2","commune_full_name":"Phường Móng Cái 2","commune_full_name_en":"Ward Mong Cai 2","commune_slug":"mong_cai_2","unit_type":"Phường","unit_type_en":"Ward","admin_level":2,"province_code":"22","province_name":"Quảng Ninh","province_full_name":"Tỉnh Quảng Ninh","province_slug":"quang_ninh","join_key":"06709","status":"active","dataset_effective_date":"2026-04-30","catalog_version":"2026-07-12","geometry_status":"not_embedded_boundary_available_by_url","boundary_source_url":"https://raw.githubusercontent.com/thanglequoc/vietnamese-provinces-database/master/json/geojson/22_quang_ninh/wards/06709_mong_cai_2.geojson","boundary_source_page":"https://github.com/thanglequoc/vietnamese-provinces-database/blob/master/json/geojson/22_quang_ninh/wards/06709_mong_cai_2.geojson","source_catalog":"https://github.com/thanglequoc/vietnamese-provinces-database"},"geometry":null},{"type":"Feature","id":"06712","properties":{"commune_code":"06712","commune_name":"Móng Cái 1","commune_name_en":"Mong Cai 1","commune_full_name":"Phường Móng Cái 1","commune_full_name_en":"Ward Mong Cai 1","commune_slug":"mong_cai_1","unit_type":"Phường","unit_type_en":"Ward","admin_level":2,"province_code":"22","province_name":"Quảng Ninh","province_full_name":"Tỉnh Quảng Ninh","province_slug":"quang_ninh","join_key":"06712","status":"active","dataset_effective_date":"2026-04-30","catalog_version":"2026-07-12","geometry_status":"not_embedded_boundary_available_by_url","boundary_source_url":"https://raw.githubusercontent.com/thanglequoc/vietnamese-provinces-database/master/json/geojson/22_quang_ninh/wards/06712_mong_cai_1.geojson","boundary_source_page":"https://github.com/thanglequoc/vietnamese-provinces-database/blob/master/json/geojson/22_quang_ninh/wards/06712_mong_cai_1.geojson","source_catalog":"https://github.com/thanglequoc/vietnamese-provinces-database"},"geometry":null},{"type":"Feature","id":"06724","properties":{"commune_code":"06724","commune_name":"Hải Sơn","commune_name_en":"Hai Son","commune_full_name":"Xã Hải Sơn","commune_full_name_en":"Hai Son Commune","commune_slug":"hai_son","unit_type":"Xã","unit_type_en":"Commune","admin_level":2,"province_code":"22","province_name":"Quảng Ninh","province_full_name":"Tỉnh Quảng Ninh","province_slug":"quang_ninh","join_key":"06724","status":"active","dataset_effective_date":"2026-04-30","catalog_version":"2026-07-12","geometry_status":"not_embedded_boundary_available_by_url","boundary_source_url":"https://raw.githubusercontent.com/thanglequoc/vietnamese-provinces-database/master/json/geojson/22_quang_ninh/wards/06724_hai_son.geojson","boundary_source_page":"https://github.com/thanglequoc/vietnamese-provinces-database/blob/master/json/geojson/22_quang_ninh/wards/06724_hai_son.geojson","source_catalog":"https://github.com/thanglequoc/vietnamese-provinces-database"},"geometry":null},{"type":"Feature","id":"06733","properties":{"commune_code":"06733","commune_name":"Hải Ninh","commune_name_en":"Hai Ninh","commune_full_name":"Xã Hải Ninh","commune_full_name_en":"Hai Ninh Commune","commune_slug":"hai_ninh","unit_type":"Xã","unit_type_en":"Commune","admin_level":2,"province_code":"22","province_name":"Quảng Ninh","province_full_name":"Tỉnh Quảng Ninh","province_slug":"quang_ninh","join_key":"06733","status":"active","dataset_effective_date":"2026-04-30","catalog_version":"2026-07-12","geometry_status":"not_embedded_boundary_available_by_url","boundary_source_url":"https://raw.githubusercontent.com/thanglequoc/vietnamese-provinces-database/master/json/geojson/22_quang_ninh/wards/06733_hai_ninh.geojson","boundary_source_page":"https://github.com/thanglequoc/vietnamese-provinces-database/blob/master/json/geojson/22_quang_ninh/wards/06733_hai_ninh.geojson","source_catalog":"https://github.com/thanglequoc/vietnamese-provinces-database"},"geometry":null},{"type":"Feature","id":"06736","properties":{"commune_code":"06736","commune_name":"Móng Cái 3","commune_name_en":"Mong Cai 3","commune_full_name":"Phường Móng Cái 3","commune_full_name_en":"Ward Mong Cai 3","commune_slug":"mong_cai_3","unit_type":"Phường","unit_type_en":"Ward","admin_level":2,"province_code":"22","province_name":"Quảng Ninh","province_full_name":"Tỉnh Quảng Ninh","province_slug":"quang_ninh","join_key":"06736","status":"active","dataset_effective_date":"2026-04-30","catalog_version":"2026-07-12","geometry_status":"not_embedded_boundary_available_by_url","boundary_source_url":"https://raw.githubusercontent.com/thanglequoc/vietnamese-provinces-database/master/json/geojson/22_quang_ninh/wards/06736_mong_cai_3.geojson","boundary_source_page":"https://github.com/thanglequoc/vietnamese-provinces-database/blob/master/json/geojson/22_quang_ninh/wards/06736_mong_cai_3.geojson","source_catalog":"https://github.com/thanglequoc/vietnamese-provinces-database"},"geometry":null},{"type":"Feature","id":"06757","properties":{"commune_code":"06757","commune_name":"Vĩnh Thực","commune_name_en":"Vinh Thuc","commune_full_name":"Xã Vĩnh Thực","commune_full_name_en":"Vinh Thuc Commune","commune_slug":"vinh_thuc","unit_type":"Xã","unit_type_en":"Commune","admin_level":2,"province_code":"22","province_name":"Quảng Ninh","province_full_name":"Tỉnh Quảng Ninh","province_slug":"quang_ninh","join_key":"06757","status":"active","dataset_effective_date":"2026-04-30","catalog_version":"2026-07-12","geometry_status":"not_embedded_boundary_available_by_url","boundary_source_url":"https://raw.githubusercontent.com/thanglequoc/vietnamese-provinces-database/master/json/geojson/22_quang_ninh/wards/06757_vinh_thuc.geojson","boundary_source_page":"https://github.com/thanglequoc/vietnamese-provinces-database/blob/master/json/geojson/22_quang_ninh/wards/06757_vinh_thuc.geojson","source_catalog":"https://github.com/thanglequoc/vietnamese-provinces-database"},"geometry":null},{"type":"Feature","id":"06760","properties":{"commune_code":"06760","commune_name":"Mông Dương","commune_name_en":"Mong Duong","commune_full_name":"Phường Mông Dương","commune_full_name_en":"Mong Duong Ward","commune_slug":"mong_duong","unit_type":"Phường","unit_type_en":"Ward","admin_level":2,"province_code":"22","province_name":"Quảng Ninh","province_full_name":"Tỉnh Quảng Ninh","province_slug":"quang_ninh","join_key":"06760","status":"active","dataset_effective_date":"2026-04-30","catalog_version":"2026-07-12","geometry_status":"not_embedded_boundary_available_by_url","boundary_source_url":"https://raw.githubusercontent.com/thanglequoc/vietnamese-provinces-database/master/json/geojson/22_quang_ninh/wards/06760_mong_duong.geojson","boundary_source_page":"https://github.com/thanglequoc/vietnamese-provinces-database/blob/master/json/geojson/22_quang_ninh/wards/06760_mong_duong.geojson","source_catalog":"https://github.com/thanglequoc/vietnamese-provinces-database"},"geometry":null},{"type":"Feature","id":"06778","properties":{"commune_code":"06778","commune_name":"Quang Hanh","commune_name_en":"Quang Hanh","commune_full_name":"Phường Quang Hanh","commune_full_name_en":"Quang Hanh Ward","commune_slug":"quang_hanh","unit_type":"Phường","unit_type_en":"Ward","admin_level":2,"province_code":"22","province_name":"Quảng Ninh","province_full_name":"Tỉnh Quảng Ninh","province_slug":"quang_ninh","join_key":"06778","status":"active","dataset_effective_date":"2026-04-30","catalog_version":"2026-07-12","geometry_status":"not_embedded_boundary_available_by_url","boundary_source_url":"https://raw.githubusercontent.com/thanglequoc/vietnamese-provinces-database/master/json/geojson/22_quang_ninh/wards/06778_quang_hanh.geojson","boundary_source_page":"https://github.com/thanglequoc/vietnamese-provinces-database/blob/master/json/geojson/22_quang_ninh/wards/06778_quang_hanh.geojson","source_catalog":"https://github.com/thanglequoc/vietnamese-provinces-database"},"geometry":null},{"type":"Feature","id":"06781","properties":{"commune_code":"06781","commune_name":"Cửa Ông","commune_name_en":"Cua Ong","commune_full_name":"Phường Cửa Ông","commune_full_name_en":"Cua Ong Ward","commune_slug":"cua_ong","unit_type":"Phường","unit_type_en":"Ward","admin_level":2,"province_code":"22","province_name":"Quảng Ninh","province_full_name":"Tỉnh Quảng Ninh","province_slug":"quang_ninh","join_key":"06781","status":"active","dataset_effective_date":"2026-04-30","catalog_version":"2026-07-12","geometry_status":"not_embedded_boundary_available_by_url","boundary_source_url":"https://raw.githubusercontent.com/thanglequoc/vietnamese-provinces-database/master/json/geojson/22_quang_ninh/wards/06781_cua_ong.geojson","boundary_source_page":"https://github.com/thanglequoc/vietnamese-provinces-database/blob/master/json/geojson/22_quang_ninh/wards/06781_cua_ong.geojson","source_catalog":"https://github.com/thanglequoc/vietnamese-provinces-database"},"geometry":null},{"type":"Feature","id":"06793","properties":{"commune_code":"06793","commune_name":"Cẩm Phả","commune_name_en":"Cam Pha","commune_full_name":"Phường Cẩm Phả","commune_full_name_en":"Cam Pha Ward","commune_slug":"cam_pha","unit_type":"Phường","unit_type_en":"Ward","admin_level":2,"province_code":"22","province_name":"Quảng Ninh","province_full_name":"Tỉnh Quảng Ninh","province_slug":"quang_ninh","join_key":"06793","status":"active","dataset_effective_date":"2026-04-30","catalog_version":"2026-07-12","geometry_status":"not_embedded_boundary_available_by_url","boundary_source_url":"https://raw.githubusercontent.com/thanglequoc/vietnamese-provinces-database/master/json/geojson/22_quang_ninh/wards/06793_cam_pha.geojson","boundary_source_page":"https://github.com/thanglequoc/vietnamese-provinces-database/blob/master/json/geojson/22_quang_ninh/wards/06793_cam_pha.geojson","source_catalog":"https://github.com/thanglequoc/vietnamese-provinces-database"},"geometry":null},{"type":"Feature","id":"06799","properties":{"commune_code":"06799","commune_name":"Hải Hoà","commune_name_en":"Hai Hoa","commune_full_name":"Xã Hải Hoà","commune_full_name_en":"Hai Hoa Commune","commune_slug":"hai_hoa","unit_type":"Xã","unit_type_en":"Commune","admin_level":2,"province_code":"22","province_name":"Quảng Ninh","province_full_name":"Tỉnh Quảng Ninh","province_slug":"quang_ninh","join_key":"06799","status":"active","dataset_effective_date":"2026-04-30","catalog_version":"2026-07-12","geometry_status":"not_embedded_boundary_available_by_url","boundary_source_url":"https://raw.githubusercontent.com/thanglequoc/vietnamese-provinces-database/master/json/geojson/22_quang_ninh/wards/06799_hai_hoa.geojson","boundary_source_page":"https://github.com/thanglequoc/vietnamese-provinces-database/blob/master/json/geojson/22_quang_ninh/wards/06799_hai_hoa.geojson","source_catalog":"https://github.com/thanglequoc/vietnamese-provinces-database"},"geometry":null},{"type":"Feature","id":"06811","properties":{"commune_code":"06811","commune_name":"Uông Bí","commune_name_en":"Uong Bi","commune_full_name":"Phường Uông Bí","commune_full_name_en":"Uong Bi Ward","commune_slug":"uong_bi","unit_type":"Phường","unit_type_en":"Ward","admin_level":2,"province_code":"22","province_name":"Quảng Ninh","province_full_name":"Tỉnh Quảng Ninh","province_slug":"quang_ninh","join_key":"06811","status":"active","dataset_effective_date":"2026-04-30","catalog_version":"2026-07-12","geometry_status":"not_embedded_boundary_available_by_url","boundary_source_url":"https://raw.githubusercontent.com/thanglequoc/vietnamese-provinces-database/master/json/geojson/22_quang_ninh/wards/06811_uong_bi.geojson","boundary_source_page":"https://github.com/thanglequoc/vietnamese-provinces-database/blob/master/json/geojson/22_quang_ninh/wards/06811_uong_bi.geojson","source_catalog":"https://github.com/thanglequoc/vietnamese-provinces-database"},"geometry":null},{"type":"Feature","id":"06820","properties":{"commune_code":"06820","commune_name":"Vàng Danh","commune_name_en":"Vang Danh","commune_full_name":"Phường Vàng Danh","commune_full_name_en":"Vang Danh Ward","commune_slug":"vang_danh","unit_type":"Phường","unit_type_en":"Ward","admin_level":2,"province_code":"22","province_name":"Quảng Ninh","province_full_name":"Tỉnh Quảng Ninh","province_slug":"quang_ninh","join_key":"06820","status":"active","dataset_effective_date":"2026-04-30","catalog_version":"2026-07-12","geometry_status":"not_embedded_boundary_available_by_url","boundary_source_url":"https://raw.githubusercontent.com/thanglequoc/vietnamese-provinces-database/master/json/geojson/22_quang_ninh/wards/06820_vang_danh.geojson","boundary_source_page":"https://github.com/thanglequoc/vietnamese-provinces-database/blob/master/json/geojson/22_quang_ninh/wards/06820_vang_danh.geojson","source_catalog":"https://github.com/thanglequoc/vietnamese-provinces-database"},"geometry":null},{"type":"Feature","id":"06832","properties":{"commune_code":"06832","commune_name":"Yên Tử","commune_name_en":"Yen Tu","commune_full_name":"Phường Yên Tử","commune_full_name_en":"Yen Tu Ward","commune_slug":"yen_tu","unit_type":"Phường","unit_type_en":"Ward","admin_level":2,"province_code":"22","province_name":"Quảng Ninh","province_full_name":"Tỉnh Quảng Ninh","province_slug":"quang_ninh","join_key":"06832","status":"active","dataset_effective_date":"2026-04-30","catalog_version":"2026-07-12","geometry_status":"not_embedded_boundary_available_by_url","boundary_source_url":"https://raw.githubusercontent.com/thanglequoc/vietnamese-provinces-database/master/json/geojson/22_quang_ninh/wards/06832_yen_tu.geojson","boundary_source_page":"https://github.com/thanglequoc/vietnamese-provinces-database/blob/master/json/geojson/22_quang_ninh/wards/06832_yen_tu.geojson","source_catalog":"https://github.com/thanglequoc/vietnamese-provinces-database"},"geometry":null},{"type":"Feature","id":"06838","properties":{"commune_code":"06838","commune_name":"Bình Liêu","commune_name_en":"Binh Lieu","commune_full_name":"Xã Bình Liêu","commune_full_name_en":"Binh Lieu Commune","commune_slug":"binh_lieu","unit_type":"Xã","unit_type_en":"Commune","admin_level":2,"province_code":"22","province_name":"Quảng Ninh","province_full_name":"Tỉnh Quảng Ninh","province_slug":"quang_ninh","join_key":"06838","status":"active","dataset_effective_date":"2026-04-30","catalog_version":"2026-07-12","geometry_status":"not_embedded_boundary_available_by_url","boundary_source_url":"https://raw.githubusercontent.com/thanglequoc/vietnamese-provinces-database/master/json/geojson/22_quang_ninh/wards/06838_binh_lieu.geojson","boundary_source_page":"https://github.com/thanglequoc/vietnamese-provinces-database/blob/master/json/geojson/22_quang_ninh/wards/06838_binh_lieu.geojson","source_catalog":"https://github.com/thanglequoc/vietnamese-provinces-database"},"geometry":null},{"type":"Feature","id":"06841","properties":{"commune_code":"06841","commune_name":"Hoành Mô","commune_name_en":"Hoanh Mo","commune_full_name":"Xã Hoành Mô","commune_full_name_en":"Hoanh Mo Commune","commune_slug":"hoanh_mo","unit_type":"Xã","unit_type_en":"Commune","admin_level":2,"province_code":"22","province_name":"Quảng Ninh","province_full_name":"Tỉnh Quảng Ninh","province_slug":"quang_ninh","join_key":"06841","status":"active","dataset_effective_date":"2026-04-30","catalog_version":"2026-07-12","geometry_status":"not_embedded_boundary_available_by_url","boundary_source_url":"https://raw.githubusercontent.com/thanglequoc/vietnamese-provinces-database/master/json/geojson/22_quang_ninh/wards/06841_hoanh_mo.geojson","boundary_source_page":"https://github.com/thanglequoc/vietnamese-provinces-database/blob/master/json/geojson/22_quang_ninh/wards/06841_hoanh_mo.geojson","source_catalog":"https://github.com/thanglequoc/vietnamese-provinces-database"},"geometry":null},{"type":"Feature","id":"06856","properties":{"commune_code":"06856","commune_name":"Lục Hồn","commune_name_en":"Luc Hon","commune_full_name":"Xã Lục Hồn","commune_full_name_en":"Luc Hon Commune","commune_slug":"luc_hon","unit_type":"Xã","unit_type_en":"Commune","admin_level":2,"province_code":"22","province_name":"Quảng Ninh","province_full_name":"Tỉnh Quảng Ninh","province_slug":"quang_ninh","join_key":"06856","status":"active","dataset_effective_date":"2026-04-30","catalog_version":"2026-07-12","geometry_status":"not_embedded_boundary_available_by_url","boundary_source_url":"https://raw.githubusercontent.com/thanglequoc/vietnamese-provinces-database/master/json/geojson/22_quang_ninh/wards/06856_luc_hon.geojson","boundary_source_page":"https://github.com/thanglequoc/vietnamese-provinces-database/blob/master/json/geojson/22_quang_ninh/wards/06856_luc_hon.geojson","source_catalog":"https://github.com/thanglequoc/vietnamese-provinces-database"},"geometry":null},{"type":"Feature","id":"06862","properties":{"commune_code":"06862","commune_name":"Tiên Yên","commune_name_en":"Tien Yen","commune_full_name":"Xã Tiên Yên","commune_full_name_en":"Tien Yen Commune","commune_slug":"tien_yen","unit_type":"Xã","unit_type_en":"Commune","admin_level":2,"province_code":"22","province_name":"Quảng Ninh","province_full_name":"Tỉnh Quảng Ninh","province_slug":"quang_ninh","join_key":"06862","status":"active","dataset_effective_date":"2026-04-30","catalog_version":"2026-07-12","geometry_status":"not_embedded_boundary_available_by_url","boundary_source_url":"https://raw.githubusercontent.com/thanglequoc/vietnamese-provinces-database/master/json/geojson/22_quang_ninh/wards/06862_tien_yen.geojson","boundary_source_page":"https://github.com/thanglequoc/vietnamese-provinces-database/blob/master/json/geojson/22_quang_ninh/wards/06862_tien_yen.geojson","source_catalog":"https://github.com/thanglequoc/vietnamese-provinces-database"},"geometry":null},{"type":"Feature","id":"06874","properties":{"commune_code":"06874","commune_name":"Điền Xá","commune_name_en":"Dien Xa","commune_full_name":"Xã Điền Xá","commune_full_name_en":"Dien Xa Commune","commune_slug":"dien_xa","unit_type":"Xã","unit_type_en":"Commune","admin_level":2,"province_code":"22","province_name":"Quảng Ninh","province_full_name":"Tỉnh Quảng Ninh","province_slug":"quang_ninh","join_key":"06874","status":"active","dataset_effective_date":"2026-04-30","catalog_version":"2026-07-12","geometry_status":"not_embedded_boundary_available_by_url","boundary_source_url":"https://raw.githubusercontent.com/thanglequoc/vietnamese-provinces-database/master/json/geojson/22_quang_ninh/wards/06874_dien_xa.geojson","boundary_source_page":"https://github.com/thanglequoc/vietnamese-provinces-database/blob/master/json/geojson/22_quang_ninh/wards/06874_dien_xa.geojson","source_catalog":"https://github.com/thanglequoc/vietnamese-provinces-database"},"geometry":null},{"type":"Feature","id":"06877","properties":{"commune_code":"06877","commune_name":"Đông Ngũ","commune_name_en":"Dong Ngu","commune_full_name":"Xã Đông Ngũ","commune_full_name_en":"Dong Ngu Commune","commune_slug":"dong_ngu","unit_type":"Xã","unit_type_en":"Commune","admin_level":2,"province_code":"22","province_name":"Quảng Ninh","province_full_name":"Tỉnh Quảng Ninh","province_slug":"quang_ninh","join_key":"06877","status":"active","dataset_effective_date":"2026-04-30","catalog_version":"2026-07-12","geometry_status":"not_embedded_boundary_available_by_url","boundary_source_url":"https://raw.githubusercontent.com/thanglequoc/vietnamese-provinces-database/master/json/geojson/22_quang_ninh/wards/06877_dong_ngu.geojson","boundary_source_page":"https://github.com/thanglequoc/vietnamese-provinces-database/blob/master/json/geojson/22_quang_ninh/wards/06877_dong_ngu.geojson","source_catalog":"https://github.com/thanglequoc/vietnamese-provinces-database"},"geometry":null},{"type":"Feature","id":"06886","properties":{"commune_code":"06886","commune_name":"Hải Lạng","commune_name_en":"Hai Lang","commune_full_name":"Xã Hải Lạng","commune_full_name_en":"Hai Lang Commune","commune_slug":"hai_lang","unit_type":"Xã","unit_type_en":"Commune","admin_level":2,"province_code":"22","province_name":"Quảng Ninh","province_full_name":"Tỉnh Quảng Ninh","province_slug":"quang_ninh","join_key":"06886","status":"active","dataset_effective_date":"2026-04-30","catalog_version":"2026-07-12","geometry_status":"not_embedded_boundary_available_by_url","boundary_source_url":"https://raw.githubusercontent.com/thanglequoc/vietnamese-provinces-database/master/json/geojson/22_quang_ninh/wards/06886_hai_lang.geojson","boundary_source_page":"https://github.com/thanglequoc/vietnamese-provinces-database/blob/master/json/geojson/22_quang_ninh/wards/06886_hai_lang.geojson","source_catalog":"https://github.com/thanglequoc/vietnamese-provinces-database"},"geometry":null},{"type":"Feature","id":"06895","properties":{"commune_code":"06895","commune_name":"Đầm Hà","commune_name_en":"Dam Ha","commune_full_name":"Xã Đầm Hà","commune_full_name_en":"Dam Ha Commune","commune_slug":"dam_ha","unit_type":"Xã","unit_type_en":"Commune","admin_level":2,"province_code":"22","province_name":"Quảng Ninh","province_full_name":"Tỉnh Quảng Ninh","province_slug":"quang_ninh","join_key":"06895","status":"active","dataset_effective_date":"2026-04-30","catalog_version":"2026-07-12","geometry_status":"not_embedded_boundary_available_by_url","boundary_source_url":"https://raw.githubusercontent.com/thanglequoc/vietnamese-provinces-database/master/json/geojson/22_quang_ninh/wards/06895_dam_ha.geojson","boundary_source_page":"https://github.com/thanglequoc/vietnamese-provinces-database/blob/master/json/geojson/22_quang_ninh/wards/06895_dam_ha.geojson","source_catalog":"https://github.com/thanglequoc/vietnamese-provinces-database"},"geometry":null},{"type":"Feature","id":"06913","properties":{"commune_code":"06913","commune_name":"Quảng Tân","commune_name_en":"Quang Tan","commune_full_name":"Xã Quảng Tân","commune_full_name_en":"Quang Tan Commune","commune_slug":"quang_tan","unit_type":"Xã","unit_type_en":"Commune","admin_level":2,"province_code":"22","province_name":"Quảng Ninh","province_full_name":"Tỉnh Quảng Ninh","province_slug":"quang_ninh","join_key":"06913","status":"active","dataset_effective_date":"2026-04-30","catalog_version":"2026-07-12","geometry_status":"not_embedded_boundary_available_by_url","boundary_source_url":"https://raw.githubusercontent.com/thanglequoc/vietnamese-provinces-database/master/json/geojson/22_quang_ninh/wards/06913_quang_tan.geojson","boundary_source_page":"https://github.com/thanglequoc/vietnamese-provinces-database/blob/master/json/geojson/22_quang_ninh/wards/06913_quang_tan.geojson","source_catalog":"https://github.com/thanglequoc/vietnamese-provinces-database"},"geometry":null},{"type":"Feature","id":"06922","properties":{"commune_code":"06922","commune_name":"Quảng Hà","commune_name_en":"Quang Ha","commune_full_name":"Xã Quảng Hà","commune_full_name_en":"Quang Ha Commune","commune_slug":"quang_ha","unit_type":"Xã","unit_type_en":"Commune","admin_level":2,"province_code":"22","province_name":"Quảng Ninh","province_full_name":"Tỉnh Quảng Ninh","province_slug":"quang_ninh","join_key":"06922","status":"active","dataset_effective_date":"2026-04-30","catalog_version":"2026-07-12","geometry_status":"not_embedded_boundary_available_by_url","boundary_source_url":"https://raw.githubusercontent.com/thanglequoc/vietnamese-provinces-database/master/json/geojson/22_quang_ninh/wards/06922_quang_ha.geojson","boundary_source_page":"https://github.com/thanglequoc/vietnamese-provinces-database/blob/master/json/geojson/22_quang_ninh/wards/06922_quang_ha.geojson","source_catalog":"https://github.com/thanglequoc/vietnamese-provinces-database"},"geometry":null},{"type":"Feature","id":"06931","properties":{"commune_code":"06931","commune_name":"Quảng Đức","commune_name_en":"Quang Duc","commune_full_name":"Xã Quảng Đức","commune_full_name_en":"Quang Duc Commune","commune_slug":"quang_duc","unit_type":"Xã","unit_type_en":"Commune","admin_level":2,"province_code":"22","province_name":"Quảng Ninh","province_full_name":"Tỉnh Quảng Ninh","province_slug":"quang_ninh","join_key":"06931","status":"active","dataset_effective_date":"2026-04-30","catalog_version":"2026-07-12","geometry_status":"not_embedded_boundary_available_by_url","boundary_source_url":"https://raw.githubusercontent.com/thanglequoc/vietnamese-provinces-database/master/json/geojson/22_quang_ninh/wards/06931_quang_duc.geojson","boundary_source_page":"https://github.com/thanglequoc/vietnamese-provinces-database/blob/master/json/geojson/22_quang_ninh/wards/06931_quang_duc.geojson","source_catalog":"https://github.com/thanglequoc/vietnamese-provinces-database"},"geometry":null},{"type":"Feature","id":"06946","properties":{"commune_code":"06946","commune_name":"Đường Hoa","commune_name_en":"Duong Hoa","commune_full_name":"Xã Đường Hoa","commune_full_name_en":"Duong Hoa Commune","commune_slug":"duong_hoa","unit_type":"Xã","unit_type_en":"Commune","admin_level":2,"province_code":"22","province_name":"Quảng Ninh","province_full_name":"Tỉnh Quảng Ninh","province_slug":"quang_ninh","join_key":"06946","status":"active","dataset_effective_date":"2026-04-30","catalog_version":"2026-07-12","geometry_status":"not_embedded_boundary_available_by_url","boundary_source_url":"https://raw.githubusercontent.com/thanglequoc/vietnamese-provinces-database/master/json/geojson/22_quang_ninh/wards/06946_duong_hoa.geojson","boundary_source_page":"https://github.com/thanglequoc/vietnamese-provinces-database/blob/master/json/geojson/22_quang_ninh/wards/06946_duong_hoa.geojson","source_catalog":"https://github.com/thanglequoc/vietnamese-provinces-database"},"geometry":null},{"type":"Feature","id":"06967","properties":{"commune_code":"06967","commune_name":"Cái Chiên","commune_name_en":"Cai Chien","commune_full_name":"Xã Cái Chiên","commune_full_name_en":"Cai Chien Commune","commune_slug":"cai_chien","unit_type":"Xã","unit_type_en":"Commune","admin_level":2,"province_code":"22","province_name":"Quảng Ninh","province_full_name":"Tỉnh Quảng Ninh","province_slug":"quang_ninh","join_key":"06967","status":"active","dataset_effective_date":"2026-04-30","catalog_version":"2026-07-12","geometry_status":"not_embedded_boundary_available_by_url","boundary_source_url":"https://raw.githubusercontent.com/thanglequoc/vietnamese-provinces-database/master/json/geojson/22_quang_ninh/wards/06967_cai_chien.geojson","boundary_source_page":"https://github.com/thanglequoc/vietnamese-provinces-database/blob/master/json/geojson/22_quang_ninh/wards/06967_cai_chien.geojson","source_catalog":"https://github.com/thanglequoc/vietnamese-provinces-database"},"geometry":null},{"type":"Feature","id":"06978","properties":{"commune_code":"06978","commune_name":"Ba Chẽ","commune_name_en":"Ba Che","commune_full_name":"Xã Ba Chẽ","commune_full_name_en":"Ba Che Commune","commune_slug":"ba_che","unit_type":"Xã","unit_type_en":"Commune","admin_level":2,"province_code":"22","province_name":"Quảng Ninh","province_full_name":"Tỉnh Quảng Ninh","province_slug":"quang_ninh","join_key":"06978","status":"active","dataset_effective_date":"2026-04-30","catalog_version":"2026-07-12","geometry_status":"not_embedded_boundary_available_by_url","boundary_source_url":"https://raw.githubusercontent.com/thanglequoc/vietnamese-provinces-database/master/json/geojson/22_quang_ninh/wards/06978_ba_che.geojson","boundary_source_page":"https://github.com/thanglequoc/vietnamese-provinces-database/blob/master/json/geojson/22_quang_ninh/wards/06978_ba_che.geojson","source_catalog":"https://github.com/thanglequoc/vietnamese-provinces-database"},"geometry":null},{"type":"Feature","id":"06979","properties":{"commune_code":"06979","commune_name":"Kỳ Thượng","commune_name_en":"Ky Thuong","commune_full_name":"Xã Kỳ Thượng","commune_full_name_en":"Ky Thuong Commune","commune_slug":"ky_thuong","unit_type":"Xã","unit_type_en":"Commune","admin_level":2,"province_code":"22","province_name":"Quảng Ninh","province_full_name":"Tỉnh Quảng Ninh","province_slug":"quang_ninh","join_key":"06979","status":"active","dataset_effective_date":"2026-04-30","catalog_version":"2026-07-12","geometry_status":"not_embedded_boundary_available_by_url","boundary_source_url":"https://raw.githubusercontent.com/thanglequoc/vietnamese-provinces-database/master/json/geojson/22_quang_ninh/wards/06979_ky_thuong.geojson","boundary_source_page":"https://github.com/thanglequoc/vietnamese-provinces-database/blob/master/json/geojson/22_quang_ninh/wards/06979_ky_thuong.geojson","source_catalog":"https://github.com/thanglequoc/vietnamese-provinces-database"},"geometry":null},{"type":"Feature","id":"06985","properties":{"commune_code":"06985","commune_name":"Lương Minh","commune_name_en":"Luong Minh","commune_full_name":"Xã Lương Minh","commune_full_name_en":"Luong Minh Commune","commune_slug":"luong_minh","unit_type":"Xã","unit_type_en":"Commune","admin_level":2,"province_code":"22","province_name":"Quảng Ninh","province_full_name":"Tỉnh Quảng Ninh","province_slug":"quang_ninh","join_key":"06985","status":"active","dataset_effective_date":"2026-04-30","catalog_version":"2026-07-12","geometry_status":"not_embedded_boundary_available_by_url","boundary_source_url":"https://raw.githubusercontent.com/thanglequoc/vietnamese-provinces-database/master/json/geojson/22_quang_ninh/wards/06985_luong_minh.geojson","boundary_source_page":"https://github.com/thanglequoc/vietnamese-provinces-database/blob/master/json/geojson/22_quang_ninh/wards/06985_luong_minh.geojson","source_catalog":"https://github.com/thanglequoc/vietnamese-provinces-database"},"geometry":null},{"type":"Feature","id":"06994","properties":{"commune_code":"06994","commune_name":"Vân Đồn","commune_name_en":"Van Don","commune_full_name":"Đặc khu Vân Đồn","commune_full_name_en":"Van Don Special administrative region","commune_slug":"van_don","unit_type":"Đặc khu","unit_type_en":"Special administrative region","admin_level":2,"province_code":"22","province_name":"Quảng Ninh","province_full_name":"Tỉnh Quảng Ninh","province_slug":"quang_ninh","join_key":"06994","status":"active","dataset_effective_date":"2026-04-30","catalog_version":"2026-07-12","geometry_status":"not_embedded_boundary_available_by_url","boundary_source_url":"https://raw.githubusercontent.com/thanglequoc/vietnamese-provinces-database/master/json/geojson/22_quang_ninh/wards/06994_van_don.geojson","boundary_source_page":"https://github.com/thanglequoc/vietnamese-provinces-database/blob/master/json/geojson/22_quang_ninh/wards/06994_van_don.geojson","source_catalog":"https://github.com/thanglequoc/vietnamese-provinces-database"},"geometry":null},{"type":"Feature","id":"07030","properties":{"commune_code":"07030","commune_name":"Hoành Bồ","commune_name_en":"Hoanh Bo","commune_full_name":"Phường Hoành Bồ","commune_full_name_en":"Hoanh Bo Ward","commune_slug":"hoanh_bo","unit_type":"Phường","unit_type_en":"Ward","admin_level":2,"province_code":"22","province_name":"Quảng Ninh","province_full_name":"Tỉnh Quảng Ninh","province_slug":"quang_ninh","join_key":"07030","status":"active","dataset_effective_date":"2026-04-30","catalog_version":"2026-07-12","geometry_status":"not_embedded_boundary_available_by_url","boundary_source_url":"https://raw.githubusercontent.com/thanglequoc/vietnamese-provinces-database/master/json/geojson/22_quang_ninh/wards/07030_hoanh_bo.geojson","boundary_source_page":"https://github.com/thanglequoc/vietnamese-provinces-database/blob/master/json/geojson/22_quang_ninh/wards/07030_hoanh_bo.geojson","source_catalog":"https://github.com/thanglequoc/vietnamese-provinces-database"},"geometry":null},{"type":"Feature","id":"07054","properties":{"commune_code":"07054","commune_name":"Quảng La","commune_name_en":"Quang La","commune_full_name":"Xã Quảng La","commune_full_name_en":"Quang La Commune","commune_slug":"quang_la","unit_type":"Xã","unit_type_en":"Commune","admin_level":2,"province_code":"22","province_name":"Quảng Ninh","province_full_name":"Tỉnh Quảng Ninh","province_slug":"quang_ninh","join_key":"07054","status":"active","dataset_effective_date":"2026-04-30","catalog_version":"2026-07-12","geometry_status":"not_embedded_boundary_available_by_url","boundary_source_url":"https://raw.githubusercontent.com/thanglequoc/vietnamese-provinces-database/master/json/geojson/22_quang_ninh/wards/07054_quang_la.geojson","boundary_source_page":"https://github.com/thanglequoc/vietnamese-provinces-database/blob/master/json/geojson/22_quang_ninh/wards/07054_quang_la.geojson","source_catalog":"https://github.com/thanglequoc/vietnamese-provinces-database"},"geometry":null},{"type":"Feature","id":"07060","properties":{"commune_code":"07060","commune_name":"Thống Nhất","commune_name_en":"Thong Nhat","commune_full_name":"Xã Thống Nhất","commune_full_name_en":"Thong Nhat Commune","commune_slug":"thong_nhat","unit_type":"Xã","unit_type_en":"Commune","admin_level":2,"province_code":"22","province_name":"Quảng Ninh","province_full_name":"Tỉnh Quảng Ninh","province_slug":"quang_ninh","join_key":"07060","status":"active","dataset_effective_date":"2026-04-30","catalog_version":"2026-07-12","geometry_status":"not_embedded_boundary_available_by_url","boundary_source_url":"https://raw.githubusercontent.com/thanglequoc/vietnamese-provinces-database/master/json/geojson/22_quang_ninh/wards/07060_thong_nhat.geojson","boundary_source_page":"https://github.com/thanglequoc/vietnamese-provinces-database/blob/master/json/geojson/22_quang_ninh/wards/07060_thong_nhat.geojson","source_catalog":"https://github.com/thanglequoc/vietnamese-provinces-database"},"geometry":null},{"type":"Feature","id":"07069","properties":{"commune_code":"07069","commune_name":"Mạo Khê","commune_name_en":"Mao Khe","commune_full_name":"Phường Mạo Khê","commune_full_name_en":"Mao Khe Ward","commune_slug":"mao_khe","unit_type":"Phường","unit_type_en":"Ward","admin_level":2,"province_code":"22","province_name":"Quảng Ninh","province_full_name":"Tỉnh Quảng Ninh","province_slug":"quang_ninh","join_key":"07069","status":"active","dataset_effective_date":"2026-04-30","catalog_version":"2026-07-12","geometry_status":"not_embedded_boundary_available_by_url","boundary_source_url":"https://raw.githubusercontent.com/thanglequoc/vietnamese-provinces-database/master/json/geojson/22_quang_ninh/wards/07069_mao_khe.geojson","boundary_source_page":"https://github.com/thanglequoc/vietnamese-provinces-database/blob/master/json/geojson/22_quang_ninh/wards/07069_mao_khe.geojson","source_catalog":"https://github.com/thanglequoc/vietnamese-provinces-database"},"geometry":null},{"type":"Feature","id":"07081","properties":{"commune_code":"07081","commune_name":"Bình Khê","commune_name_en":"Binh Khe","commune_full_name":"Phường Bình Khê","commune_full_name_en":"Binh Khe Ward","commune_slug":"binh_khe","unit_type":"Phường","unit_type_en":"Ward","admin_level":2,"province_code":"22","province_name":"Quảng Ninh","province_full_name":"Tỉnh Quảng Ninh","province_slug":"quang_ninh","join_key":"07081","status":"active","dataset_effective_date":"2026-04-30","catalog_version":"2026-07-12","geometry_status":"not_embedded_boundary_available_by_url","boundary_source_url":"https://raw.githubusercontent.com/thanglequoc/vietnamese-provinces-database/master/json/geojson/22_quang_ninh/wards/07081_binh_khe.geojson","boundary_source_page":"https://github.com/thanglequoc/vietnamese-provinces-database/blob/master/json/geojson/22_quang_ninh/wards/07081_binh_khe.geojson","source_catalog":"https://github.com/thanglequoc/vietnamese-provinces-database"},"geometry":null},{"type":"Feature","id":"07090","properties":{"commune_code":"07090","commune_name":"An Sinh","commune_name_en":"An Sinh","commune_full_name":"Phường An Sinh","commune_full_name_en":"An Sinh Ward","commune_slug":"an_sinh","unit_type":"Phường","unit_type_en":"Ward","admin_level":2,"province_code":"22","province_name":"Quảng Ninh","province_full_name":"Tỉnh Quảng Ninh","province_slug":"quang_ninh","join_key":"07090","status":"active","dataset_effective_date":"2026-04-30","catalog_version":"2026-07-12","geometry_status":"not_embedded_boundary_available_by_url","boundary_source_url":"https://raw.githubusercontent.com/thanglequoc/vietnamese-provinces-database/master/json/geojson/22_quang_ninh/wards/07090_an_sinh.geojson","boundary_source_page":"https://github.com/thanglequoc/vietnamese-provinces-database/blob/master/json/geojson/22_quang_ninh/wards/07090_an_sinh.geojson","source_catalog":"https://github.com/thanglequoc/vietnamese-provinces-database"},"geometry":null},{"type":"Feature","id":"07093","properties":{"commune_code":"07093","commune_name":"Đông Triều","commune_name_en":"Dong Trieu","commune_full_name":"Phường Đông Triều","commune_full_name_en":"Dong Trieu Ward","commune_slug":"dong_trieu","unit_type":"Phường","unit_type_en":"Ward","admin_level":2,"province_code":"22","province_name":"Quảng Ninh","province_full_name":"Tỉnh Quảng Ninh","province_slug":"quang_ninh","join_key":"07093","status":"active","dataset_effective_date":"2026-04-30","catalog_version":"2026-07-12","geometry_status":"not_embedded_boundary_available_by_url","boundary_source_url":"https://raw.githubusercontent.com/thanglequoc/vietnamese-provinces-database/master/json/geojson/22_quang_ninh/wards/07093_dong_trieu.geojson","boundary_source_page":"https://github.com/thanglequoc/vietnamese-provinces-database/blob/master/json/geojson/22_quang_ninh/wards/07093_dong_trieu.geojson","source_catalog":"https://github.com/thanglequoc/vietnamese-provinces-database"},"geometry":null},{"type":"Feature","id":"07114","properties":{"commune_code":"07114","commune_name":"Hoàng Quế","commune_name_en":"Hoang Que","commune_full_name":"Phường Hoàng Quế","commune_full_name_en":"Hoang Que Ward","commune_slug":"hoang_que","unit_type":"Phường","unit_type_en":"Ward","admin_level":2,"province_code":"22","province_name":"Quảng Ninh","province_full_name":"Tỉnh Quảng Ninh","province_slug":"quang_ninh","join_key":"07114","status":"active","dataset_effective_date":"2026-04-30","catalog_version":"2026-07-12","geometry_status":"not_embedded_boundary_available_by_url","boundary_source_url":"https://raw.githubusercontent.com/thanglequoc/vietnamese-provinces-database/master/json/geojson/22_quang_ninh/wards/07114_hoang_que.geojson","boundary_source_page":"https://github.com/thanglequoc/vietnamese-provinces-database/blob/master/json/geojson/22_quang_ninh/wards/07114_hoang_que.geojson","source_catalog":"https://github.com/thanglequoc/vietnamese-provinces-database"},"geometry":null},{"type":"Feature","id":"07132","properties":{"commune_code":"07132","commune_name":"Quảng Yên","commune_name_en":"Quang Yen","commune_full_name":"Phường Quảng Yên","commune_full_name_en":"Quang Yen Ward","commune_slug":"quang_yen","unit_type":"Phường","unit_type_en":"Ward","admin_level":2,"province_code":"22","province_name":"Quảng Ninh","province_full_name":"Tỉnh Quảng Ninh","province_slug":"quang_ninh","join_key":"07132","status":"active","dataset_effective_date":"2026-04-30","catalog_version":"2026-07-12","geometry_status":"not_embedded_boundary_available_by_url","boundary_source_url":"https://raw.githubusercontent.com/thanglequoc/vietnamese-provinces-database/master/json/geojson/22_quang_ninh/wards/07132_quang_yen.geojson","boundary_source_page":"https://github.com/thanglequoc/vietnamese-provinces-database/blob/master/json/geojson/22_quang_ninh/wards/07132_quang_yen.geojson","source_catalog":"https://github.com/thanglequoc/vietnamese-provinces-database"},"geometry":null},{"type":"Feature","id":"07135","properties":{"commune_code":"07135","commune_name":"Đông Mai","commune_name_en":"Dong Mai","commune_full_name":"Phường Đông Mai","commune_full_name_en":"Dong Mai Ward","commune_slug":"dong_mai","unit_type":"Phường","unit_type_en":"Ward","admin_level":2,"province_code":"22","province_name":"Quảng Ninh","province_full_name":"Tỉnh Quảng Ninh","province_slug":"quang_ninh","join_key":"07135","status":"active","dataset_effective_date":"2026-04-30","catalog_version":"2026-07-12","geometry_status":"not_embedded_boundary_available_by_url","boundary_source_url":"https://raw.githubusercontent.com/thanglequoc/vietnamese-provinces-database/master/json/geojson/22_quang_ninh/wards/07135_dong_mai.geojson","boundary_source_page":"https://github.com/thanglequoc/vietnamese-provinces-database/blob/master/json/geojson/22_quang_ninh/wards/07135_dong_mai.geojson","source_catalog":"https://github.com/thanglequoc/vietnamese-provinces-database"},"geometry":null},{"type":"Feature","id":"07147","properties":{"commune_code":"07147","commune_name":"Hiệp Hoà","commune_name_en":"Hiep Hoa","commune_full_name":"Phường Hiệp Hoà","commune_full_name_en":"Hiep Hoa Ward","commune_slug":"hiep_hoa","unit_type":"Phường","unit_type_en":"Ward","admin_level":2,"province_code":"22","province_name":"Quảng Ninh","province_full_name":"Tỉnh Quảng Ninh","province_slug":"quang_ninh","join_key":"07147","status":"active","dataset_effective_date":"2026-04-30","catalog_version":"2026-07-12","geometry_status":"not_embedded_boundary_available_by_url","boundary_source_url":"https://raw.githubusercontent.com/thanglequoc/vietnamese-provinces-database/master/json/geojson/22_quang_ninh/wards/07147_hiep_hoa.geojson","boundary_source_page":"https://github.com/thanglequoc/vietnamese-provinces-database/blob/master/json/geojson/22_quang_ninh/wards/07147_hiep_hoa.geojson","source_catalog":"https://github.com/thanglequoc/vietnamese-provinces-database"},"geometry":null},{"type":"Feature","id":"07168","properties":{"commune_code":"07168","commune_name":"Hà An","commune_name_en":"Ha An","commune_full_name":"Phường Hà An","commune_full_name_en":"Ha An Ward","commune_slug":"ha_an","unit_type":"Phường","unit_type_en":"Ward","admin_level":2,"province_code":"22","province_name":"Quảng Ninh","province_full_name":"Tỉnh Quảng Ninh","province_slug":"quang_ninh","join_key":"07168","status":"active","dataset_effective_date":"2026-04-30","catalog_version":"2026-07-12","geometry_status":"not_embedded_boundary_available_by_url","boundary_source_url":"https://raw.githubusercontent.com/thanglequoc/vietnamese-provinces-database/master/json/geojson/22_quang_ninh/wards/07168_ha_an.geojson","boundary_source_page":"https://github.com/thanglequoc/vietnamese-provinces-database/blob/master/json/geojson/22_quang_ninh/wards/07168_ha_an.geojson","source_catalog":"https://github.com/thanglequoc/vietnamese-provinces-database"},"geometry":null},{"type":"Feature","id":"07180","properties":{"commune_code":"07180","commune_name":"Liên Hoà","commune_name_en":"Lien Hoa","commune_full_name":"Phường Liên Hoà","commune_full_name_en":"Lien Hoa Ward","commune_slug":"lien_hoa","unit_type":"Phường","unit_type_en":"Ward","admin_level":2,"province_code":"22","province_name":"Quảng Ninh","province_full_name":"Tỉnh Quảng Ninh","province_slug":"quang_ninh","join_key":"07180","status":"active","dataset_effective_date":"2026-04-30","catalog_version":"2026-07-12","geometry_status":"not_embedded_boundary_available_by_url","boundary_source_url":"https://raw.githubusercontent.com/thanglequoc/vietnamese-provinces-database/master/json/geojson/22_quang_ninh/wards/07180_lien_hoa.geojson","boundary_source_page":"https://github.com/thanglequoc/vietnamese-provinces-database/blob/master/json/geojson/22_quang_ninh/wards/07180_lien_hoa.geojson","source_catalog":"https://github.com/thanglequoc/vietnamese-provinces-database"},"geometry":null},{"type":"Feature","id":"07183","properties":{"commune_code":"07183","commune_name":"Phong Cốc","commune_name_en":"Phong Coc","commune_full_name":"Phường Phong Cốc","commune_full_name_en":"Phong Coc Ward","commune_slug":"phong_coc","unit_type":"Phường","unit_type_en":"Ward","admin_level":2,"province_code":"22","province_name":"Quảng Ninh","province_full_name":"Tỉnh Quảng Ninh","province_slug":"quang_ninh","join_key":"07183","status":"active","dataset_effective_date":"2026-04-30","catalog_version":"2026-07-12","geometry_status":"not_embedded_boundary_available_by_url","boundary_source_url":"https://raw.githubusercontent.com/thanglequoc/vietnamese-provinces-database/master/json/geojson/22_quang_ninh/wards/07183_phong_coc.geojson","boundary_source_page":"https://github.com/thanglequoc/vietnamese-provinces-database/blob/master/json/geojson/22_quang_ninh/wards/07183_phong_coc.geojson","source_catalog":"https://github.com/thanglequoc/vietnamese-provinces-database"},"geometry":null},{"type":"Feature","id":"07192","properties":{"commune_code":"07192","commune_name":"Cô Tô","commune_name_en":"Co To","commune_full_name":"Đặc khu Cô Tô","commune_full_name_en":"Co To Special administrative region","commune_slug":"co_to","unit_type":"Đặc khu","unit_type_en":"Special administrative region","admin_level":2,"province_code":"22","province_name":"Quảng Ninh","province_full_name":"Tỉnh Quảng Ninh","province_slug":"quang_ninh","join_key":"07192","status":"active","dataset_effective_date":"2026-04-30","catalog_version":"2026-07-12","geometry_status":"not_embedded_boundary_available_by_url","boundary_source_url":"https://raw.githubusercontent.com/thanglequoc/vietnamese-provinces-database/master/json/geojson/22_quang_ninh/wards/07192_co_to.geojson","boundary_source_page":"https://github.com/thanglequoc/vietnamese-provinces-database/blob/master/json/geojson/22_quang_ninh/wards/07192_co_to.geojson","source_catalog":"https://github.com/thanglequoc/vietnamese-provinces-database"},"geometry":null}]}