{"type":"FeatureCollection","name":"24_bac_ninh_communes_attributes","metadata":{"province_code":"24","province_name":"Bắc Ninh","feature_count":99,"geometry":null,"join_key":"commune_code"},"features":[{"type":"Feature","id":"07210","properties":{"commune_code":"07210","commune_name":"Bắc Giang","commune_name_en":"Bac Giang","commune_full_name":"Phường Bắc Giang","commune_full_name_en":"Bac Giang Ward","commune_slug":"bac_giang","unit_type":"Phường","unit_type_en":"Ward","admin_level":2,"province_code":"24","province_name":"Bắc Ninh","province_full_name":"Tỉnh Bắc Ninh","province_slug":"bac_ninh","join_key":"07210","status":"active","dataset_effective_date":"2026-04-30","catalog_version":"2026-07-12","geometry_status":"not_embedded_boundary_available_by_url","boundary_source_url":"https://raw.githubusercontent.com/thanglequoc/vietnamese-provinces-database/master/json/geojson/24_bac_ninh/wards/07210_bac_giang.geojson","boundary_source_page":"https://github.com/thanglequoc/vietnamese-provinces-database/blob/master/json/geojson/24_bac_ninh/wards/07210_bac_giang.geojson","source_catalog":"https://github.com/thanglequoc/vietnamese-provinces-database"},"geometry":null},{"type":"Feature","id":"07228","properties":{"commune_code":"07228","commune_name":"Đa Mai","commune_name_en":"Da Mai","commune_full_name":"Phường Đa Mai","commune_full_name_en":"Da Mai Ward","commune_slug":"da_mai","unit_type":"Phường","unit_type_en":"Ward","admin_level":2,"province_code":"24","province_name":"Bắc Ninh","province_full_name":"Tỉnh Bắc Ninh","province_slug":"bac_ninh","join_key":"07228","status":"active","dataset_effective_date":"2026-04-30","catalog_version":"2026-07-12","geometry_status":"not_embedded_boundary_available_by_url","boundary_source_url":"https://raw.githubusercontent.com/thanglequoc/vietnamese-provinces-database/master/json/geojson/24_bac_ninh/wards/07228_da_mai.geojson","boundary_source_page":"https://github.com/thanglequoc/vietnamese-provinces-database/blob/master/json/geojson/24_bac_ninh/wards/07228_da_mai.geojson","source_catalog":"https://github.com/thanglequoc/vietnamese-provinces-database"},"geometry":null},{"type":"Feature","id":"07246","properties":{"commune_code":"07246","commune_name":"Xuân Lương","commune_name_en":"Xuan Luong","commune_full_name":"Xã Xuân Lương","commune_full_name_en":"Xuan Luong Commune","commune_slug":"xuan_luong","unit_type":"Xã","unit_type_en":"Commune","admin_level":2,"province_code":"24","province_name":"Bắc Ninh","province_full_name":"Tỉnh Bắc Ninh","province_slug":"bac_ninh","join_key":"07246","status":"active","dataset_effective_date":"2026-04-30","catalog_version":"2026-07-12","geometry_status":"not_embedded_boundary_available_by_url","boundary_source_url":"https://raw.githubusercontent.com/thanglequoc/vietnamese-provinces-database/master/json/geojson/24_bac_ninh/wards/07246_xuan_luong.geojson","boundary_source_page":"https://github.com/thanglequoc/vietnamese-provinces-database/blob/master/json/geojson/24_bac_ninh/wards/07246_xuan_luong.geojson","source_catalog":"https://github.com/thanglequoc/vietnamese-provinces-database"},"geometry":null},{"type":"Feature","id":"07264","properties":{"commune_code":"07264","commune_name":"Tam Tiến","commune_name_en":"Tam Tien","commune_full_name":"Xã Tam Tiến","commune_full_name_en":"Tam Tien Commune","commune_slug":"tam_tien","unit_type":"Xã","unit_type_en":"Commune","admin_level":2,"province_code":"24","province_name":"Bắc Ninh","province_full_name":"Tỉnh Bắc Ninh","province_slug":"bac_ninh","join_key":"07264","status":"active","dataset_effective_date":"2026-04-30","catalog_version":"2026-07-12","geometry_status":"not_embedded_boundary_available_by_url","boundary_source_url":"https://raw.githubusercontent.com/thanglequoc/vietnamese-provinces-database/master/json/geojson/24_bac_ninh/wards/07264_tam_tien.geojson","boundary_source_page":"https://github.com/thanglequoc/vietnamese-provinces-database/blob/master/json/geojson/24_bac_ninh/wards/07264_tam_tien.geojson","source_catalog":"https://github.com/thanglequoc/vietnamese-provinces-database"},"geometry":null},{"type":"Feature","id":"07282","properties":{"commune_code":"07282","commune_name":"Đồng Kỳ","commune_name_en":"Dong Ky","commune_full_name":"Xã Đồng Kỳ","commune_full_name_en":"Dong Ky Commune","commune_slug":"dong_ky","unit_type":"Xã","unit_type_en":"Commune","admin_level":2,"province_code":"24","province_name":"Bắc Ninh","province_full_name":"Tỉnh Bắc Ninh","province_slug":"bac_ninh","join_key":"07282","status":"active","dataset_effective_date":"2026-04-30","catalog_version":"2026-07-12","geometry_status":"not_embedded_boundary_available_by_url","boundary_source_url":"https://raw.githubusercontent.com/thanglequoc/vietnamese-provinces-database/master/json/geojson/24_bac_ninh/wards/07282_dong_ky.geojson","boundary_source_page":"https://github.com/thanglequoc/vietnamese-provinces-database/blob/master/json/geojson/24_bac_ninh/wards/07282_dong_ky.geojson","source_catalog":"https://github.com/thanglequoc/vietnamese-provinces-database"},"geometry":null},{"type":"Feature","id":"07288","properties":{"commune_code":"07288","commune_name":"Yên Thế","commune_name_en":"Yen The","commune_full_name":"Xã Yên Thế","commune_full_name_en":"Yen The Commune","commune_slug":"yen_the","unit_type":"Xã","unit_type_en":"Commune","admin_level":2,"province_code":"24","province_name":"Bắc Ninh","province_full_name":"Tỉnh Bắc Ninh","province_slug":"bac_ninh","join_key":"07288","status":"active","dataset_effective_date":"2026-04-30","catalog_version":"2026-07-12","geometry_status":"not_embedded_boundary_available_by_url","boundary_source_url":"https://raw.githubusercontent.com/thanglequoc/vietnamese-provinces-database/master/json/geojson/24_bac_ninh/wards/07288_yen_the.geojson","boundary_source_page":"https://github.com/thanglequoc/vietnamese-provinces-database/blob/master/json/geojson/24_bac_ninh/wards/07288_yen_the.geojson","source_catalog":"https://github.com/thanglequoc/vietnamese-provinces-database"},"geometry":null},{"type":"Feature","id":"07294","properties":{"commune_code":"07294","commune_name":"Bố Hạ","commune_name_en":"Bo Ha","commune_full_name":"Xã Bố Hạ","commune_full_name_en":"Bo Ha Commune","commune_slug":"bo_ha","unit_type":"Xã","unit_type_en":"Commune","admin_level":2,"province_code":"24","province_name":"Bắc Ninh","province_full_name":"Tỉnh Bắc Ninh","province_slug":"bac_ninh","join_key":"07294","status":"active","dataset_effective_date":"2026-04-30","catalog_version":"2026-07-12","geometry_status":"not_embedded_boundary_available_by_url","boundary_source_url":"https://raw.githubusercontent.com/thanglequoc/vietnamese-provinces-database/master/json/geojson/24_bac_ninh/wards/07294_bo_ha.geojson","boundary_source_page":"https://github.com/thanglequoc/vietnamese-provinces-database/blob/master/json/geojson/24_bac_ninh/wards/07294_bo_ha.geojson","source_catalog":"https://github.com/thanglequoc/vietnamese-provinces-database"},"geometry":null},{"type":"Feature","id":"07306","properties":{"commune_code":"07306","commune_name":"Nhã Nam","commune_name_en":"Nha Nam","commune_full_name":"Xã Nhã Nam","commune_full_name_en":"Nha Nam Commune","commune_slug":"nha_nam","unit_type":"Xã","unit_type_en":"Commune","admin_level":2,"province_code":"24","province_name":"Bắc Ninh","province_full_name":"Tỉnh Bắc Ninh","province_slug":"bac_ninh","join_key":"07306","status":"active","dataset_effective_date":"2026-04-30","catalog_version":"2026-07-12","geometry_status":"not_embedded_boundary_available_by_url","boundary_source_url":"https://raw.githubusercontent.com/thanglequoc/vietnamese-provinces-database/master/json/geojson/24_bac_ninh/wards/07306_nha_nam.geojson","boundary_source_page":"https://github.com/thanglequoc/vietnamese-provinces-database/blob/master/json/geojson/24_bac_ninh/wards/07306_nha_nam.geojson","source_catalog":"https://github.com/thanglequoc/vietnamese-provinces-database"},"geometry":null},{"type":"Feature","id":"07330","properties":{"commune_code":"07330","commune_name":"Phúc Hoà","commune_name_en":"Phuc Hoa","commune_full_name":"Xã Phúc Hoà","commune_full_name_en":"Phuc Hoa Commune","commune_slug":"phuc_hoa","unit_type":"Xã","unit_type_en":"Commune","admin_level":2,"province_code":"24","province_name":"Bắc Ninh","province_full_name":"Tỉnh Bắc Ninh","province_slug":"bac_ninh","join_key":"07330","status":"active","dataset_effective_date":"2026-04-30","catalog_version":"2026-07-12","geometry_status":"not_embedded_boundary_available_by_url","boundary_source_url":"https://raw.githubusercontent.com/thanglequoc/vietnamese-provinces-database/master/json/geojson/24_bac_ninh/wards/07330_phuc_hoa.geojson","boundary_source_page":"https://github.com/thanglequoc/vietnamese-provinces-database/blob/master/json/geojson/24_bac_ninh/wards/07330_phuc_hoa.geojson","source_catalog":"https://github.com/thanglequoc/vietnamese-provinces-database"},"geometry":null},{"type":"Feature","id":"07333","properties":{"commune_code":"07333","commune_name":"Quang Trung","commune_name_en":"Quang Trung","commune_full_name":"Xã Quang Trung","commune_full_name_en":"Quang Trung Commune","commune_slug":"quang_trung","unit_type":"Xã","unit_type_en":"Commune","admin_level":2,"province_code":"24","province_name":"Bắc Ninh","province_full_name":"Tỉnh Bắc Ninh","province_slug":"bac_ninh","join_key":"07333","status":"active","dataset_effective_date":"2026-04-30","catalog_version":"2026-07-12","geometry_status":"not_embedded_boundary_available_by_url","boundary_source_url":"https://raw.githubusercontent.com/thanglequoc/vietnamese-provinces-database/master/json/geojson/24_bac_ninh/wards/07333_quang_trung.geojson","boundary_source_page":"https://github.com/thanglequoc/vietnamese-provinces-database/blob/master/json/geojson/24_bac_ninh/wards/07333_quang_trung.geojson","source_catalog":"https://github.com/thanglequoc/vietnamese-provinces-database"},"geometry":null},{"type":"Feature","id":"07339","properties":{"commune_code":"07339","commune_name":"Tân Yên","commune_name_en":"Tan Yen","commune_full_name":"Xã Tân Yên","commune_full_name_en":"Tan Yen Commune","commune_slug":"tan_yen","unit_type":"Xã","unit_type_en":"Commune","admin_level":2,"province_code":"24","province_name":"Bắc Ninh","province_full_name":"Tỉnh Bắc Ninh","province_slug":"bac_ninh","join_key":"07339","status":"active","dataset_effective_date":"2026-04-30","catalog_version":"2026-07-12","geometry_status":"not_embedded_boundary_available_by_url","boundary_source_url":"https://raw.githubusercontent.com/thanglequoc/vietnamese-provinces-database/master/json/geojson/24_bac_ninh/wards/07339_tan_yen.geojson","boundary_source_page":"https://github.com/thanglequoc/vietnamese-provinces-database/blob/master/json/geojson/24_bac_ninh/wards/07339_tan_yen.geojson","source_catalog":"https://github.com/thanglequoc/vietnamese-provinces-database"},"geometry":null},{"type":"Feature","id":"07351","properties":{"commune_code":"07351","commune_name":"Ngọc Thiện","commune_name_en":"Ngoc Thien","commune_full_name":"Xã Ngọc Thiện","commune_full_name_en":"Ngoc Thien Commune","commune_slug":"ngoc_thien","unit_type":"Xã","unit_type_en":"Commune","admin_level":2,"province_code":"24","province_name":"Bắc Ninh","province_full_name":"Tỉnh Bắc Ninh","province_slug":"bac_ninh","join_key":"07351","status":"active","dataset_effective_date":"2026-04-30","catalog_version":"2026-07-12","geometry_status":"not_embedded_boundary_available_by_url","boundary_source_url":"https://raw.githubusercontent.com/thanglequoc/vietnamese-provinces-database/master/json/geojson/24_bac_ninh/wards/07351_ngoc_thien.geojson","boundary_source_page":"https://github.com/thanglequoc/vietnamese-provinces-database/blob/master/json/geojson/24_bac_ninh/wards/07351_ngoc_thien.geojson","source_catalog":"https://github.com/thanglequoc/vietnamese-provinces-database"},"geometry":null},{"type":"Feature","id":"07375","properties":{"commune_code":"07375","commune_name":"Lạng Giang","commune_name_en":"Lang Giang","commune_full_name":"Xã Lạng Giang","commune_full_name_en":"Lang Giang Commune","commune_slug":"lang_giang","unit_type":"Xã","unit_type_en":"Commune","admin_level":2,"province_code":"24","province_name":"Bắc Ninh","province_full_name":"Tỉnh Bắc Ninh","province_slug":"bac_ninh","join_key":"07375","status":"active","dataset_effective_date":"2026-04-30","catalog_version":"2026-07-12","geometry_status":"not_embedded_boundary_available_by_url","boundary_source_url":"https://raw.githubusercontent.com/thanglequoc/vietnamese-provinces-database/master/json/geojson/24_bac_ninh/wards/07375_lang_giang.geojson","boundary_source_page":"https://github.com/thanglequoc/vietnamese-provinces-database/blob/master/json/geojson/24_bac_ninh/wards/07375_lang_giang.geojson","source_catalog":"https://github.com/thanglequoc/vietnamese-provinces-database"},"geometry":null},{"type":"Feature","id":"07381","properties":{"commune_code":"07381","commune_name":"Tiên Lục","commune_name_en":"Tien Luc","commune_full_name":"Xã Tiên Lục","commune_full_name_en":"Tien Luc Commune","commune_slug":"tien_luc","unit_type":"Xã","unit_type_en":"Commune","admin_level":2,"province_code":"24","province_name":"Bắc Ninh","province_full_name":"Tỉnh Bắc Ninh","province_slug":"bac_ninh","join_key":"07381","status":"active","dataset_effective_date":"2026-04-30","catalog_version":"2026-07-12","geometry_status":"not_embedded_boundary_available_by_url","boundary_source_url":"https://raw.githubusercontent.com/thanglequoc/vietnamese-provinces-database/master/json/geojson/24_bac_ninh/wards/07381_tien_luc.geojson","boundary_source_page":"https://github.com/thanglequoc/vietnamese-provinces-database/blob/master/json/geojson/24_bac_ninh/wards/07381_tien_luc.geojson","source_catalog":"https://github.com/thanglequoc/vietnamese-provinces-database"},"geometry":null},{"type":"Feature","id":"07399","properties":{"commune_code":"07399","commune_name":"Kép","commune_name_en":"Kep","commune_full_name":"Xã Kép","commune_full_name_en":"Kep Commune","commune_slug":"kep","unit_type":"Xã","unit_type_en":"Commune","admin_level":2,"province_code":"24","province_name":"Bắc Ninh","province_full_name":"Tỉnh Bắc Ninh","province_slug":"bac_ninh","join_key":"07399","status":"active","dataset_effective_date":"2026-04-30","catalog_version":"2026-07-12","geometry_status":"not_embedded_boundary_available_by_url","boundary_source_url":"https://raw.githubusercontent.com/thanglequoc/vietnamese-provinces-database/master/json/geojson/24_bac_ninh/wards/07399_kep.geojson","boundary_source_page":"https://github.com/thanglequoc/vietnamese-provinces-database/blob/master/json/geojson/24_bac_ninh/wards/07399_kep.geojson","source_catalog":"https://github.com/thanglequoc/vietnamese-provinces-database"},"geometry":null},{"type":"Feature","id":"07420","properties":{"commune_code":"07420","commune_name":"Mỹ Thái","commune_name_en":"My Thai","commune_full_name":"Xã Mỹ Thái","commune_full_name_en":"My Thai Commune","commune_slug":"my_thai","unit_type":"Xã","unit_type_en":"Commune","admin_level":2,"province_code":"24","province_name":"Bắc Ninh","province_full_name":"Tỉnh Bắc Ninh","province_slug":"bac_ninh","join_key":"07420","status":"active","dataset_effective_date":"2026-04-30","catalog_version":"2026-07-12","geometry_status":"not_embedded_boundary_available_by_url","boundary_source_url":"https://raw.githubusercontent.com/thanglequoc/vietnamese-provinces-database/master/json/geojson/24_bac_ninh/wards/07420_my_thai.geojson","boundary_source_page":"https://github.com/thanglequoc/vietnamese-provinces-database/blob/master/json/geojson/24_bac_ninh/wards/07420_my_thai.geojson","source_catalog":"https://github.com/thanglequoc/vietnamese-provinces-database"},"geometry":null},{"type":"Feature","id":"07432","properties":{"commune_code":"07432","commune_name":"Tân Dĩnh","commune_name_en":"Tan Dinh","commune_full_name":"Xã Tân Dĩnh","commune_full_name_en":"Tan Dinh Commune","commune_slug":"tan_dinh","unit_type":"Xã","unit_type_en":"Commune","admin_level":2,"province_code":"24","province_name":"Bắc Ninh","province_full_name":"Tỉnh Bắc Ninh","province_slug":"bac_ninh","join_key":"07432","status":"active","dataset_effective_date":"2026-04-30","catalog_version":"2026-07-12","geometry_status":"not_embedded_boundary_available_by_url","boundary_source_url":"https://raw.githubusercontent.com/thanglequoc/vietnamese-provinces-database/master/json/geojson/24_bac_ninh/wards/07432_tan_dinh.geojson","boundary_source_page":"https://github.com/thanglequoc/vietnamese-provinces-database/blob/master/json/geojson/24_bac_ninh/wards/07432_tan_dinh.geojson","source_catalog":"https://github.com/thanglequoc/vietnamese-provinces-database"},"geometry":null},{"type":"Feature","id":"07444","properties":{"commune_code":"07444","commune_name":"Lục Nam","commune_name_en":"Luc Nam","commune_full_name":"Xã Lục Nam","commune_full_name_en":"Luc Nam Commune","commune_slug":"luc_nam","unit_type":"Xã","unit_type_en":"Commune","admin_level":2,"province_code":"24","province_name":"Bắc Ninh","province_full_name":"Tỉnh Bắc Ninh","province_slug":"bac_ninh","join_key":"07444","status":"active","dataset_effective_date":"2026-04-30","catalog_version":"2026-07-12","geometry_status":"not_embedded_boundary_available_by_url","boundary_source_url":"https://raw.githubusercontent.com/thanglequoc/vietnamese-provinces-database/master/json/geojson/24_bac_ninh/wards/07444_luc_nam.geojson","boundary_source_page":"https://github.com/thanglequoc/vietnamese-provinces-database/blob/master/json/geojson/24_bac_ninh/wards/07444_luc_nam.geojson","source_catalog":"https://github.com/thanglequoc/vietnamese-provinces-database"},"geometry":null},{"type":"Feature","id":"07450","properties":{"commune_code":"07450","commune_name":"Đông Phú","commune_name_en":"Dong Phu","commune_full_name":"Xã Đông Phú","commune_full_name_en":"Dong Phu Commune","commune_slug":"dong_phu","unit_type":"Xã","unit_type_en":"Commune","admin_level":2,"province_code":"24","province_name":"Bắc Ninh","province_full_name":"Tỉnh Bắc Ninh","province_slug":"bac_ninh","join_key":"07450","status":"active","dataset_effective_date":"2026-04-30","catalog_version":"2026-07-12","geometry_status":"not_embedded_boundary_available_by_url","boundary_source_url":"https://raw.githubusercontent.com/thanglequoc/vietnamese-provinces-database/master/json/geojson/24_bac_ninh/wards/07450_dong_phu.geojson","boundary_source_page":"https://github.com/thanglequoc/vietnamese-provinces-database/blob/master/json/geojson/24_bac_ninh/wards/07450_dong_phu.geojson","source_catalog":"https://github.com/thanglequoc/vietnamese-provinces-database"},"geometry":null},{"type":"Feature","id":"07462","properties":{"commune_code":"07462","commune_name":"Bảo Đài","commune_name_en":"Bao Dai","commune_full_name":"Xã Bảo Đài","commune_full_name_en":"Bao Dai Commune","commune_slug":"bao_dai","unit_type":"Xã","unit_type_en":"Commune","admin_level":2,"province_code":"24","province_name":"Bắc Ninh","province_full_name":"Tỉnh Bắc Ninh","province_slug":"bac_ninh","join_key":"07462","status":"active","dataset_effective_date":"2026-04-30","catalog_version":"2026-07-12","geometry_status":"not_embedded_boundary_available_by_url","boundary_source_url":"https://raw.githubusercontent.com/thanglequoc/vietnamese-provinces-database/master/json/geojson/24_bac_ninh/wards/07462_bao_dai.geojson","boundary_source_page":"https://github.com/thanglequoc/vietnamese-provinces-database/blob/master/json/geojson/24_bac_ninh/wards/07462_bao_dai.geojson","source_catalog":"https://github.com/thanglequoc/vietnamese-provinces-database"},"geometry":null},{"type":"Feature","id":"07486","properties":{"commune_code":"07486","commune_name":"Nghĩa Phương","commune_name_en":"Nghia Phuong","commune_full_name":"Xã Nghĩa Phương","commune_full_name_en":"Nghia Phuong Commune","commune_slug":"nghia_phuong","unit_type":"Xã","unit_type_en":"Commune","admin_level":2,"province_code":"24","province_name":"Bắc Ninh","province_full_name":"Tỉnh Bắc Ninh","province_slug":"bac_ninh","join_key":"07486","status":"active","dataset_effective_date":"2026-04-30","catalog_version":"2026-07-12","geometry_status":"not_embedded_boundary_available_by_url","boundary_source_url":"https://raw.githubusercontent.com/thanglequoc/vietnamese-provinces-database/master/json/geojson/24_bac_ninh/wards/07486_nghia_phuong.geojson","boundary_source_page":"https://github.com/thanglequoc/vietnamese-provinces-database/blob/master/json/geojson/24_bac_ninh/wards/07486_nghia_phuong.geojson","source_catalog":"https://github.com/thanglequoc/vietnamese-provinces-database"},"geometry":null},{"type":"Feature","id":"07489","properties":{"commune_code":"07489","commune_name":"Trường Sơn","commune_name_en":"Truong Son","commune_full_name":"Xã Trường Sơn","commune_full_name_en":"Truong Son Commune","commune_slug":"truong_son","unit_type":"Xã","unit_type_en":"Commune","admin_level":2,"province_code":"24","province_name":"Bắc Ninh","province_full_name":"Tỉnh Bắc Ninh","province_slug":"bac_ninh","join_key":"07489","status":"active","dataset_effective_date":"2026-04-30","catalog_version":"2026-07-12","geometry_status":"not_embedded_boundary_available_by_url","boundary_source_url":"https://raw.githubusercontent.com/thanglequoc/vietnamese-provinces-database/master/json/geojson/24_bac_ninh/wards/07489_truong_son.geojson","boundary_source_page":"https://github.com/thanglequoc/vietnamese-provinces-database/blob/master/json/geojson/24_bac_ninh/wards/07489_truong_son.geojson","source_catalog":"https://github.com/thanglequoc/vietnamese-provinces-database"},"geometry":null},{"type":"Feature","id":"07492","properties":{"commune_code":"07492","commune_name":"Lục Sơn","commune_name_en":"Luc Son","commune_full_name":"Xã Lục Sơn","commune_full_name_en":"Luc Son Commune","commune_slug":"luc_son","unit_type":"Xã","unit_type_en":"Commune","admin_level":2,"province_code":"24","province_name":"Bắc Ninh","province_full_name":"Tỉnh Bắc Ninh","province_slug":"bac_ninh","join_key":"07492","status":"active","dataset_effective_date":"2026-04-30","catalog_version":"2026-07-12","geometry_status":"not_embedded_boundary_available_by_url","boundary_source_url":"https://raw.githubusercontent.com/thanglequoc/vietnamese-provinces-database/master/json/geojson/24_bac_ninh/wards/07492_luc_son.geojson","boundary_source_page":"https://github.com/thanglequoc/vietnamese-provinces-database/blob/master/json/geojson/24_bac_ninh/wards/07492_luc_son.geojson","source_catalog":"https://github.com/thanglequoc/vietnamese-provinces-database"},"geometry":null},{"type":"Feature","id":"07498","properties":{"commune_code":"07498","commune_name":"Bắc Lũng","commune_name_en":"Bac Lung","commune_full_name":"Xã Bắc Lũng","commune_full_name_en":"Bac Lung Commune","commune_slug":"bac_lung","unit_type":"Xã","unit_type_en":"Commune","admin_level":2,"province_code":"24","province_name":"Bắc Ninh","province_full_name":"Tỉnh Bắc Ninh","province_slug":"bac_ninh","join_key":"07498","status":"active","dataset_effective_date":"2026-04-30","catalog_version":"2026-07-12","geometry_status":"not_embedded_boundary_available_by_url","boundary_source_url":"https://raw.githubusercontent.com/thanglequoc/vietnamese-provinces-database/master/json/geojson/24_bac_ninh/wards/07498_bac_lung.geojson","boundary_source_page":"https://github.com/thanglequoc/vietnamese-provinces-database/blob/master/json/geojson/24_bac_ninh/wards/07498_bac_lung.geojson","source_catalog":"https://github.com/thanglequoc/vietnamese-provinces-database"},"geometry":null},{"type":"Feature","id":"07519","properties":{"commune_code":"07519","commune_name":"Cẩm Lý","commune_name_en":"Cam Ly","commune_full_name":"Xã Cẩm Lý","commune_full_name_en":"Cam Ly Commune","commune_slug":"cam_ly","unit_type":"Xã","unit_type_en":"Commune","admin_level":2,"province_code":"24","province_name":"Bắc Ninh","province_full_name":"Tỉnh Bắc Ninh","province_slug":"bac_ninh","join_key":"07519","status":"active","dataset_effective_date":"2026-04-30","catalog_version":"2026-07-12","geometry_status":"not_embedded_boundary_available_by_url","boundary_source_url":"https://raw.githubusercontent.com/thanglequoc/vietnamese-provinces-database/master/json/geojson/24_bac_ninh/wards/07519_cam_ly.geojson","boundary_source_page":"https://github.com/thanglequoc/vietnamese-provinces-database/blob/master/json/geojson/24_bac_ninh/wards/07519_cam_ly.geojson","source_catalog":"https://github.com/thanglequoc/vietnamese-provinces-database"},"geometry":null},{"type":"Feature","id":"07525","properties":{"commune_code":"07525","commune_name":"Chũ","commune_name_en":"Chu","commune_full_name":"Phường Chũ","commune_full_name_en":"Chu Ward","commune_slug":"chu","unit_type":"Phường","unit_type_en":"Ward","admin_level":2,"province_code":"24","province_name":"Bắc Ninh","province_full_name":"Tỉnh Bắc Ninh","province_slug":"bac_ninh","join_key":"07525","status":"active","dataset_effective_date":"2026-04-30","catalog_version":"2026-07-12","geometry_status":"not_embedded_boundary_available_by_url","boundary_source_url":"https://raw.githubusercontent.com/thanglequoc/vietnamese-provinces-database/master/json/geojson/24_bac_ninh/wards/07525_chu.geojson","boundary_source_page":"https://github.com/thanglequoc/vietnamese-provinces-database/blob/master/json/geojson/24_bac_ninh/wards/07525_chu.geojson","source_catalog":"https://github.com/thanglequoc/vietnamese-provinces-database"},"geometry":null},{"type":"Feature","id":"07531","properties":{"commune_code":"07531","commune_name":"Tân Sơn","commune_name_en":"Tan Son","commune_full_name":"Xã Tân Sơn","commune_full_name_en":"Tan Son Commune","commune_slug":"tan_son","unit_type":"Xã","unit_type_en":"Commune","admin_level":2,"province_code":"24","province_name":"Bắc Ninh","province_full_name":"Tỉnh Bắc Ninh","province_slug":"bac_ninh","join_key":"07531","status":"active","dataset_effective_date":"2026-04-30","catalog_version":"2026-07-12","geometry_status":"not_embedded_boundary_available_by_url","boundary_source_url":"https://raw.githubusercontent.com/thanglequoc/vietnamese-provinces-database/master/json/geojson/24_bac_ninh/wards/07531_tan_son.geojson","boundary_source_page":"https://github.com/thanglequoc/vietnamese-provinces-database/blob/master/json/geojson/24_bac_ninh/wards/07531_tan_son.geojson","source_catalog":"https://github.com/thanglequoc/vietnamese-provinces-database"},"geometry":null},{"type":"Feature","id":"07534","properties":{"commune_code":"07534","commune_name":"Sa Lý","commune_name_en":"Sa Ly","commune_full_name":"Xã Sa Lý","commune_full_name_en":"Sa Ly Commune","commune_slug":"sa_ly","unit_type":"Xã","unit_type_en":"Commune","admin_level":2,"province_code":"24","province_name":"Bắc Ninh","province_full_name":"Tỉnh Bắc Ninh","province_slug":"bac_ninh","join_key":"07534","status":"active","dataset_effective_date":"2026-04-30","catalog_version":"2026-07-12","geometry_status":"not_embedded_boundary_available_by_url","boundary_source_url":"https://raw.githubusercontent.com/thanglequoc/vietnamese-provinces-database/master/json/geojson/24_bac_ninh/wards/07534_sa_ly.geojson","boundary_source_page":"https://github.com/thanglequoc/vietnamese-provinces-database/blob/master/json/geojson/24_bac_ninh/wards/07534_sa_ly.geojson","source_catalog":"https://github.com/thanglequoc/vietnamese-provinces-database"},"geometry":null},{"type":"Feature","id":"07537","properties":{"commune_code":"07537","commune_name":"Biên Sơn","commune_name_en":"Bien Son","commune_full_name":"Xã Biên Sơn","commune_full_name_en":"Bien Son Commune","commune_slug":"bien_son","unit_type":"Xã","unit_type_en":"Commune","admin_level":2,"province_code":"24","province_name":"Bắc Ninh","province_full_name":"Tỉnh Bắc Ninh","province_slug":"bac_ninh","join_key":"07537","status":"active","dataset_effective_date":"2026-04-30","catalog_version":"2026-07-12","geometry_status":"not_embedded_boundary_available_by_url","boundary_source_url":"https://raw.githubusercontent.com/thanglequoc/vietnamese-provinces-database/master/json/geojson/24_bac_ninh/wards/07537_bien_son.geojson","boundary_source_page":"https://github.com/thanglequoc/vietnamese-provinces-database/blob/master/json/geojson/24_bac_ninh/wards/07537_bien_son.geojson","source_catalog":"https://github.com/thanglequoc/vietnamese-provinces-database"},"geometry":null},{"type":"Feature","id":"07543","properties":{"commune_code":"07543","commune_name":"Sơn Hải","commune_name_en":"Son Hai","commune_full_name":"Xã Sơn Hải","commune_full_name_en":"Son Hai Commune","commune_slug":"son_hai","unit_type":"Xã","unit_type_en":"Commune","admin_level":2,"province_code":"24","province_name":"Bắc Ninh","province_full_name":"Tỉnh Bắc Ninh","province_slug":"bac_ninh","join_key":"07543","status":"active","dataset_effective_date":"2026-04-30","catalog_version":"2026-07-12","geometry_status":"not_embedded_boundary_available_by_url","boundary_source_url":"https://raw.githubusercontent.com/thanglequoc/vietnamese-provinces-database/master/json/geojson/24_bac_ninh/wards/07543_son_hai.geojson","boundary_source_page":"https://github.com/thanglequoc/vietnamese-provinces-database/blob/master/json/geojson/24_bac_ninh/wards/07543_son_hai.geojson","source_catalog":"https://github.com/thanglequoc/vietnamese-provinces-database"},"geometry":null},{"type":"Feature","id":"07552","properties":{"commune_code":"07552","commune_name":"Kiên Lao","commune_name_en":"Kien Lao","commune_full_name":"Xã Kiên Lao","commune_full_name_en":"Kien Lao Commune","commune_slug":"kien_lao","unit_type":"Xã","unit_type_en":"Commune","admin_level":2,"province_code":"24","province_name":"Bắc Ninh","province_full_name":"Tỉnh Bắc Ninh","province_slug":"bac_ninh","join_key":"07552","status":"active","dataset_effective_date":"2026-04-30","catalog_version":"2026-07-12","geometry_status":"not_embedded_boundary_available_by_url","boundary_source_url":"https://raw.githubusercontent.com/thanglequoc/vietnamese-provinces-database/master/json/geojson/24_bac_ninh/wards/07552_kien_lao.geojson","boundary_source_page":"https://github.com/thanglequoc/vietnamese-provinces-database/blob/master/json/geojson/24_bac_ninh/wards/07552_kien_lao.geojson","source_catalog":"https://github.com/thanglequoc/vietnamese-provinces-database"},"geometry":null},{"type":"Feature","id":"07573","properties":{"commune_code":"07573","commune_name":"Biển Động","commune_name_en":"Bien Dong","commune_full_name":"Xã Biển Động","commune_full_name_en":"Bien Dong Commune","commune_slug":"bien_dong","unit_type":"Xã","unit_type_en":"Commune","admin_level":2,"province_code":"24","province_name":"Bắc Ninh","province_full_name":"Tỉnh Bắc Ninh","province_slug":"bac_ninh","join_key":"07573","status":"active","dataset_effective_date":"2026-04-30","catalog_version":"2026-07-12","geometry_status":"not_embedded_boundary_available_by_url","boundary_source_url":"https://raw.githubusercontent.com/thanglequoc/vietnamese-provinces-database/master/json/geojson/24_bac_ninh/wards/07573_bien_dong.geojson","boundary_source_page":"https://github.com/thanglequoc/vietnamese-provinces-database/blob/master/json/geojson/24_bac_ninh/wards/07573_bien_dong.geojson","source_catalog":"https://github.com/thanglequoc/vietnamese-provinces-database"},"geometry":null},{"type":"Feature","id":"07582","properties":{"commune_code":"07582","commune_name":"Lục Ngạn","commune_name_en":"Luc Ngan","commune_full_name":"Xã Lục Ngạn","commune_full_name_en":"Luc Ngan Commune","commune_slug":"luc_ngan","unit_type":"Xã","unit_type_en":"Commune","admin_level":2,"province_code":"24","province_name":"Bắc Ninh","province_full_name":"Tỉnh Bắc Ninh","province_slug":"bac_ninh","join_key":"07582","status":"active","dataset_effective_date":"2026-04-30","catalog_version":"2026-07-12","geometry_status":"not_embedded_boundary_available_by_url","boundary_source_url":"https://raw.githubusercontent.com/thanglequoc/vietnamese-provinces-database/master/json/geojson/24_bac_ninh/wards/07582_luc_ngan.geojson","boundary_source_page":"https://github.com/thanglequoc/vietnamese-provinces-database/blob/master/json/geojson/24_bac_ninh/wards/07582_luc_ngan.geojson","source_catalog":"https://github.com/thanglequoc/vietnamese-provinces-database"},"geometry":null},{"type":"Feature","id":"07594","properties":{"commune_code":"07594","commune_name":"Đèo Gia","commune_name_en":"Deo Gia","commune_full_name":"Xã Đèo Gia","commune_full_name_en":"Deo Gia Commune","commune_slug":"deo_gia","unit_type":"Xã","unit_type_en":"Commune","admin_level":2,"province_code":"24","province_name":"Bắc Ninh","province_full_name":"Tỉnh Bắc Ninh","province_slug":"bac_ninh","join_key":"07594","status":"active","dataset_effective_date":"2026-04-30","catalog_version":"2026-07-12","geometry_status":"not_embedded_boundary_available_by_url","boundary_source_url":"https://raw.githubusercontent.com/thanglequoc/vietnamese-provinces-database/master/json/geojson/24_bac_ninh/wards/07594_deo_gia.geojson","boundary_source_page":"https://github.com/thanglequoc/vietnamese-provinces-database/blob/master/json/geojson/24_bac_ninh/wards/07594_deo_gia.geojson","source_catalog":"https://github.com/thanglequoc/vietnamese-provinces-database"},"geometry":null},{"type":"Feature","id":"07603","properties":{"commune_code":"07603","commune_name":"Nam Dương","commune_name_en":"Nam Duong","commune_full_name":"Xã Nam Dương","commune_full_name_en":"Nam Duong Commune","commune_slug":"nam_duong","unit_type":"Xã","unit_type_en":"Commune","admin_level":2,"province_code":"24","province_name":"Bắc Ninh","province_full_name":"Tỉnh Bắc Ninh","province_slug":"bac_ninh","join_key":"07603","status":"active","dataset_effective_date":"2026-04-30","catalog_version":"2026-07-12","geometry_status":"not_embedded_boundary_available_by_url","boundary_source_url":"https://raw.githubusercontent.com/thanglequoc/vietnamese-provinces-database/master/json/geojson/24_bac_ninh/wards/07603_nam_duong.geojson","boundary_source_page":"https://github.com/thanglequoc/vietnamese-provinces-database/blob/master/json/geojson/24_bac_ninh/wards/07603_nam_duong.geojson","source_catalog":"https://github.com/thanglequoc/vietnamese-provinces-database"},"geometry":null},{"type":"Feature","id":"07612","properties":{"commune_code":"07612","commune_name":"Phượng Sơn","commune_name_en":"Phuong Son","commune_full_name":"Phường Phượng Sơn","commune_full_name_en":"Phuong Son Ward","commune_slug":"phuong_son","unit_type":"Phường","unit_type_en":"Ward","admin_level":2,"province_code":"24","province_name":"Bắc Ninh","province_full_name":"Tỉnh Bắc Ninh","province_slug":"bac_ninh","join_key":"07612","status":"active","dataset_effective_date":"2026-04-30","catalog_version":"2026-07-12","geometry_status":"not_embedded_boundary_available_by_url","boundary_source_url":"https://raw.githubusercontent.com/thanglequoc/vietnamese-provinces-database/master/json/geojson/24_bac_ninh/wards/07612_phuong_son.geojson","boundary_source_page":"https://github.com/thanglequoc/vietnamese-provinces-database/blob/master/json/geojson/24_bac_ninh/wards/07612_phuong_son.geojson","source_catalog":"https://github.com/thanglequoc/vietnamese-provinces-database"},"geometry":null},{"type":"Feature","id":"07615","properties":{"commune_code":"07615","commune_name":"Sơn Động","commune_name_en":"Son Dong","commune_full_name":"Xã Sơn Động","commune_full_name_en":"Son Dong Commune","commune_slug":"son_dong","unit_type":"Xã","unit_type_en":"Commune","admin_level":2,"province_code":"24","province_name":"Bắc Ninh","province_full_name":"Tỉnh Bắc Ninh","province_slug":"bac_ninh","join_key":"07615","status":"active","dataset_effective_date":"2026-04-30","catalog_version":"2026-07-12","geometry_status":"not_embedded_boundary_available_by_url","boundary_source_url":"https://raw.githubusercontent.com/thanglequoc/vietnamese-provinces-database/master/json/geojson/24_bac_ninh/wards/07615_son_dong.geojson","boundary_source_page":"https://github.com/thanglequoc/vietnamese-provinces-database/blob/master/json/geojson/24_bac_ninh/wards/07615_son_dong.geojson","source_catalog":"https://github.com/thanglequoc/vietnamese-provinces-database"},"geometry":null},{"type":"Feature","id":"07616","properties":{"commune_code":"07616","commune_name":"Tây Yên Tử","commune_name_en":"Tay Yen Tu","commune_full_name":"Xã Tây Yên Tử","commune_full_name_en":"Tay Yen Tu Commune","commune_slug":"tay_yen_tu","unit_type":"Xã","unit_type_en":"Commune","admin_level":2,"province_code":"24","province_name":"Bắc Ninh","province_full_name":"Tỉnh Bắc Ninh","province_slug":"bac_ninh","join_key":"07616","status":"active","dataset_effective_date":"2026-04-30","catalog_version":"2026-07-12","geometry_status":"not_embedded_boundary_available_by_url","boundary_source_url":"https://raw.githubusercontent.com/thanglequoc/vietnamese-provinces-database/master/json/geojson/24_bac_ninh/wards/07616_tay_yen_tu.geojson","boundary_source_page":"https://github.com/thanglequoc/vietnamese-provinces-database/blob/master/json/geojson/24_bac_ninh/wards/07616_tay_yen_tu.geojson","source_catalog":"https://github.com/thanglequoc/vietnamese-provinces-database"},"geometry":null},{"type":"Feature","id":"07621","properties":{"commune_code":"07621","commune_name":"Vân Sơn","commune_name_en":"Van Son","commune_full_name":"Xã Vân Sơn","commune_full_name_en":"Van Son Commune","commune_slug":"van_son","unit_type":"Xã","unit_type_en":"Commune","admin_level":2,"province_code":"24","province_name":"Bắc Ninh","province_full_name":"Tỉnh Bắc Ninh","province_slug":"bac_ninh","join_key":"07621","status":"active","dataset_effective_date":"2026-04-30","catalog_version":"2026-07-12","geometry_status":"not_embedded_boundary_available_by_url","boundary_source_url":"https://raw.githubusercontent.com/thanglequoc/vietnamese-provinces-database/master/json/geojson/24_bac_ninh/wards/07621_van_son.geojson","boundary_source_page":"https://github.com/thanglequoc/vietnamese-provinces-database/blob/master/json/geojson/24_bac_ninh/wards/07621_van_son.geojson","source_catalog":"https://github.com/thanglequoc/vietnamese-provinces-database"},"geometry":null},{"type":"Feature","id":"07627","properties":{"commune_code":"07627","commune_name":"Đại Sơn","commune_name_en":"Dai Son","commune_full_name":"Xã Đại Sơn","commune_full_name_en":"Dai Son Commune","commune_slug":"dai_son","unit_type":"Xã","unit_type_en":"Commune","admin_level":2,"province_code":"24","province_name":"Bắc Ninh","province_full_name":"Tỉnh Bắc Ninh","province_slug":"bac_ninh","join_key":"07627","status":"active","dataset_effective_date":"2026-04-30","catalog_version":"2026-07-12","geometry_status":"not_embedded_boundary_available_by_url","boundary_source_url":"https://raw.githubusercontent.com/thanglequoc/vietnamese-provinces-database/master/json/geojson/24_bac_ninh/wards/07627_dai_son.geojson","boundary_source_page":"https://github.com/thanglequoc/vietnamese-provinces-database/blob/master/json/geojson/24_bac_ninh/wards/07627_dai_son.geojson","source_catalog":"https://github.com/thanglequoc/vietnamese-provinces-database"},"geometry":null},{"type":"Feature","id":"07642","properties":{"commune_code":"07642","commune_name":"Yên Định","commune_name_en":"Yen Dinh","commune_full_name":"Xã Yên Định","commune_full_name_en":"Yen Dinh Commune","commune_slug":"yen_dinh","unit_type":"Xã","unit_type_en":"Commune","admin_level":2,"province_code":"24","province_name":"Bắc Ninh","province_full_name":"Tỉnh Bắc Ninh","province_slug":"bac_ninh","join_key":"07642","status":"active","dataset_effective_date":"2026-04-30","catalog_version":"2026-07-12","geometry_status":"not_embedded_boundary_available_by_url","boundary_source_url":"https://raw.githubusercontent.com/thanglequoc/vietnamese-provinces-database/master/json/geojson/24_bac_ninh/wards/07642_yen_dinh.geojson","boundary_source_page":"https://github.com/thanglequoc/vietnamese-provinces-database/blob/master/json/geojson/24_bac_ninh/wards/07642_yen_dinh.geojson","source_catalog":"https://github.com/thanglequoc/vietnamese-provinces-database"},"geometry":null},{"type":"Feature","id":"07654","properties":{"commune_code":"07654","commune_name":"An Lạc","commune_name_en":"An Lac","commune_full_name":"Xã An Lạc","commune_full_name_en":"An Lac Commune","commune_slug":"an_lac","unit_type":"Xã","unit_type_en":"Commune","admin_level":2,"province_code":"24","province_name":"Bắc Ninh","province_full_name":"Tỉnh Bắc Ninh","province_slug":"bac_ninh","join_key":"07654","status":"active","dataset_effective_date":"2026-04-30","catalog_version":"2026-07-12","geometry_status":"not_embedded_boundary_available_by_url","boundary_source_url":"https://raw.githubusercontent.com/thanglequoc/vietnamese-provinces-database/master/json/geojson/24_bac_ninh/wards/07654_an_lac.geojson","boundary_source_page":"https://github.com/thanglequoc/vietnamese-provinces-database/blob/master/json/geojson/24_bac_ninh/wards/07654_an_lac.geojson","source_catalog":"https://github.com/thanglequoc/vietnamese-provinces-database"},"geometry":null},{"type":"Feature","id":"07663","properties":{"commune_code":"07663","commune_name":"Tuấn Đạo","commune_name_en":"Tuan Dao","commune_full_name":"Xã Tuấn Đạo","commune_full_name_en":"Tuan Dao Commune","commune_slug":"tuan_dao","unit_type":"Xã","unit_type_en":"Commune","admin_level":2,"province_code":"24","province_name":"Bắc Ninh","province_full_name":"Tỉnh Bắc Ninh","province_slug":"bac_ninh","join_key":"07663","status":"active","dataset_effective_date":"2026-04-30","catalog_version":"2026-07-12","geometry_status":"not_embedded_boundary_available_by_url","boundary_source_url":"https://raw.githubusercontent.com/thanglequoc/vietnamese-provinces-database/master/json/geojson/24_bac_ninh/wards/07663_tuan_dao.geojson","boundary_source_page":"https://github.com/thanglequoc/vietnamese-provinces-database/blob/master/json/geojson/24_bac_ninh/wards/07663_tuan_dao.geojson","source_catalog":"https://github.com/thanglequoc/vietnamese-provinces-database"},"geometry":null},{"type":"Feature","id":"07672","properties":{"commune_code":"07672","commune_name":"Dương Hưu","commune_name_en":"Duong Huu","commune_full_name":"Xã Dương Hưu","commune_full_name_en":"Duong Huu Commune","commune_slug":"duong_huu","unit_type":"Xã","unit_type_en":"Commune","admin_level":2,"province_code":"24","province_name":"Bắc Ninh","province_full_name":"Tỉnh Bắc Ninh","province_slug":"bac_ninh","join_key":"07672","status":"active","dataset_effective_date":"2026-04-30","catalog_version":"2026-07-12","geometry_status":"not_embedded_boundary_available_by_url","boundary_source_url":"https://raw.githubusercontent.com/thanglequoc/vietnamese-provinces-database/master/json/geojson/24_bac_ninh/wards/07672_duong_huu.geojson","boundary_source_page":"https://github.com/thanglequoc/vietnamese-provinces-database/blob/master/json/geojson/24_bac_ninh/wards/07672_duong_huu.geojson","source_catalog":"https://github.com/thanglequoc/vietnamese-provinces-database"},"geometry":null},{"type":"Feature","id":"07681","properties":{"commune_code":"07681","commune_name":"Yên Dũng","commune_name_en":"Yen Dung","commune_full_name":"Phường Yên Dũng","commune_full_name_en":"Yen Dung Ward","commune_slug":"yen_dung","unit_type":"Phường","unit_type_en":"Ward","admin_level":2,"province_code":"24","province_name":"Bắc Ninh","province_full_name":"Tỉnh Bắc Ninh","province_slug":"bac_ninh","join_key":"07681","status":"active","dataset_effective_date":"2026-04-30","catalog_version":"2026-07-12","geometry_status":"not_embedded_boundary_available_by_url","boundary_source_url":"https://raw.githubusercontent.com/thanglequoc/vietnamese-provinces-database/master/json/geojson/24_bac_ninh/wards/07681_yen_dung.geojson","boundary_source_page":"https://github.com/thanglequoc/vietnamese-provinces-database/blob/master/json/geojson/24_bac_ninh/wards/07681_yen_dung.geojson","source_catalog":"https://github.com/thanglequoc/vietnamese-provinces-database"},"geometry":null},{"type":"Feature","id":"07682","properties":{"commune_code":"07682","commune_name":"Tân An","commune_name_en":"Tan An","commune_full_name":"Phường Tân An","commune_full_name_en":"Tan An Ward","commune_slug":"tan_an","unit_type":"Phường","unit_type_en":"Ward","admin_level":2,"province_code":"24","province_name":"Bắc Ninh","province_full_name":"Tỉnh Bắc Ninh","province_slug":"bac_ninh","join_key":"07682","status":"active","dataset_effective_date":"2026-04-30","catalog_version":"2026-07-12","geometry_status":"not_embedded_boundary_available_by_url","boundary_source_url":"https://raw.githubusercontent.com/thanglequoc/vietnamese-provinces-database/master/json/geojson/24_bac_ninh/wards/07682_tan_an.geojson","boundary_source_page":"https://github.com/thanglequoc/vietnamese-provinces-database/blob/master/json/geojson/24_bac_ninh/wards/07682_tan_an.geojson","source_catalog":"https://github.com/thanglequoc/vietnamese-provinces-database"},"geometry":null},{"type":"Feature","id":"07696","properties":{"commune_code":"07696","commune_name":"Tiền Phong","commune_name_en":"Tien Phong","commune_full_name":"Phường Tiền Phong","commune_full_name_en":"Tien Phong Ward","commune_slug":"tien_phong","unit_type":"Phường","unit_type_en":"Ward","admin_level":2,"province_code":"24","province_name":"Bắc Ninh","province_full_name":"Tỉnh Bắc Ninh","province_slug":"bac_ninh","join_key":"07696","status":"active","dataset_effective_date":"2026-04-30","catalog_version":"2026-07-12","geometry_status":"not_embedded_boundary_available_by_url","boundary_source_url":"https://raw.githubusercontent.com/thanglequoc/vietnamese-provinces-database/master/json/geojson/24_bac_ninh/wards/07696_tien_phong.geojson","boundary_source_page":"https://github.com/thanglequoc/vietnamese-provinces-database/blob/master/json/geojson/24_bac_ninh/wards/07696_tien_phong.geojson","source_catalog":"https://github.com/thanglequoc/vietnamese-provinces-database"},"geometry":null},{"type":"Feature","id":"07699","properties":{"commune_code":"07699","commune_name":"Tân Tiến","commune_name_en":"Tan Tien","commune_full_name":"Phường Tân Tiến","commune_full_name_en":"Tan Tien Ward","commune_slug":"tan_tien","unit_type":"Phường","unit_type_en":"Ward","admin_level":2,"province_code":"24","province_name":"Bắc Ninh","province_full_name":"Tỉnh Bắc Ninh","province_slug":"bac_ninh","join_key":"07699","status":"active","dataset_effective_date":"2026-04-30","catalog_version":"2026-07-12","geometry_status":"not_embedded_boundary_available_by_url","boundary_source_url":"https://raw.githubusercontent.com/thanglequoc/vietnamese-provinces-database/master/json/geojson/24_bac_ninh/wards/07699_tan_tien.geojson","boundary_source_page":"https://github.com/thanglequoc/vietnamese-provinces-database/blob/master/json/geojson/24_bac_ninh/wards/07699_tan_tien.geojson","source_catalog":"https://github.com/thanglequoc/vietnamese-provinces-database"},"geometry":null},{"type":"Feature","id":"07735","properties":{"commune_code":"07735","commune_name":"Đồng Việt","commune_name_en":"Dong Viet","commune_full_name":"Xã Đồng Việt","commune_full_name_en":"Dong Viet Commune","commune_slug":"dong_viet","unit_type":"Xã","unit_type_en":"Commune","admin_level":2,"province_code":"24","province_name":"Bắc Ninh","province_full_name":"Tỉnh Bắc Ninh","province_slug":"bac_ninh","join_key":"07735","status":"active","dataset_effective_date":"2026-04-30","catalog_version":"2026-07-12","geometry_status":"not_embedded_boundary_available_by_url","boundary_source_url":"https://raw.githubusercontent.com/thanglequoc/vietnamese-provinces-database/master/json/geojson/24_bac_ninh/wards/07735_dong_viet.geojson","boundary_source_page":"https://github.com/thanglequoc/vietnamese-provinces-database/blob/master/json/geojson/24_bac_ninh/wards/07735_dong_viet.geojson","source_catalog":"https://github.com/thanglequoc/vietnamese-provinces-database"},"geometry":null},{"type":"Feature","id":"07738","properties":{"commune_code":"07738","commune_name":"Cảnh Thuỵ","commune_name_en":"Canh Thuy","commune_full_name":"Phường Cảnh Thuỵ","commune_full_name_en":"Canh Thuy Ward","commune_slug":"canh_thuy","unit_type":"Phường","unit_type_en":"Ward","admin_level":2,"province_code":"24","province_name":"Bắc Ninh","province_full_name":"Tỉnh Bắc Ninh","province_slug":"bac_ninh","join_key":"07738","status":"active","dataset_effective_date":"2026-04-30","catalog_version":"2026-07-12","geometry_status":"not_embedded_boundary_available_by_url","boundary_source_url":"https://raw.githubusercontent.com/thanglequoc/vietnamese-provinces-database/master/json/geojson/24_bac_ninh/wards/07738_canh_thuy.geojson","boundary_source_page":"https://github.com/thanglequoc/vietnamese-provinces-database/blob/master/json/geojson/24_bac_ninh/wards/07738_canh_thuy.geojson","source_catalog":"https://github.com/thanglequoc/vietnamese-provinces-database"},"geometry":null},{"type":"Feature","id":"07774","properties":{"commune_code":"07774","commune_name":"Tự Lạn","commune_name_en":"Tu Lan","commune_full_name":"Phường Tự Lạn","commune_full_name_en":"Tu Lan Ward","commune_slug":"tu_lan","unit_type":"Phường","unit_type_en":"Ward","admin_level":2,"province_code":"24","province_name":"Bắc Ninh","province_full_name":"Tỉnh Bắc Ninh","province_slug":"bac_ninh","join_key":"07774","status":"active","dataset_effective_date":"2026-04-30","catalog_version":"2026-07-12","geometry_status":"not_embedded_boundary_available_by_url","boundary_source_url":"https://raw.githubusercontent.com/thanglequoc/vietnamese-provinces-database/master/json/geojson/24_bac_ninh/wards/07774_tu_lan.geojson","boundary_source_page":"https://github.com/thanglequoc/vietnamese-provinces-database/blob/master/json/geojson/24_bac_ninh/wards/07774_tu_lan.geojson","source_catalog":"https://github.com/thanglequoc/vietnamese-provinces-database"},"geometry":null},{"type":"Feature","id":"07777","properties":{"commune_code":"07777","commune_name":"Việt Yên","commune_name_en":"Viet Yen","commune_full_name":"Phường Việt Yên","commune_full_name_en":"Viet Yen Ward","commune_slug":"viet_yen","unit_type":"Phường","unit_type_en":"Ward","admin_level":2,"province_code":"24","province_name":"Bắc Ninh","province_full_name":"Tỉnh Bắc Ninh","province_slug":"bac_ninh","join_key":"07777","status":"active","dataset_effective_date":"2026-04-30","catalog_version":"2026-07-12","geometry_status":"not_embedded_boundary_available_by_url","boundary_source_url":"https://raw.githubusercontent.com/thanglequoc/vietnamese-provinces-database/master/json/geojson/24_bac_ninh/wards/07777_viet_yen.geojson","boundary_source_page":"https://github.com/thanglequoc/vietnamese-provinces-database/blob/master/json/geojson/24_bac_ninh/wards/07777_viet_yen.geojson","source_catalog":"https://github.com/thanglequoc/vietnamese-provinces-database"},"geometry":null},{"type":"Feature","id":"07795","properties":{"commune_code":"07795","commune_name":"Nếnh","commune_name_en":"Nenh","commune_full_name":"Phường Nếnh","commune_full_name_en":"Nenh Ward","commune_slug":"nenh","unit_type":"Phường","unit_type_en":"Ward","admin_level":2,"province_code":"24","province_name":"Bắc Ninh","province_full_name":"Tỉnh Bắc Ninh","province_slug":"bac_ninh","join_key":"07795","status":"active","dataset_effective_date":"2026-04-30","catalog_version":"2026-07-12","geometry_status":"not_embedded_boundary_available_by_url","boundary_source_url":"https://raw.githubusercontent.com/thanglequoc/vietnamese-provinces-database/master/json/geojson/24_bac_ninh/wards/07795_nenh.geojson","boundary_source_page":"https://github.com/thanglequoc/vietnamese-provinces-database/blob/master/json/geojson/24_bac_ninh/wards/07795_nenh.geojson","source_catalog":"https://github.com/thanglequoc/vietnamese-provinces-database"},"geometry":null},{"type":"Feature","id":"07798","properties":{"commune_code":"07798","commune_name":"Vân Hà","commune_name_en":"Van Ha","commune_full_name":"Phường Vân Hà","commune_full_name_en":"Van Ha Ward","commune_slug":"van_ha","unit_type":"Phường","unit_type_en":"Ward","admin_level":2,"province_code":"24","province_name":"Bắc Ninh","province_full_name":"Tỉnh Bắc Ninh","province_slug":"bac_ninh","join_key":"07798","status":"active","dataset_effective_date":"2026-04-30","catalog_version":"2026-07-12","geometry_status":"not_embedded_boundary_available_by_url","boundary_source_url":"https://raw.githubusercontent.com/thanglequoc/vietnamese-provinces-database/master/json/geojson/24_bac_ninh/wards/07798_van_ha.geojson","boundary_source_page":"https://github.com/thanglequoc/vietnamese-provinces-database/blob/master/json/geojson/24_bac_ninh/wards/07798_van_ha.geojson","source_catalog":"https://github.com/thanglequoc/vietnamese-provinces-database"},"geometry":null},{"type":"Feature","id":"07822","properties":{"commune_code":"07822","commune_name":"Hoàng Vân","commune_name_en":"Hoang Van","commune_full_name":"Xã Hoàng Vân","commune_full_name_en":"Hoang Van Commune","commune_slug":"hoang_van","unit_type":"Xã","unit_type_en":"Commune","admin_level":2,"province_code":"24","province_name":"Bắc Ninh","province_full_name":"Tỉnh Bắc Ninh","province_slug":"bac_ninh","join_key":"07822","status":"active","dataset_effective_date":"2026-04-30","catalog_version":"2026-07-12","geometry_status":"not_embedded_boundary_available_by_url","boundary_source_url":"https://raw.githubusercontent.com/thanglequoc/vietnamese-provinces-database/master/json/geojson/24_bac_ninh/wards/07822_hoang_van.geojson","boundary_source_page":"https://github.com/thanglequoc/vietnamese-provinces-database/blob/master/json/geojson/24_bac_ninh/wards/07822_hoang_van.geojson","source_catalog":"https://github.com/thanglequoc/vietnamese-provinces-database"},"geometry":null},{"type":"Feature","id":"07840","properties":{"commune_code":"07840","commune_name":"Hiệp Hoà","commune_name_en":"Hiep Hoa","commune_full_name":"Xã Hiệp Hoà","commune_full_name_en":"Hiep Hoa Commune","commune_slug":"hiep_hoa","unit_type":"Xã","unit_type_en":"Commune","admin_level":2,"province_code":"24","province_name":"Bắc Ninh","province_full_name":"Tỉnh Bắc Ninh","province_slug":"bac_ninh","join_key":"07840","status":"active","dataset_effective_date":"2026-04-30","catalog_version":"2026-07-12","geometry_status":"not_embedded_boundary_available_by_url","boundary_source_url":"https://raw.githubusercontent.com/thanglequoc/vietnamese-provinces-database/master/json/geojson/24_bac_ninh/wards/07840_hiep_hoa.geojson","boundary_source_page":"https://github.com/thanglequoc/vietnamese-provinces-database/blob/master/json/geojson/24_bac_ninh/wards/07840_hiep_hoa.geojson","source_catalog":"https://github.com/thanglequoc/vietnamese-provinces-database"},"geometry":null},{"type":"Feature","id":"07864","properties":{"commune_code":"07864","commune_name":"Hợp Thịnh","commune_name_en":"Hop Thinh","commune_full_name":"Xã Hợp Thịnh","commune_full_name_en":"Hop Thinh Commune","commune_slug":"hop_thinh","unit_type":"Xã","unit_type_en":"Commune","admin_level":2,"province_code":"24","province_name":"Bắc Ninh","province_full_name":"Tỉnh Bắc Ninh","province_slug":"bac_ninh","join_key":"07864","status":"active","dataset_effective_date":"2026-04-30","catalog_version":"2026-07-12","geometry_status":"not_embedded_boundary_available_by_url","boundary_source_url":"https://raw.githubusercontent.com/thanglequoc/vietnamese-provinces-database/master/json/geojson/24_bac_ninh/wards/07864_hop_thinh.geojson","boundary_source_page":"https://github.com/thanglequoc/vietnamese-provinces-database/blob/master/json/geojson/24_bac_ninh/wards/07864_hop_thinh.geojson","source_catalog":"https://github.com/thanglequoc/vietnamese-provinces-database"},"geometry":null},{"type":"Feature","id":"07870","properties":{"commune_code":"07870","commune_name":"Xuân Cẩm","commune_name_en":"Xuan Cam","commune_full_name":"Xã Xuân Cẩm","commune_full_name_en":"Xuan Cam Commune","commune_slug":"xuan_cam","unit_type":"Xã","unit_type_en":"Commune","admin_level":2,"province_code":"24","province_name":"Bắc Ninh","province_full_name":"Tỉnh Bắc Ninh","province_slug":"bac_ninh","join_key":"07870","status":"active","dataset_effective_date":"2026-04-30","catalog_version":"2026-07-12","geometry_status":"not_embedded_boundary_available_by_url","boundary_source_url":"https://raw.githubusercontent.com/thanglequoc/vietnamese-provinces-database/master/json/geojson/24_bac_ninh/wards/07870_xuan_cam.geojson","boundary_source_page":"https://github.com/thanglequoc/vietnamese-provinces-database/blob/master/json/geojson/24_bac_ninh/wards/07870_xuan_cam.geojson","source_catalog":"https://github.com/thanglequoc/vietnamese-provinces-database"},"geometry":null},{"type":"Feature","id":"09169","properties":{"commune_code":"09169","commune_name":"Vũ Ninh","commune_name_en":"Vu Ninh","commune_full_name":"Phường Vũ Ninh","commune_full_name_en":"Vu Ninh Ward","commune_slug":"vu_ninh","unit_type":"Phường","unit_type_en":"Ward","admin_level":2,"province_code":"24","province_name":"Bắc Ninh","province_full_name":"Tỉnh Bắc Ninh","province_slug":"bac_ninh","join_key":"09169","status":"active","dataset_effective_date":"2026-04-30","catalog_version":"2026-07-12","geometry_status":"not_embedded_boundary_available_by_url","boundary_source_url":"https://raw.githubusercontent.com/thanglequoc/vietnamese-provinces-database/master/json/geojson/24_bac_ninh/wards/09169_vu_ninh.geojson","boundary_source_page":"https://github.com/thanglequoc/vietnamese-provinces-database/blob/master/json/geojson/24_bac_ninh/wards/09169_vu_ninh.geojson","source_catalog":"https://github.com/thanglequoc/vietnamese-provinces-database"},"geometry":null},{"type":"Feature","id":"09187","properties":{"commune_code":"09187","commune_name":"Kinh Bắc","commune_name_en":"Kinh Bac","commune_full_name":"Phường Kinh Bắc","commune_full_name_en":"Kinh Bac Ward","commune_slug":"kinh_bac","unit_type":"Phường","unit_type_en":"Ward","admin_level":2,"province_code":"24","province_name":"Bắc Ninh","province_full_name":"Tỉnh Bắc Ninh","province_slug":"bac_ninh","join_key":"09187","status":"active","dataset_effective_date":"2026-04-30","catalog_version":"2026-07-12","geometry_status":"not_embedded_boundary_available_by_url","boundary_source_url":"https://raw.githubusercontent.com/thanglequoc/vietnamese-provinces-database/master/json/geojson/24_bac_ninh/wards/09187_kinh_bac.geojson","boundary_source_page":"https://github.com/thanglequoc/vietnamese-provinces-database/blob/master/json/geojson/24_bac_ninh/wards/09187_kinh_bac.geojson","source_catalog":"https://github.com/thanglequoc/vietnamese-provinces-database"},"geometry":null},{"type":"Feature","id":"09190","properties":{"commune_code":"09190","commune_name":"Võ Cường","commune_name_en":"Vo Cuong","commune_full_name":"Phường Võ Cường","commune_full_name_en":"Vo Cuong Ward","commune_slug":"vo_cuong","unit_type":"Phường","unit_type_en":"Ward","admin_level":2,"province_code":"24","province_name":"Bắc Ninh","province_full_name":"Tỉnh Bắc Ninh","province_slug":"bac_ninh","join_key":"09190","status":"active","dataset_effective_date":"2026-04-30","catalog_version":"2026-07-12","geometry_status":"not_embedded_boundary_available_by_url","boundary_source_url":"https://raw.githubusercontent.com/thanglequoc/vietnamese-provinces-database/master/json/geojson/24_bac_ninh/wards/09190_vo_cuong.geojson","boundary_source_page":"https://github.com/thanglequoc/vietnamese-provinces-database/blob/master/json/geojson/24_bac_ninh/wards/09190_vo_cuong.geojson","source_catalog":"https://github.com/thanglequoc/vietnamese-provinces-database"},"geometry":null},{"type":"Feature","id":"09193","properties":{"commune_code":"09193","commune_name":"Yên Phong","commune_name_en":"Yen Phong","commune_full_name":"Xã Yên Phong","commune_full_name_en":"Yen Phong Commune","commune_slug":"yen_phong","unit_type":"Xã","unit_type_en":"Commune","admin_level":2,"province_code":"24","province_name":"Bắc Ninh","province_full_name":"Tỉnh Bắc Ninh","province_slug":"bac_ninh","join_key":"09193","status":"active","dataset_effective_date":"2026-04-30","catalog_version":"2026-07-12","geometry_status":"not_embedded_boundary_available_by_url","boundary_source_url":"https://raw.githubusercontent.com/thanglequoc/vietnamese-provinces-database/master/json/geojson/24_bac_ninh/wards/09193_yen_phong.geojson","boundary_source_page":"https://github.com/thanglequoc/vietnamese-provinces-database/blob/master/json/geojson/24_bac_ninh/wards/09193_yen_phong.geojson","source_catalog":"https://github.com/thanglequoc/vietnamese-provinces-database"},"geometry":null},{"type":"Feature","id":"09202","properties":{"commune_code":"09202","commune_name":"Tam Giang","commune_name_en":"Tam Giang","commune_full_name":"Xã Tam Giang","commune_full_name_en":"Tam Giang Commune","commune_slug":"tam_giang","unit_type":"Xã","unit_type_en":"Commune","admin_level":2,"province_code":"24","province_name":"Bắc Ninh","province_full_name":"Tỉnh Bắc Ninh","province_slug":"bac_ninh","join_key":"09202","status":"active","dataset_effective_date":"2026-04-30","catalog_version":"2026-07-12","geometry_status":"not_embedded_boundary_available_by_url","boundary_source_url":"https://raw.githubusercontent.com/thanglequoc/vietnamese-provinces-database/master/json/geojson/24_bac_ninh/wards/09202_tam_giang.geojson","boundary_source_page":"https://github.com/thanglequoc/vietnamese-provinces-database/blob/master/json/geojson/24_bac_ninh/wards/09202_tam_giang.geojson","source_catalog":"https://github.com/thanglequoc/vietnamese-provinces-database"},"geometry":null},{"type":"Feature","id":"09205","properties":{"commune_code":"09205","commune_name":"Yên Trung","commune_name_en":"Yen Trung","commune_full_name":"Xã Yên Trung","commune_full_name_en":"Yen Trung Commune","commune_slug":"yen_trung","unit_type":"Xã","unit_type_en":"Commune","admin_level":2,"province_code":"24","province_name":"Bắc Ninh","province_full_name":"Tỉnh Bắc Ninh","province_slug":"bac_ninh","join_key":"09205","status":"active","dataset_effective_date":"2026-04-30","catalog_version":"2026-07-12","geometry_status":"not_embedded_boundary_available_by_url","boundary_source_url":"https://raw.githubusercontent.com/thanglequoc/vietnamese-provinces-database/master/json/geojson/24_bac_ninh/wards/09205_yen_trung.geojson","boundary_source_page":"https://github.com/thanglequoc/vietnamese-provinces-database/blob/master/json/geojson/24_bac_ninh/wards/09205_yen_trung.geojson","source_catalog":"https://github.com/thanglequoc/vietnamese-provinces-database"},"geometry":null},{"type":"Feature","id":"09208","properties":{"commune_code":"09208","commune_name":"Tam Đa","commune_name_en":"Tam Da","commune_full_name":"Xã Tam Đa","commune_full_name_en":"Tam Da Commune","commune_slug":"tam_da","unit_type":"Xã","unit_type_en":"Commune","admin_level":2,"province_code":"24","province_name":"Bắc Ninh","province_full_name":"Tỉnh Bắc Ninh","province_slug":"bac_ninh","join_key":"09208","status":"active","dataset_effective_date":"2026-04-30","catalog_version":"2026-07-12","geometry_status":"not_embedded_boundary_available_by_url","boundary_source_url":"https://raw.githubusercontent.com/thanglequoc/vietnamese-provinces-database/master/json/geojson/24_bac_ninh/wards/09208_tam_da.geojson","boundary_source_page":"https://github.com/thanglequoc/vietnamese-provinces-database/blob/master/json/geojson/24_bac_ninh/wards/09208_tam_da.geojson","source_catalog":"https://github.com/thanglequoc/vietnamese-provinces-database"},"geometry":null},{"type":"Feature","id":"09238","properties":{"commune_code":"09238","commune_name":"Văn Môn","commune_name_en":"Van Mon","commune_full_name":"Xã Văn Môn","commune_full_name_en":"Van Mon Commune","commune_slug":"van_mon","unit_type":"Xã","unit_type_en":"Commune","admin_level":2,"province_code":"24","province_name":"Bắc Ninh","province_full_name":"Tỉnh Bắc Ninh","province_slug":"bac_ninh","join_key":"09238","status":"active","dataset_effective_date":"2026-04-30","catalog_version":"2026-07-12","geometry_status":"not_embedded_boundary_available_by_url","boundary_source_url":"https://raw.githubusercontent.com/thanglequoc/vietnamese-provinces-database/master/json/geojson/24_bac_ninh/wards/09238_van_mon.geojson","boundary_source_page":"https://github.com/thanglequoc/vietnamese-provinces-database/blob/master/json/geojson/24_bac_ninh/wards/09238_van_mon.geojson","source_catalog":"https://github.com/thanglequoc/vietnamese-provinces-database"},"geometry":null},{"type":"Feature","id":"09247","properties":{"commune_code":"09247","commune_name":"Quế Võ","commune_name_en":"Que Vo","commune_full_name":"Phường Quế Võ","commune_full_name_en":"Que Vo Ward","commune_slug":"que_vo","unit_type":"Phường","unit_type_en":"Ward","admin_level":2,"province_code":"24","province_name":"Bắc Ninh","province_full_name":"Tỉnh Bắc Ninh","province_slug":"bac_ninh","join_key":"09247","status":"active","dataset_effective_date":"2026-04-30","catalog_version":"2026-07-12","geometry_status":"not_embedded_boundary_available_by_url","boundary_source_url":"https://raw.githubusercontent.com/thanglequoc/vietnamese-provinces-database/master/json/geojson/24_bac_ninh/wards/09247_que_vo.geojson","boundary_source_page":"https://github.com/thanglequoc/vietnamese-provinces-database/blob/master/json/geojson/24_bac_ninh/wards/09247_que_vo.geojson","source_catalog":"https://github.com/thanglequoc/vietnamese-provinces-database"},"geometry":null},{"type":"Feature","id":"09253","properties":{"commune_code":"09253","commune_name":"Nhân Hoà","commune_name_en":"Nhan Hoa","commune_full_name":"Phường Nhân Hoà","commune_full_name_en":"Nhan Hoa Ward","commune_slug":"nhan_hoa","unit_type":"Phường","unit_type_en":"Ward","admin_level":2,"province_code":"24","province_name":"Bắc Ninh","province_full_name":"Tỉnh Bắc Ninh","province_slug":"bac_ninh","join_key":"09253","status":"active","dataset_effective_date":"2026-04-30","catalog_version":"2026-07-12","geometry_status":"not_embedded_boundary_available_by_url","boundary_source_url":"https://raw.githubusercontent.com/thanglequoc/vietnamese-provinces-database/master/json/geojson/24_bac_ninh/wards/09253_nhan_hoa.geojson","boundary_source_page":"https://github.com/thanglequoc/vietnamese-provinces-database/blob/master/json/geojson/24_bac_ninh/wards/09253_nhan_hoa.geojson","source_catalog":"https://github.com/thanglequoc/vietnamese-provinces-database"},"geometry":null},{"type":"Feature","id":"09265","properties":{"commune_code":"09265","commune_name":"Phương Liễu","commune_name_en":"Phuong Lieu","commune_full_name":"Phường Phương Liễu","commune_full_name_en":"Phuong Lieu Ward","commune_slug":"phuong_lieu","unit_type":"Phường","unit_type_en":"Ward","admin_level":2,"province_code":"24","province_name":"Bắc Ninh","province_full_name":"Tỉnh Bắc Ninh","province_slug":"bac_ninh","join_key":"09265","status":"active","dataset_effective_date":"2026-04-30","catalog_version":"2026-07-12","geometry_status":"not_embedded_boundary_available_by_url","boundary_source_url":"https://raw.githubusercontent.com/thanglequoc/vietnamese-provinces-database/master/json/geojson/24_bac_ninh/wards/09265_phuong_lieu.geojson","boundary_source_page":"https://github.com/thanglequoc/vietnamese-provinces-database/blob/master/json/geojson/24_bac_ninh/wards/09265_phuong_lieu.geojson","source_catalog":"https://github.com/thanglequoc/vietnamese-provinces-database"},"geometry":null},{"type":"Feature","id":"09286","properties":{"commune_code":"09286","commune_name":"Nam Sơn","commune_name_en":"Nam Son","commune_full_name":"Phường Nam Sơn","commune_full_name_en":"Nam Son Ward","commune_slug":"nam_son","unit_type":"Phường","unit_type_en":"Ward","admin_level":2,"province_code":"24","province_name":"Bắc Ninh","province_full_name":"Tỉnh Bắc Ninh","province_slug":"bac_ninh","join_key":"09286","status":"active","dataset_effective_date":"2026-04-30","catalog_version":"2026-07-12","geometry_status":"not_embedded_boundary_available_by_url","boundary_source_url":"https://raw.githubusercontent.com/thanglequoc/vietnamese-provinces-database/master/json/geojson/24_bac_ninh/wards/09286_nam_son.geojson","boundary_source_page":"https://github.com/thanglequoc/vietnamese-provinces-database/blob/master/json/geojson/24_bac_ninh/wards/09286_nam_son.geojson","source_catalog":"https://github.com/thanglequoc/vietnamese-provinces-database"},"geometry":null},{"type":"Feature","id":"09292","properties":{"commune_code":"09292","commune_name":"Phù Lãng","commune_name_en":"Phu Lang","commune_full_name":"Xã Phù Lãng","commune_full_name_en":"Phu Lang Commune","commune_slug":"phu_lang","unit_type":"Xã","unit_type_en":"Commune","admin_level":2,"province_code":"24","province_name":"Bắc Ninh","province_full_name":"Tỉnh Bắc Ninh","province_slug":"bac_ninh","join_key":"09292","status":"active","dataset_effective_date":"2026-04-30","catalog_version":"2026-07-12","geometry_status":"not_embedded_boundary_available_by_url","boundary_source_url":"https://raw.githubusercontent.com/thanglequoc/vietnamese-provinces-database/master/json/geojson/24_bac_ninh/wards/09292_phu_lang.geojson","boundary_source_page":"https://github.com/thanglequoc/vietnamese-provinces-database/blob/master/json/geojson/24_bac_ninh/wards/09292_phu_lang.geojson","source_catalog":"https://github.com/thanglequoc/vietnamese-provinces-database"},"geometry":null},{"type":"Feature","id":"09295","properties":{"commune_code":"09295","commune_name":"Bồng Lai","commune_name_en":"Bong Lai","commune_full_name":"Phường Bồng Lai","commune_full_name_en":"Bong Lai Ward","commune_slug":"bong_lai","unit_type":"Phường","unit_type_en":"Ward","admin_level":2,"province_code":"24","province_name":"Bắc Ninh","province_full_name":"Tỉnh Bắc Ninh","province_slug":"bac_ninh","join_key":"09295","status":"active","dataset_effective_date":"2026-04-30","catalog_version":"2026-07-12","geometry_status":"not_embedded_boundary_available_by_url","boundary_source_url":"https://raw.githubusercontent.com/thanglequoc/vietnamese-provinces-database/master/json/geojson/24_bac_ninh/wards/09295_bong_lai.geojson","boundary_source_page":"https://github.com/thanglequoc/vietnamese-provinces-database/blob/master/json/geojson/24_bac_ninh/wards/09295_bong_lai.geojson","source_catalog":"https://github.com/thanglequoc/vietnamese-provinces-database"},"geometry":null},{"type":"Feature","id":"09301","properties":{"commune_code":"09301","commune_name":"Đào Viên","commune_name_en":"Dao Vien","commune_full_name":"Phường Đào Viên","commune_full_name_en":"Dao Vien Ward","commune_slug":"dao_vien","unit_type":"Phường","unit_type_en":"Ward","admin_level":2,"province_code":"24","province_name":"Bắc Ninh","province_full_name":"Tỉnh Bắc Ninh","province_slug":"bac_ninh","join_key":"09301","status":"active","dataset_effective_date":"2026-04-30","catalog_version":"2026-07-12","geometry_status":"not_embedded_boundary_available_by_url","boundary_source_url":"https://raw.githubusercontent.com/thanglequoc/vietnamese-provinces-database/master/json/geojson/24_bac_ninh/wards/09301_dao_vien.geojson","boundary_source_page":"https://github.com/thanglequoc/vietnamese-provinces-database/blob/master/json/geojson/24_bac_ninh/wards/09301_dao_vien.geojson","source_catalog":"https://github.com/thanglequoc/vietnamese-provinces-database"},"geometry":null},{"type":"Feature","id":"09313","properties":{"commune_code":"09313","commune_name":"Chi Lăng","commune_name_en":"Chi Lang","commune_full_name":"Xã Chi Lăng","commune_full_name_en":"Chi Lang Commune","commune_slug":"chi_lang","unit_type":"Xã","unit_type_en":"Commune","admin_level":2,"province_code":"24","province_name":"Bắc Ninh","province_full_name":"Tỉnh Bắc Ninh","province_slug":"bac_ninh","join_key":"09313","status":"active","dataset_effective_date":"2026-04-30","catalog_version":"2026-07-12","geometry_status":"not_embedded_boundary_available_by_url","boundary_source_url":"https://raw.githubusercontent.com/thanglequoc/vietnamese-provinces-database/master/json/geojson/24_bac_ninh/wards/09313_chi_lang.geojson","boundary_source_page":"https://github.com/thanglequoc/vietnamese-provinces-database/blob/master/json/geojson/24_bac_ninh/wards/09313_chi_lang.geojson","source_catalog":"https://github.com/thanglequoc/vietnamese-provinces-database"},"geometry":null},{"type":"Feature","id":"09319","properties":{"commune_code":"09319","commune_name":"Tiên Du","commune_name_en":"Tien Du","commune_full_name":"Xã Tiên Du","commune_full_name_en":"Tien Du Commune","commune_slug":"tien_du","unit_type":"Xã","unit_type_en":"Commune","admin_level":2,"province_code":"24","province_name":"Bắc Ninh","province_full_name":"Tỉnh Bắc Ninh","province_slug":"bac_ninh","join_key":"09319","status":"active","dataset_effective_date":"2026-04-30","catalog_version":"2026-07-12","geometry_status":"not_embedded_boundary_available_by_url","boundary_source_url":"https://raw.githubusercontent.com/thanglequoc/vietnamese-provinces-database/master/json/geojson/24_bac_ninh/wards/09319_tien_du.geojson","boundary_source_page":"https://github.com/thanglequoc/vietnamese-provinces-database/blob/master/json/geojson/24_bac_ninh/wards/09319_tien_du.geojson","source_catalog":"https://github.com/thanglequoc/vietnamese-provinces-database"},"geometry":null},{"type":"Feature","id":"09325","properties":{"commune_code":"09325","commune_name":"Hạp Lĩnh","commune_name_en":"Hap Linh","commune_full_name":"Phường Hạp Lĩnh","commune_full_name_en":"Hap Linh Ward","commune_slug":"hap_linh","unit_type":"Phường","unit_type_en":"Ward","admin_level":2,"province_code":"24","province_name":"Bắc Ninh","province_full_name":"Tỉnh Bắc Ninh","province_slug":"bac_ninh","join_key":"09325","status":"active","dataset_effective_date":"2026-04-30","catalog_version":"2026-07-12","geometry_status":"not_embedded_boundary_available_by_url","boundary_source_url":"https://raw.githubusercontent.com/thanglequoc/vietnamese-provinces-database/master/json/geojson/24_bac_ninh/wards/09325_hap_linh.geojson","boundary_source_page":"https://github.com/thanglequoc/vietnamese-provinces-database/blob/master/json/geojson/24_bac_ninh/wards/09325_hap_linh.geojson","source_catalog":"https://github.com/thanglequoc/vietnamese-provinces-database"},"geometry":null},{"type":"Feature","id":"09334","properties":{"commune_code":"09334","commune_name":"Liên Bão","commune_name_en":"Lien Bao","commune_full_name":"Xã Liên Bão","commune_full_name_en":"Lien Bao Commune","commune_slug":"lien_bao","unit_type":"Xã","unit_type_en":"Commune","admin_level":2,"province_code":"24","province_name":"Bắc Ninh","province_full_name":"Tỉnh Bắc Ninh","province_slug":"bac_ninh","join_key":"09334","status":"active","dataset_effective_date":"2026-04-30","catalog_version":"2026-07-12","geometry_status":"not_embedded_boundary_available_by_url","boundary_source_url":"https://raw.githubusercontent.com/thanglequoc/vietnamese-provinces-database/master/json/geojson/24_bac_ninh/wards/09334_lien_bao.geojson","boundary_source_page":"https://github.com/thanglequoc/vietnamese-provinces-database/blob/master/json/geojson/24_bac_ninh/wards/09334_lien_bao.geojson","source_catalog":"https://github.com/thanglequoc/vietnamese-provinces-database"},"geometry":null},{"type":"Feature","id":"09340","properties":{"commune_code":"09340","commune_name":"Đại Đồng","commune_name_en":"Dai Dong","commune_full_name":"Xã Đại Đồng","commune_full_name_en":"Dai Dong Commune","commune_slug":"dai_dong","unit_type":"Xã","unit_type_en":"Commune","admin_level":2,"province_code":"24","province_name":"Bắc Ninh","province_full_name":"Tỉnh Bắc Ninh","province_slug":"bac_ninh","join_key":"09340","status":"active","dataset_effective_date":"2026-04-30","catalog_version":"2026-07-12","geometry_status":"not_embedded_boundary_available_by_url","boundary_source_url":"https://raw.githubusercontent.com/thanglequoc/vietnamese-provinces-database/master/json/geojson/24_bac_ninh/wards/09340_dai_dong.geojson","boundary_source_page":"https://github.com/thanglequoc/vietnamese-provinces-database/blob/master/json/geojson/24_bac_ninh/wards/09340_dai_dong.geojson","source_catalog":"https://github.com/thanglequoc/vietnamese-provinces-database"},"geometry":null},{"type":"Feature","id":"09343","properties":{"commune_code":"09343","commune_name":"Tân Chi","commune_name_en":"Tan Chi","commune_full_name":"Xã Tân Chi","commune_full_name_en":"Tan Chi Commune","commune_slug":"tan_chi","unit_type":"Xã","unit_type_en":"Commune","admin_level":2,"province_code":"24","province_name":"Bắc Ninh","province_full_name":"Tỉnh Bắc Ninh","province_slug":"bac_ninh","join_key":"09343","status":"active","dataset_effective_date":"2026-04-30","catalog_version":"2026-07-12","geometry_status":"not_embedded_boundary_available_by_url","boundary_source_url":"https://raw.githubusercontent.com/thanglequoc/vietnamese-provinces-database/master/json/geojson/24_bac_ninh/wards/09343_tan_chi.geojson","boundary_source_page":"https://github.com/thanglequoc/vietnamese-provinces-database/blob/master/json/geojson/24_bac_ninh/wards/09343_tan_chi.geojson","source_catalog":"https://github.com/thanglequoc/vietnamese-provinces-database"},"geometry":null},{"type":"Feature","id":"09349","properties":{"commune_code":"09349","commune_name":"Phật Tích","commune_name_en":"Phat Tich","commune_full_name":"Xã Phật Tích","commune_full_name_en":"Phat Tich Commune","commune_slug":"phat_tich","unit_type":"Xã","unit_type_en":"Commune","admin_level":2,"province_code":"24","province_name":"Bắc Ninh","province_full_name":"Tỉnh Bắc Ninh","province_slug":"bac_ninh","join_key":"09349","status":"active","dataset_effective_date":"2026-04-30","catalog_version":"2026-07-12","geometry_status":"not_embedded_boundary_available_by_url","boundary_source_url":"https://raw.githubusercontent.com/thanglequoc/vietnamese-provinces-database/master/json/geojson/24_bac_ninh/wards/09349_phat_tich.geojson","boundary_source_page":"https://github.com/thanglequoc/vietnamese-provinces-database/blob/master/json/geojson/24_bac_ninh/wards/09349_phat_tich.geojson","source_catalog":"https://github.com/thanglequoc/vietnamese-provinces-database"},"geometry":null},{"type":"Feature","id":"09367","properties":{"commune_code":"09367","commune_name":"Từ Sơn","commune_name_en":"Tu Son","commune_full_name":"Phường Từ Sơn","commune_full_name_en":"Tu Son Ward","commune_slug":"tu_son","unit_type":"Phường","unit_type_en":"Ward","admin_level":2,"province_code":"24","province_name":"Bắc Ninh","province_full_name":"Tỉnh Bắc Ninh","province_slug":"bac_ninh","join_key":"09367","status":"active","dataset_effective_date":"2026-04-30","catalog_version":"2026-07-12","geometry_status":"not_embedded_boundary_available_by_url","boundary_source_url":"https://raw.githubusercontent.com/thanglequoc/vietnamese-provinces-database/master/json/geojson/24_bac_ninh/wards/09367_tu_son.geojson","boundary_source_page":"https://github.com/thanglequoc/vietnamese-provinces-database/blob/master/json/geojson/24_bac_ninh/wards/09367_tu_son.geojson","source_catalog":"https://github.com/thanglequoc/vietnamese-provinces-database"},"geometry":null},{"type":"Feature","id":"09370","properties":{"commune_code":"09370","commune_name":"Tam Sơn","commune_name_en":"Tam Son","commune_full_name":"Phường Tam Sơn","commune_full_name_en":"Tam Son Ward","commune_slug":"tam_son","unit_type":"Phường","unit_type_en":"Ward","admin_level":2,"province_code":"24","province_name":"Bắc Ninh","province_full_name":"Tỉnh Bắc Ninh","province_slug":"bac_ninh","join_key":"09370","status":"active","dataset_effective_date":"2026-04-30","catalog_version":"2026-07-12","geometry_status":"not_embedded_boundary_available_by_url","boundary_source_url":"https://raw.githubusercontent.com/thanglequoc/vietnamese-provinces-database/master/json/geojson/24_bac_ninh/wards/09370_tam_son.geojson","boundary_source_page":"https://github.com/thanglequoc/vietnamese-provinces-database/blob/master/json/geojson/24_bac_ninh/wards/09370_tam_son.geojson","source_catalog":"https://github.com/thanglequoc/vietnamese-provinces-database"},"geometry":null},{"type":"Feature","id":"09379","properties":{"commune_code":"09379","commune_name":"Phù Khê","commune_name_en":"Phu Khe","commune_full_name":"Phường Phù Khê","commune_full_name_en":"Phu Khe Ward","commune_slug":"phu_khe","unit_type":"Phường","unit_type_en":"Ward","admin_level":2,"province_code":"24","province_name":"Bắc Ninh","province_full_name":"Tỉnh Bắc Ninh","province_slug":"bac_ninh","join_key":"09379","status":"active","dataset_effective_date":"2026-04-30","catalog_version":"2026-07-12","geometry_status":"not_embedded_boundary_available_by_url","boundary_source_url":"https://raw.githubusercontent.com/thanglequoc/vietnamese-provinces-database/master/json/geojson/24_bac_ninh/wards/09379_phu_khe.geojson","boundary_source_page":"https://github.com/thanglequoc/vietnamese-provinces-database/blob/master/json/geojson/24_bac_ninh/wards/09379_phu_khe.geojson","source_catalog":"https://github.com/thanglequoc/vietnamese-provinces-database"},"geometry":null},{"type":"Feature","id":"09385","properties":{"commune_code":"09385","commune_name":"Đồng Nguyên","commune_name_en":"Dong Nguyen","commune_full_name":"Phường Đồng Nguyên","commune_full_name_en":"Dong Nguyen Ward","commune_slug":"dong_nguyen","unit_type":"Phường","unit_type_en":"Ward","admin_level":2,"province_code":"24","province_name":"Bắc Ninh","province_full_name":"Tỉnh Bắc Ninh","province_slug":"bac_ninh","join_key":"09385","status":"active","dataset_effective_date":"2026-04-30","catalog_version":"2026-07-12","geometry_status":"not_embedded_boundary_available_by_url","boundary_source_url":"https://raw.githubusercontent.com/thanglequoc/vietnamese-provinces-database/master/json/geojson/24_bac_ninh/wards/09385_dong_nguyen.geojson","boundary_source_page":"https://github.com/thanglequoc/vietnamese-provinces-database/blob/master/json/geojson/24_bac_ninh/wards/09385_dong_nguyen.geojson","source_catalog":"https://github.com/thanglequoc/vietnamese-provinces-database"},"geometry":null},{"type":"Feature","id":"09400","properties":{"commune_code":"09400","commune_name":"Thuận Thành","commune_name_en":"Thuan Thanh","commune_full_name":"Phường Thuận Thành","commune_full_name_en":"Thuan Thanh Ward","commune_slug":"thuan_thanh","unit_type":"Phường","unit_type_en":"Ward","admin_level":2,"province_code":"24","province_name":"Bắc Ninh","province_full_name":"Tỉnh Bắc Ninh","province_slug":"bac_ninh","join_key":"09400","status":"active","dataset_effective_date":"2026-04-30","catalog_version":"2026-07-12","geometry_status":"not_embedded_boundary_available_by_url","boundary_source_url":"https://raw.githubusercontent.com/thanglequoc/vietnamese-provinces-database/master/json/geojson/24_bac_ninh/wards/09400_thuan_thanh.geojson","boundary_source_page":"https://github.com/thanglequoc/vietnamese-provinces-database/blob/master/json/geojson/24_bac_ninh/wards/09400_thuan_thanh.geojson","source_catalog":"https://github.com/thanglequoc/vietnamese-provinces-database"},"geometry":null},{"type":"Feature","id":"09409","properties":{"commune_code":"09409","commune_name":"Mão Điền","commune_name_en":"Mao Dien","commune_full_name":"Phường Mão Điền","commune_full_name_en":"Mao Dien Ward","commune_slug":"mao_dien","unit_type":"Phường","unit_type_en":"Ward","admin_level":2,"province_code":"24","province_name":"Bắc Ninh","province_full_name":"Tỉnh Bắc Ninh","province_slug":"bac_ninh","join_key":"09409","status":"active","dataset_effective_date":"2026-04-30","catalog_version":"2026-07-12","geometry_status":"not_embedded_boundary_available_by_url","boundary_source_url":"https://raw.githubusercontent.com/thanglequoc/vietnamese-provinces-database/master/json/geojson/24_bac_ninh/wards/09409_mao_dien.geojson","boundary_source_page":"https://github.com/thanglequoc/vietnamese-provinces-database/blob/master/json/geojson/24_bac_ninh/wards/09409_mao_dien.geojson","source_catalog":"https://github.com/thanglequoc/vietnamese-provinces-database"},"geometry":null},{"type":"Feature","id":"09427","properties":{"commune_code":"09427","commune_name":"Trí Quả","commune_name_en":"Tri Qua","commune_full_name":"Phường Trí Quả","commune_full_name_en":"Tri Qua Ward","commune_slug":"tri_qua","unit_type":"Phường","unit_type_en":"Ward","admin_level":2,"province_code":"24","province_name":"Bắc Ninh","province_full_name":"Tỉnh Bắc Ninh","province_slug":"bac_ninh","join_key":"09427","status":"active","dataset_effective_date":"2026-04-30","catalog_version":"2026-07-12","geometry_status":"not_embedded_boundary_available_by_url","boundary_source_url":"https://raw.githubusercontent.com/thanglequoc/vietnamese-provinces-database/master/json/geojson/24_bac_ninh/wards/09427_tri_qua.geojson","boundary_source_page":"https://github.com/thanglequoc/vietnamese-provinces-database/blob/master/json/geojson/24_bac_ninh/wards/09427_tri_qua.geojson","source_catalog":"https://github.com/thanglequoc/vietnamese-provinces-database"},"geometry":null},{"type":"Feature","id":"09430","properties":{"commune_code":"09430","commune_name":"Trạm Lộ","commune_name_en":"Tram Lo","commune_full_name":"Phường Trạm Lộ","commune_full_name_en":"Tram Lo Ward","commune_slug":"tram_lo","unit_type":"Phường","unit_type_en":"Ward","admin_level":2,"province_code":"24","province_name":"Bắc Ninh","province_full_name":"Tỉnh Bắc Ninh","province_slug":"bac_ninh","join_key":"09430","status":"active","dataset_effective_date":"2026-04-30","catalog_version":"2026-07-12","geometry_status":"not_embedded_boundary_available_by_url","boundary_source_url":"https://raw.githubusercontent.com/thanglequoc/vietnamese-provinces-database/master/json/geojson/24_bac_ninh/wards/09430_tram_lo.geojson","boundary_source_page":"https://github.com/thanglequoc/vietnamese-provinces-database/blob/master/json/geojson/24_bac_ninh/wards/09430_tram_lo.geojson","source_catalog":"https://github.com/thanglequoc/vietnamese-provinces-database"},"geometry":null},{"type":"Feature","id":"09433","properties":{"commune_code":"09433","commune_name":"Song Liễu","commune_name_en":"Song Lieu","commune_full_name":"Phường Song Liễu","commune_full_name_en":"Song Lieu Ward","commune_slug":"song_lieu","unit_type":"Phường","unit_type_en":"Ward","admin_level":2,"province_code":"24","province_name":"Bắc Ninh","province_full_name":"Tỉnh Bắc Ninh","province_slug":"bac_ninh","join_key":"09433","status":"active","dataset_effective_date":"2026-04-30","catalog_version":"2026-07-12","geometry_status":"not_embedded_boundary_available_by_url","boundary_source_url":"https://raw.githubusercontent.com/thanglequoc/vietnamese-provinces-database/master/json/geojson/24_bac_ninh/wards/09433_song_lieu.geojson","boundary_source_page":"https://github.com/thanglequoc/vietnamese-provinces-database/blob/master/json/geojson/24_bac_ninh/wards/09433_song_lieu.geojson","source_catalog":"https://github.com/thanglequoc/vietnamese-provinces-database"},"geometry":null},{"type":"Feature","id":"09445","properties":{"commune_code":"09445","commune_name":"Ninh Xá","commune_name_en":"Ninh Xa","commune_full_name":"Phường Ninh Xá","commune_full_name_en":"Ninh Xa Ward","commune_slug":"ninh_xa","unit_type":"Phường","unit_type_en":"Ward","admin_level":2,"province_code":"24","province_name":"Bắc Ninh","province_full_name":"Tỉnh Bắc Ninh","province_slug":"bac_ninh","join_key":"09445","status":"active","dataset_effective_date":"2026-04-30","catalog_version":"2026-07-12","geometry_status":"not_embedded_boundary_available_by_url","boundary_source_url":"https://raw.githubusercontent.com/thanglequoc/vietnamese-provinces-database/master/json/geojson/24_bac_ninh/wards/09445_ninh_xa.geojson","boundary_source_page":"https://github.com/thanglequoc/vietnamese-provinces-database/blob/master/json/geojson/24_bac_ninh/wards/09445_ninh_xa.geojson","source_catalog":"https://github.com/thanglequoc/vietnamese-provinces-database"},"geometry":null},{"type":"Feature","id":"09454","properties":{"commune_code":"09454","commune_name":"Gia Bình","commune_name_en":"Gia Binh","commune_full_name":"Xã Gia Bình","commune_full_name_en":"Gia Binh Commune","commune_slug":"gia_binh","unit_type":"Xã","unit_type_en":"Commune","admin_level":2,"province_code":"24","province_name":"Bắc Ninh","province_full_name":"Tỉnh Bắc Ninh","province_slug":"bac_ninh","join_key":"09454","status":"active","dataset_effective_date":"2026-04-30","catalog_version":"2026-07-12","geometry_status":"not_embedded_boundary_available_by_url","boundary_source_url":"https://raw.githubusercontent.com/thanglequoc/vietnamese-provinces-database/master/json/geojson/24_bac_ninh/wards/09454_gia_binh.geojson","boundary_source_page":"https://github.com/thanglequoc/vietnamese-provinces-database/blob/master/json/geojson/24_bac_ninh/wards/09454_gia_binh.geojson","source_catalog":"https://github.com/thanglequoc/vietnamese-provinces-database"},"geometry":null},{"type":"Feature","id":"09466","properties":{"commune_code":"09466","commune_name":"Cao Đức","commune_name_en":"Cao Duc","commune_full_name":"Xã Cao Đức","commune_full_name_en":"Cao Duc Commune","commune_slug":"cao_duc","unit_type":"Xã","unit_type_en":"Commune","admin_level":2,"province_code":"24","province_name":"Bắc Ninh","province_full_name":"Tỉnh Bắc Ninh","province_slug":"bac_ninh","join_key":"09466","status":"active","dataset_effective_date":"2026-04-30","catalog_version":"2026-07-12","geometry_status":"not_embedded_boundary_available_by_url","boundary_source_url":"https://raw.githubusercontent.com/thanglequoc/vietnamese-provinces-database/master/json/geojson/24_bac_ninh/wards/09466_cao_duc.geojson","boundary_source_page":"https://github.com/thanglequoc/vietnamese-provinces-database/blob/master/json/geojson/24_bac_ninh/wards/09466_cao_duc.geojson","source_catalog":"https://github.com/thanglequoc/vietnamese-provinces-database"},"geometry":null},{"type":"Feature","id":"09469","properties":{"commune_code":"09469","commune_name":"Đại Lai","commune_name_en":"Dai Lai","commune_full_name":"Xã Đại Lai","commune_full_name_en":"Dai Lai Commune","commune_slug":"dai_lai","unit_type":"Xã","unit_type_en":"Commune","admin_level":2,"province_code":"24","province_name":"Bắc Ninh","province_full_name":"Tỉnh Bắc Ninh","province_slug":"bac_ninh","join_key":"09469","status":"active","dataset_effective_date":"2026-04-30","catalog_version":"2026-07-12","geometry_status":"not_embedded_boundary_available_by_url","boundary_source_url":"https://raw.githubusercontent.com/thanglequoc/vietnamese-provinces-database/master/json/geojson/24_bac_ninh/wards/09469_dai_lai.geojson","boundary_source_page":"https://github.com/thanglequoc/vietnamese-provinces-database/blob/master/json/geojson/24_bac_ninh/wards/09469_dai_lai.geojson","source_catalog":"https://github.com/thanglequoc/vietnamese-provinces-database"},"geometry":null},{"type":"Feature","id":"09475","properties":{"commune_code":"09475","commune_name":"Nhân Thắng","commune_name_en":"Nhan Thang","commune_full_name":"Xã Nhân Thắng","commune_full_name_en":"Nhan Thang Commune","commune_slug":"nhan_thang","unit_type":"Xã","unit_type_en":"Commune","admin_level":2,"province_code":"24","province_name":"Bắc Ninh","province_full_name":"Tỉnh Bắc Ninh","province_slug":"bac_ninh","join_key":"09475","status":"active","dataset_effective_date":"2026-04-30","catalog_version":"2026-07-12","geometry_status":"not_embedded_boundary_available_by_url","boundary_source_url":"https://raw.githubusercontent.com/thanglequoc/vietnamese-provinces-database/master/json/geojson/24_bac_ninh/wards/09475_nhan_thang.geojson","boundary_source_page":"https://github.com/thanglequoc/vietnamese-provinces-database/blob/master/json/geojson/24_bac_ninh/wards/09475_nhan_thang.geojson","source_catalog":"https://github.com/thanglequoc/vietnamese-provinces-database"},"geometry":null},{"type":"Feature","id":"09487","properties":{"commune_code":"09487","commune_name":"Đông Cứu","commune_name_en":"Dong Cuu","commune_full_name":"Xã Đông Cứu","commune_full_name_en":"Dong Cuu Commune","commune_slug":"dong_cuu","unit_type":"Xã","unit_type_en":"Commune","admin_level":2,"province_code":"24","province_name":"Bắc Ninh","province_full_name":"Tỉnh Bắc Ninh","province_slug":"bac_ninh","join_key":"09487","status":"active","dataset_effective_date":"2026-04-30","catalog_version":"2026-07-12","geometry_status":"not_embedded_boundary_available_by_url","boundary_source_url":"https://raw.githubusercontent.com/thanglequoc/vietnamese-provinces-database/master/json/geojson/24_bac_ninh/wards/09487_dong_cuu.geojson","boundary_source_page":"https://github.com/thanglequoc/vietnamese-provinces-database/blob/master/json/geojson/24_bac_ninh/wards/09487_dong_cuu.geojson","source_catalog":"https://github.com/thanglequoc/vietnamese-provinces-database"},"geometry":null},{"type":"Feature","id":"09496","properties":{"commune_code":"09496","commune_name":"Lương Tài","commune_name_en":"Luong Tai","commune_full_name":"Xã Lương Tài","commune_full_name_en":"Luong Tai Commune","commune_slug":"luong_tai","unit_type":"Xã","unit_type_en":"Commune","admin_level":2,"province_code":"24","province_name":"Bắc Ninh","province_full_name":"Tỉnh Bắc Ninh","province_slug":"bac_ninh","join_key":"09496","status":"active","dataset_effective_date":"2026-04-30","catalog_version":"2026-07-12","geometry_status":"not_embedded_boundary_available_by_url","boundary_source_url":"https://raw.githubusercontent.com/thanglequoc/vietnamese-provinces-database/master/json/geojson/24_bac_ninh/wards/09496_luong_tai.geojson","boundary_source_page":"https://github.com/thanglequoc/vietnamese-provinces-database/blob/master/json/geojson/24_bac_ninh/wards/09496_luong_tai.geojson","source_catalog":"https://github.com/thanglequoc/vietnamese-provinces-database"},"geometry":null},{"type":"Feature","id":"09499","properties":{"commune_code":"09499","commune_name":"Trung Kênh","commune_name_en":"Trung Kenh","commune_full_name":"Xã Trung Kênh","commune_full_name_en":"Trung Kenh Commune","commune_slug":"trung_kenh","unit_type":"Xã","unit_type_en":"Commune","admin_level":2,"province_code":"24","province_name":"Bắc Ninh","province_full_name":"Tỉnh Bắc Ninh","province_slug":"bac_ninh","join_key":"09499","status":"active","dataset_effective_date":"2026-04-30","catalog_version":"2026-07-12","geometry_status":"not_embedded_boundary_available_by_url","boundary_source_url":"https://raw.githubusercontent.com/thanglequoc/vietnamese-provinces-database/master/json/geojson/24_bac_ninh/wards/09499_trung_kenh.geojson","boundary_source_page":"https://github.com/thanglequoc/vietnamese-provinces-database/blob/master/json/geojson/24_bac_ninh/wards/09499_trung_kenh.geojson","source_catalog":"https://github.com/thanglequoc/vietnamese-provinces-database"},"geometry":null},{"type":"Feature","id":"09523","properties":{"commune_code":"09523","commune_name":"Trung Chính","commune_name_en":"Trung Chinh","commune_full_name":"Xã Trung Chính","commune_full_name_en":"Trung Chinh Commune","commune_slug":"trung_chinh","unit_type":"Xã","unit_type_en":"Commune","admin_level":2,"province_code":"24","province_name":"Bắc Ninh","province_full_name":"Tỉnh Bắc Ninh","province_slug":"bac_ninh","join_key":"09523","status":"active","dataset_effective_date":"2026-04-30","catalog_version":"2026-07-12","geometry_status":"not_embedded_boundary_available_by_url","boundary_source_url":"https://raw.githubusercontent.com/thanglequoc/vietnamese-provinces-database/master/json/geojson/24_bac_ninh/wards/09523_trung_chinh.geojson","boundary_source_page":"https://github.com/thanglequoc/vietnamese-provinces-database/blob/master/json/geojson/24_bac_ninh/wards/09523_trung_chinh.geojson","source_catalog":"https://github.com/thanglequoc/vietnamese-provinces-database"},"geometry":null},{"type":"Feature","id":"09529","properties":{"commune_code":"09529","commune_name":"Lâm Thao","commune_name_en":"Lam Thao","commune_full_name":"Xã Lâm Thao","commune_full_name_en":"Lam Thao Commune","commune_slug":"lam_thao","unit_type":"Xã","unit_type_en":"Commune","admin_level":2,"province_code":"24","province_name":"Bắc Ninh","province_full_name":"Tỉnh Bắc Ninh","province_slug":"bac_ninh","join_key":"09529","status":"active","dataset_effective_date":"2026-04-30","catalog_version":"2026-07-12","geometry_status":"not_embedded_boundary_available_by_url","boundary_source_url":"https://raw.githubusercontent.com/thanglequoc/vietnamese-provinces-database/master/json/geojson/24_bac_ninh/wards/09529_lam_thao.geojson","boundary_source_page":"https://github.com/thanglequoc/vietnamese-provinces-database/blob/master/json/geojson/24_bac_ninh/wards/09529_lam_thao.geojson","source_catalog":"https://github.com/thanglequoc/vietnamese-provinces-database"},"geometry":null}]}