{"type":"FeatureCollection","name":"42_ha_tinh_communes_attributes","metadata":{"province_code":"42","province_name":"Hà Tĩnh","feature_count":69,"geometry":null,"join_key":"commune_code"},"features":[{"type":"Feature","id":"18073","properties":{"commune_code":"18073","commune_name":"Thành Sen","commune_name_en":"Thanh Sen","commune_full_name":"Phường Thành Sen","commune_full_name_en":"Thanh Sen Ward","commune_slug":"thanh_sen","unit_type":"Phường","unit_type_en":"Ward","admin_level":2,"province_code":"42","province_name":"Hà Tĩnh","province_full_name":"Tỉnh Hà Tĩnh","province_slug":"ha_tinh","join_key":"18073","status":"active","dataset_effective_date":"2026-04-30","catalog_version":"2026-07-12","geometry_status":"not_embedded_boundary_available_by_url","boundary_source_url":"https://raw.githubusercontent.com/thanglequoc/vietnamese-provinces-database/master/json/geojson/42_ha_tinh/wards/18073_thanh_sen.geojson","boundary_source_page":"https://github.com/thanglequoc/vietnamese-provinces-database/blob/master/json/geojson/42_ha_tinh/wards/18073_thanh_sen.geojson","source_catalog":"https://github.com/thanglequoc/vietnamese-provinces-database"},"geometry":null},{"type":"Feature","id":"18100","properties":{"commune_code":"18100","commune_name":"Trần Phú","commune_name_en":"Tran Phu","commune_full_name":"Phường Trần Phú","commune_full_name_en":"Tran Phu Ward","commune_slug":"tran_phu","unit_type":"Phường","unit_type_en":"Ward","admin_level":2,"province_code":"42","province_name":"Hà Tĩnh","province_full_name":"Tỉnh Hà Tĩnh","province_slug":"ha_tinh","join_key":"18100","status":"active","dataset_effective_date":"2026-04-30","catalog_version":"2026-07-12","geometry_status":"not_embedded_boundary_available_by_url","boundary_source_url":"https://raw.githubusercontent.com/thanglequoc/vietnamese-provinces-database/master/json/geojson/42_ha_tinh/wards/18100_tran_phu.geojson","boundary_source_page":"https://github.com/thanglequoc/vietnamese-provinces-database/blob/master/json/geojson/42_ha_tinh/wards/18100_tran_phu.geojson","source_catalog":"https://github.com/thanglequoc/vietnamese-provinces-database"},"geometry":null},{"type":"Feature","id":"18115","properties":{"commune_code":"18115","commune_name":"Bắc Hồng Lĩnh","commune_name_en":"Bac Hong Linh","commune_full_name":"Phường Bắc Hồng Lĩnh","commune_full_name_en":"Bac Hong Linh Ward","commune_slug":"bac_hong_linh","unit_type":"Phường","unit_type_en":"Ward","admin_level":2,"province_code":"42","province_name":"Hà Tĩnh","province_full_name":"Tỉnh Hà Tĩnh","province_slug":"ha_tinh","join_key":"18115","status":"active","dataset_effective_date":"2026-04-30","catalog_version":"2026-07-12","geometry_status":"not_embedded_boundary_available_by_url","boundary_source_url":"https://raw.githubusercontent.com/thanglequoc/vietnamese-provinces-database/master/json/geojson/42_ha_tinh/wards/18115_bac_hong_linh.geojson","boundary_source_page":"https://github.com/thanglequoc/vietnamese-provinces-database/blob/master/json/geojson/42_ha_tinh/wards/18115_bac_hong_linh.geojson","source_catalog":"https://github.com/thanglequoc/vietnamese-provinces-database"},"geometry":null},{"type":"Feature","id":"18118","properties":{"commune_code":"18118","commune_name":"Nam Hồng Lĩnh","commune_name_en":"Nam Hong Linh","commune_full_name":"Phường Nam Hồng Lĩnh","commune_full_name_en":"Nam Hong Linh Ward","commune_slug":"nam_hong_linh","unit_type":"Phường","unit_type_en":"Ward","admin_level":2,"province_code":"42","province_name":"Hà Tĩnh","province_full_name":"Tỉnh Hà Tĩnh","province_slug":"ha_tinh","join_key":"18118","status":"active","dataset_effective_date":"2026-04-30","catalog_version":"2026-07-12","geometry_status":"not_embedded_boundary_available_by_url","boundary_source_url":"https://raw.githubusercontent.com/thanglequoc/vietnamese-provinces-database/master/json/geojson/42_ha_tinh/wards/18118_nam_hong_linh.geojson","boundary_source_page":"https://github.com/thanglequoc/vietnamese-provinces-database/blob/master/json/geojson/42_ha_tinh/wards/18118_nam_hong_linh.geojson","source_catalog":"https://github.com/thanglequoc/vietnamese-provinces-database"},"geometry":null},{"type":"Feature","id":"18133","properties":{"commune_code":"18133","commune_name":"Hương Sơn","commune_name_en":"Huong Son","commune_full_name":"Xã Hương Sơn","commune_full_name_en":"Huong Son Commune","commune_slug":"huong_son","unit_type":"Xã","unit_type_en":"Commune","admin_level":2,"province_code":"42","province_name":"Hà Tĩnh","province_full_name":"Tỉnh Hà Tĩnh","province_slug":"ha_tinh","join_key":"18133","status":"active","dataset_effective_date":"2026-04-30","catalog_version":"2026-07-12","geometry_status":"not_embedded_boundary_available_by_url","boundary_source_url":"https://raw.githubusercontent.com/thanglequoc/vietnamese-provinces-database/master/json/geojson/42_ha_tinh/wards/18133_huong_son.geojson","boundary_source_page":"https://github.com/thanglequoc/vietnamese-provinces-database/blob/master/json/geojson/42_ha_tinh/wards/18133_huong_son.geojson","source_catalog":"https://github.com/thanglequoc/vietnamese-provinces-database"},"geometry":null},{"type":"Feature","id":"18160","properties":{"commune_code":"18160","commune_name":"Sơn Hồng","commune_name_en":"Son Hong","commune_full_name":"Xã Sơn Hồng","commune_full_name_en":"Son Hong Commune","commune_slug":"son_hong","unit_type":"Xã","unit_type_en":"Commune","admin_level":2,"province_code":"42","province_name":"Hà Tĩnh","province_full_name":"Tỉnh Hà Tĩnh","province_slug":"ha_tinh","join_key":"18160","status":"active","dataset_effective_date":"2026-04-30","catalog_version":"2026-07-12","geometry_status":"not_embedded_boundary_available_by_url","boundary_source_url":"https://raw.githubusercontent.com/thanglequoc/vietnamese-provinces-database/master/json/geojson/42_ha_tinh/wards/18160_son_hong.geojson","boundary_source_page":"https://github.com/thanglequoc/vietnamese-provinces-database/blob/master/json/geojson/42_ha_tinh/wards/18160_son_hong.geojson","source_catalog":"https://github.com/thanglequoc/vietnamese-provinces-database"},"geometry":null},{"type":"Feature","id":"18163","properties":{"commune_code":"18163","commune_name":"Sơn Tiến","commune_name_en":"Son Tien","commune_full_name":"Xã Sơn Tiến","commune_full_name_en":"Son Tien Commune","commune_slug":"son_tien","unit_type":"Xã","unit_type_en":"Commune","admin_level":2,"province_code":"42","province_name":"Hà Tĩnh","province_full_name":"Tỉnh Hà Tĩnh","province_slug":"ha_tinh","join_key":"18163","status":"active","dataset_effective_date":"2026-04-30","catalog_version":"2026-07-12","geometry_status":"not_embedded_boundary_available_by_url","boundary_source_url":"https://raw.githubusercontent.com/thanglequoc/vietnamese-provinces-database/master/json/geojson/42_ha_tinh/wards/18163_son_tien.geojson","boundary_source_page":"https://github.com/thanglequoc/vietnamese-provinces-database/blob/master/json/geojson/42_ha_tinh/wards/18163_son_tien.geojson","source_catalog":"https://github.com/thanglequoc/vietnamese-provinces-database"},"geometry":null},{"type":"Feature","id":"18172","properties":{"commune_code":"18172","commune_name":"Sơn Tây","commune_name_en":"Son Tay","commune_full_name":"Xã Sơn Tây","commune_full_name_en":"Son Tay Commune","commune_slug":"son_tay","unit_type":"Xã","unit_type_en":"Commune","admin_level":2,"province_code":"42","province_name":"Hà Tĩnh","province_full_name":"Tỉnh Hà Tĩnh","province_slug":"ha_tinh","join_key":"18172","status":"active","dataset_effective_date":"2026-04-30","catalog_version":"2026-07-12","geometry_status":"not_embedded_boundary_available_by_url","boundary_source_url":"https://raw.githubusercontent.com/thanglequoc/vietnamese-provinces-database/master/json/geojson/42_ha_tinh/wards/18172_son_tay.geojson","boundary_source_page":"https://github.com/thanglequoc/vietnamese-provinces-database/blob/master/json/geojson/42_ha_tinh/wards/18172_son_tay.geojson","source_catalog":"https://github.com/thanglequoc/vietnamese-provinces-database"},"geometry":null},{"type":"Feature","id":"18184","properties":{"commune_code":"18184","commune_name":"Sơn Giang","commune_name_en":"Son Giang","commune_full_name":"Xã Sơn Giang","commune_full_name_en":"Son Giang Commune","commune_slug":"son_giang","unit_type":"Xã","unit_type_en":"Commune","admin_level":2,"province_code":"42","province_name":"Hà Tĩnh","province_full_name":"Tỉnh Hà Tĩnh","province_slug":"ha_tinh","join_key":"18184","status":"active","dataset_effective_date":"2026-04-30","catalog_version":"2026-07-12","geometry_status":"not_embedded_boundary_available_by_url","boundary_source_url":"https://raw.githubusercontent.com/thanglequoc/vietnamese-provinces-database/master/json/geojson/42_ha_tinh/wards/18184_son_giang.geojson","boundary_source_page":"https://github.com/thanglequoc/vietnamese-provinces-database/blob/master/json/geojson/42_ha_tinh/wards/18184_son_giang.geojson","source_catalog":"https://github.com/thanglequoc/vietnamese-provinces-database"},"geometry":null},{"type":"Feature","id":"18196","properties":{"commune_code":"18196","commune_name":"Sơn Kim 1","commune_name_en":"Son Kim 1","commune_full_name":"Xã Sơn Kim 1","commune_full_name_en":"Commune Son Kim 1","commune_slug":"son_kim_1","unit_type":"Xã","unit_type_en":"Commune","admin_level":2,"province_code":"42","province_name":"Hà Tĩnh","province_full_name":"Tỉnh Hà Tĩnh","province_slug":"ha_tinh","join_key":"18196","status":"active","dataset_effective_date":"2026-04-30","catalog_version":"2026-07-12","geometry_status":"not_embedded_boundary_available_by_url","boundary_source_url":"https://raw.githubusercontent.com/thanglequoc/vietnamese-provinces-database/master/json/geojson/42_ha_tinh/wards/18196_son_kim_1.geojson","boundary_source_page":"https://github.com/thanglequoc/vietnamese-provinces-database/blob/master/json/geojson/42_ha_tinh/wards/18196_son_kim_1.geojson","source_catalog":"https://github.com/thanglequoc/vietnamese-provinces-database"},"geometry":null},{"type":"Feature","id":"18199","properties":{"commune_code":"18199","commune_name":"Sơn Kim 2","commune_name_en":"Son Kim 2","commune_full_name":"Xã Sơn Kim 2","commune_full_name_en":"Commune Son Kim 2","commune_slug":"son_kim_2","unit_type":"Xã","unit_type_en":"Commune","admin_level":2,"province_code":"42","province_name":"Hà Tĩnh","province_full_name":"Tỉnh Hà Tĩnh","province_slug":"ha_tinh","join_key":"18199","status":"active","dataset_effective_date":"2026-04-30","catalog_version":"2026-07-12","geometry_status":"not_embedded_boundary_available_by_url","boundary_source_url":"https://raw.githubusercontent.com/thanglequoc/vietnamese-provinces-database/master/json/geojson/42_ha_tinh/wards/18199_son_kim_2.geojson","boundary_source_page":"https://github.com/thanglequoc/vietnamese-provinces-database/blob/master/json/geojson/42_ha_tinh/wards/18199_son_kim_2.geojson","source_catalog":"https://github.com/thanglequoc/vietnamese-provinces-database"},"geometry":null},{"type":"Feature","id":"18202","properties":{"commune_code":"18202","commune_name":"Tứ Mỹ","commune_name_en":"Tu My","commune_full_name":"Xã Tứ Mỹ","commune_full_name_en":"Tu My Commune","commune_slug":"tu_my","unit_type":"Xã","unit_type_en":"Commune","admin_level":2,"province_code":"42","province_name":"Hà Tĩnh","province_full_name":"Tỉnh Hà Tĩnh","province_slug":"ha_tinh","join_key":"18202","status":"active","dataset_effective_date":"2026-04-30","catalog_version":"2026-07-12","geometry_status":"not_embedded_boundary_available_by_url","boundary_source_url":"https://raw.githubusercontent.com/thanglequoc/vietnamese-provinces-database/master/json/geojson/42_ha_tinh/wards/18202_tu_my.geojson","boundary_source_page":"https://github.com/thanglequoc/vietnamese-provinces-database/blob/master/json/geojson/42_ha_tinh/wards/18202_tu_my.geojson","source_catalog":"https://github.com/thanglequoc/vietnamese-provinces-database"},"geometry":null},{"type":"Feature","id":"18223","properties":{"commune_code":"18223","commune_name":"Kim Hoa","commune_name_en":"Kim Hoa","commune_full_name":"Xã Kim Hoa","commune_full_name_en":"Kim Hoa Commune","commune_slug":"kim_hoa","unit_type":"Xã","unit_type_en":"Commune","admin_level":2,"province_code":"42","province_name":"Hà Tĩnh","province_full_name":"Tỉnh Hà Tĩnh","province_slug":"ha_tinh","join_key":"18223","status":"active","dataset_effective_date":"2026-04-30","catalog_version":"2026-07-12","geometry_status":"not_embedded_boundary_available_by_url","boundary_source_url":"https://raw.githubusercontent.com/thanglequoc/vietnamese-provinces-database/master/json/geojson/42_ha_tinh/wards/18223_kim_hoa.geojson","boundary_source_page":"https://github.com/thanglequoc/vietnamese-provinces-database/blob/master/json/geojson/42_ha_tinh/wards/18223_kim_hoa.geojson","source_catalog":"https://github.com/thanglequoc/vietnamese-provinces-database"},"geometry":null},{"type":"Feature","id":"18229","properties":{"commune_code":"18229","commune_name":"Đức Thọ","commune_name_en":"Duc Tho","commune_full_name":"Xã Đức Thọ","commune_full_name_en":"Duc Tho Commune","commune_slug":"duc_tho","unit_type":"Xã","unit_type_en":"Commune","admin_level":2,"province_code":"42","province_name":"Hà Tĩnh","province_full_name":"Tỉnh Hà Tĩnh","province_slug":"ha_tinh","join_key":"18229","status":"active","dataset_effective_date":"2026-04-30","catalog_version":"2026-07-12","geometry_status":"not_embedded_boundary_available_by_url","boundary_source_url":"https://raw.githubusercontent.com/thanglequoc/vietnamese-provinces-database/master/json/geojson/42_ha_tinh/wards/18229_duc_tho.geojson","boundary_source_page":"https://github.com/thanglequoc/vietnamese-provinces-database/blob/master/json/geojson/42_ha_tinh/wards/18229_duc_tho.geojson","source_catalog":"https://github.com/thanglequoc/vietnamese-provinces-database"},"geometry":null},{"type":"Feature","id":"18244","properties":{"commune_code":"18244","commune_name":"Đức Minh","commune_name_en":"Duc Minh","commune_full_name":"Xã Đức Minh","commune_full_name_en":"Duc Minh Commune","commune_slug":"duc_minh","unit_type":"Xã","unit_type_en":"Commune","admin_level":2,"province_code":"42","province_name":"Hà Tĩnh","province_full_name":"Tỉnh Hà Tĩnh","province_slug":"ha_tinh","join_key":"18244","status":"active","dataset_effective_date":"2026-04-30","catalog_version":"2026-07-12","geometry_status":"not_embedded_boundary_available_by_url","boundary_source_url":"https://raw.githubusercontent.com/thanglequoc/vietnamese-provinces-database/master/json/geojson/42_ha_tinh/wards/18244_duc_minh.geojson","boundary_source_page":"https://github.com/thanglequoc/vietnamese-provinces-database/blob/master/json/geojson/42_ha_tinh/wards/18244_duc_minh.geojson","source_catalog":"https://github.com/thanglequoc/vietnamese-provinces-database"},"geometry":null},{"type":"Feature","id":"18262","properties":{"commune_code":"18262","commune_name":"Đức Quang","commune_name_en":"Duc Quang","commune_full_name":"Xã Đức Quang","commune_full_name_en":"Duc Quang Commune","commune_slug":"duc_quang","unit_type":"Xã","unit_type_en":"Commune","admin_level":2,"province_code":"42","province_name":"Hà Tĩnh","province_full_name":"Tỉnh Hà Tĩnh","province_slug":"ha_tinh","join_key":"18262","status":"active","dataset_effective_date":"2026-04-30","catalog_version":"2026-07-12","geometry_status":"not_embedded_boundary_available_by_url","boundary_source_url":"https://raw.githubusercontent.com/thanglequoc/vietnamese-provinces-database/master/json/geojson/42_ha_tinh/wards/18262_duc_quang.geojson","boundary_source_page":"https://github.com/thanglequoc/vietnamese-provinces-database/blob/master/json/geojson/42_ha_tinh/wards/18262_duc_quang.geojson","source_catalog":"https://github.com/thanglequoc/vietnamese-provinces-database"},"geometry":null},{"type":"Feature","id":"18277","properties":{"commune_code":"18277","commune_name":"Đức Thịnh","commune_name_en":"Duc Thinh","commune_full_name":"Xã Đức Thịnh","commune_full_name_en":"Duc Thinh Commune","commune_slug":"duc_thinh","unit_type":"Xã","unit_type_en":"Commune","admin_level":2,"province_code":"42","province_name":"Hà Tĩnh","province_full_name":"Tỉnh Hà Tĩnh","province_slug":"ha_tinh","join_key":"18277","status":"active","dataset_effective_date":"2026-04-30","catalog_version":"2026-07-12","geometry_status":"not_embedded_boundary_available_by_url","boundary_source_url":"https://raw.githubusercontent.com/thanglequoc/vietnamese-provinces-database/master/json/geojson/42_ha_tinh/wards/18277_duc_thinh.geojson","boundary_source_page":"https://github.com/thanglequoc/vietnamese-provinces-database/blob/master/json/geojson/42_ha_tinh/wards/18277_duc_thinh.geojson","source_catalog":"https://github.com/thanglequoc/vietnamese-provinces-database"},"geometry":null},{"type":"Feature","id":"18304","properties":{"commune_code":"18304","commune_name":"Đức Đồng","commune_name_en":"Duc Dong","commune_full_name":"Xã Đức Đồng","commune_full_name_en":"Duc Dong Commune","commune_slug":"duc_dong","unit_type":"Xã","unit_type_en":"Commune","admin_level":2,"province_code":"42","province_name":"Hà Tĩnh","province_full_name":"Tỉnh Hà Tĩnh","province_slug":"ha_tinh","join_key":"18304","status":"active","dataset_effective_date":"2026-04-30","catalog_version":"2026-07-12","geometry_status":"not_embedded_boundary_available_by_url","boundary_source_url":"https://raw.githubusercontent.com/thanglequoc/vietnamese-provinces-database/master/json/geojson/42_ha_tinh/wards/18304_duc_dong.geojson","boundary_source_page":"https://github.com/thanglequoc/vietnamese-provinces-database/blob/master/json/geojson/42_ha_tinh/wards/18304_duc_dong.geojson","source_catalog":"https://github.com/thanglequoc/vietnamese-provinces-database"},"geometry":null},{"type":"Feature","id":"18313","properties":{"commune_code":"18313","commune_name":"Vũ Quang","commune_name_en":"Vu Quang","commune_full_name":"Xã Vũ Quang","commune_full_name_en":"Vu Quang Commune","commune_slug":"vu_quang","unit_type":"Xã","unit_type_en":"Commune","admin_level":2,"province_code":"42","province_name":"Hà Tĩnh","province_full_name":"Tỉnh Hà Tĩnh","province_slug":"ha_tinh","join_key":"18313","status":"active","dataset_effective_date":"2026-04-30","catalog_version":"2026-07-12","geometry_status":"not_embedded_boundary_available_by_url","boundary_source_url":"https://raw.githubusercontent.com/thanglequoc/vietnamese-provinces-database/master/json/geojson/42_ha_tinh/wards/18313_vu_quang.geojson","boundary_source_page":"https://github.com/thanglequoc/vietnamese-provinces-database/blob/master/json/geojson/42_ha_tinh/wards/18313_vu_quang.geojson","source_catalog":"https://github.com/thanglequoc/vietnamese-provinces-database"},"geometry":null},{"type":"Feature","id":"18322","properties":{"commune_code":"18322","commune_name":"Mai Hoa","commune_name_en":"Mai Hoa","commune_full_name":"Xã Mai Hoa","commune_full_name_en":"Mai Hoa Commune","commune_slug":"mai_hoa","unit_type":"Xã","unit_type_en":"Commune","admin_level":2,"province_code":"42","province_name":"Hà Tĩnh","province_full_name":"Tỉnh Hà Tĩnh","province_slug":"ha_tinh","join_key":"18322","status":"active","dataset_effective_date":"2026-04-30","catalog_version":"2026-07-12","geometry_status":"not_embedded_boundary_available_by_url","boundary_source_url":"https://raw.githubusercontent.com/thanglequoc/vietnamese-provinces-database/master/json/geojson/42_ha_tinh/wards/18322_mai_hoa.geojson","boundary_source_page":"https://github.com/thanglequoc/vietnamese-provinces-database/blob/master/json/geojson/42_ha_tinh/wards/18322_mai_hoa.geojson","source_catalog":"https://github.com/thanglequoc/vietnamese-provinces-database"},"geometry":null},{"type":"Feature","id":"18328","properties":{"commune_code":"18328","commune_name":"Thượng Đức","commune_name_en":"Thuong Duc","commune_full_name":"Xã Thượng Đức","commune_full_name_en":"Thuong Duc Commune","commune_slug":"thuong_duc","unit_type":"Xã","unit_type_en":"Commune","admin_level":2,"province_code":"42","province_name":"Hà Tĩnh","province_full_name":"Tỉnh Hà Tĩnh","province_slug":"ha_tinh","join_key":"18328","status":"active","dataset_effective_date":"2026-04-30","catalog_version":"2026-07-12","geometry_status":"not_embedded_boundary_available_by_url","boundary_source_url":"https://raw.githubusercontent.com/thanglequoc/vietnamese-provinces-database/master/json/geojson/42_ha_tinh/wards/18328_thuong_duc.geojson","boundary_source_page":"https://github.com/thanglequoc/vietnamese-provinces-database/blob/master/json/geojson/42_ha_tinh/wards/18328_thuong_duc.geojson","source_catalog":"https://github.com/thanglequoc/vietnamese-provinces-database"},"geometry":null},{"type":"Feature","id":"18352","properties":{"commune_code":"18352","commune_name":"Nghi Xuân","commune_name_en":"Nghi Xuan","commune_full_name":"Xã Nghi Xuân","commune_full_name_en":"Nghi Xuan Commune","commune_slug":"nghi_xuan","unit_type":"Xã","unit_type_en":"Commune","admin_level":2,"province_code":"42","province_name":"Hà Tĩnh","province_full_name":"Tỉnh Hà Tĩnh","province_slug":"ha_tinh","join_key":"18352","status":"active","dataset_effective_date":"2026-04-30","catalog_version":"2026-07-12","geometry_status":"not_embedded_boundary_available_by_url","boundary_source_url":"https://raw.githubusercontent.com/thanglequoc/vietnamese-provinces-database/master/json/geojson/42_ha_tinh/wards/18352_nghi_xuan.geojson","boundary_source_page":"https://github.com/thanglequoc/vietnamese-provinces-database/blob/master/json/geojson/42_ha_tinh/wards/18352_nghi_xuan.geojson","source_catalog":"https://github.com/thanglequoc/vietnamese-provinces-database"},"geometry":null},{"type":"Feature","id":"18364","properties":{"commune_code":"18364","commune_name":"Đan Hải","commune_name_en":"Dan Hai","commune_full_name":"Xã Đan Hải","commune_full_name_en":"Dan Hai Commune","commune_slug":"dan_hai","unit_type":"Xã","unit_type_en":"Commune","admin_level":2,"province_code":"42","province_name":"Hà Tĩnh","province_full_name":"Tỉnh Hà Tĩnh","province_slug":"ha_tinh","join_key":"18364","status":"active","dataset_effective_date":"2026-04-30","catalog_version":"2026-07-12","geometry_status":"not_embedded_boundary_available_by_url","boundary_source_url":"https://raw.githubusercontent.com/thanglequoc/vietnamese-provinces-database/master/json/geojson/42_ha_tinh/wards/18364_dan_hai.geojson","boundary_source_page":"https://github.com/thanglequoc/vietnamese-provinces-database/blob/master/json/geojson/42_ha_tinh/wards/18364_dan_hai.geojson","source_catalog":"https://github.com/thanglequoc/vietnamese-provinces-database"},"geometry":null},{"type":"Feature","id":"18373","properties":{"commune_code":"18373","commune_name":"Tiên Điền","commune_name_en":"Tien Dien","commune_full_name":"Xã Tiên Điền","commune_full_name_en":"Tien Dien Commune","commune_slug":"tien_dien","unit_type":"Xã","unit_type_en":"Commune","admin_level":2,"province_code":"42","province_name":"Hà Tĩnh","province_full_name":"Tỉnh Hà Tĩnh","province_slug":"ha_tinh","join_key":"18373","status":"active","dataset_effective_date":"2026-04-30","catalog_version":"2026-07-12","geometry_status":"not_embedded_boundary_available_by_url","boundary_source_url":"https://raw.githubusercontent.com/thanglequoc/vietnamese-provinces-database/master/json/geojson/42_ha_tinh/wards/18373_tien_dien.geojson","boundary_source_page":"https://github.com/thanglequoc/vietnamese-provinces-database/blob/master/json/geojson/42_ha_tinh/wards/18373_tien_dien.geojson","source_catalog":"https://github.com/thanglequoc/vietnamese-provinces-database"},"geometry":null},{"type":"Feature","id":"18394","properties":{"commune_code":"18394","commune_name":"Cổ Đạm","commune_name_en":"Co Dam","commune_full_name":"Xã Cổ Đạm","commune_full_name_en":"Co Dam Commune","commune_slug":"co_dam","unit_type":"Xã","unit_type_en":"Commune","admin_level":2,"province_code":"42","province_name":"Hà Tĩnh","province_full_name":"Tỉnh Hà Tĩnh","province_slug":"ha_tinh","join_key":"18394","status":"active","dataset_effective_date":"2026-04-30","catalog_version":"2026-07-12","geometry_status":"not_embedded_boundary_available_by_url","boundary_source_url":"https://raw.githubusercontent.com/thanglequoc/vietnamese-provinces-database/master/json/geojson/42_ha_tinh/wards/18394_co_dam.geojson","boundary_source_page":"https://github.com/thanglequoc/vietnamese-provinces-database/blob/master/json/geojson/42_ha_tinh/wards/18394_co_dam.geojson","source_catalog":"https://github.com/thanglequoc/vietnamese-provinces-database"},"geometry":null},{"type":"Feature","id":"18406","properties":{"commune_code":"18406","commune_name":"Can Lộc","commune_name_en":"Can Loc","commune_full_name":"Xã Can Lộc","commune_full_name_en":"Can Loc Commune","commune_slug":"can_loc","unit_type":"Xã","unit_type_en":"Commune","admin_level":2,"province_code":"42","province_name":"Hà Tĩnh","province_full_name":"Tỉnh Hà Tĩnh","province_slug":"ha_tinh","join_key":"18406","status":"active","dataset_effective_date":"2026-04-30","catalog_version":"2026-07-12","geometry_status":"not_embedded_boundary_available_by_url","boundary_source_url":"https://raw.githubusercontent.com/thanglequoc/vietnamese-provinces-database/master/json/geojson/42_ha_tinh/wards/18406_can_loc.geojson","boundary_source_page":"https://github.com/thanglequoc/vietnamese-provinces-database/blob/master/json/geojson/42_ha_tinh/wards/18406_can_loc.geojson","source_catalog":"https://github.com/thanglequoc/vietnamese-provinces-database"},"geometry":null},{"type":"Feature","id":"18409","properties":{"commune_code":"18409","commune_name":"Hồng Lộc","commune_name_en":"Hong Loc","commune_full_name":"Xã Hồng Lộc","commune_full_name_en":"Hong Loc Commune","commune_slug":"hong_loc","unit_type":"Xã","unit_type_en":"Commune","admin_level":2,"province_code":"42","province_name":"Hà Tĩnh","province_full_name":"Tỉnh Hà Tĩnh","province_slug":"ha_tinh","join_key":"18409","status":"active","dataset_effective_date":"2026-04-30","catalog_version":"2026-07-12","geometry_status":"not_embedded_boundary_available_by_url","boundary_source_url":"https://raw.githubusercontent.com/thanglequoc/vietnamese-provinces-database/master/json/geojson/42_ha_tinh/wards/18409_hong_loc.geojson","boundary_source_page":"https://github.com/thanglequoc/vietnamese-provinces-database/blob/master/json/geojson/42_ha_tinh/wards/18409_hong_loc.geojson","source_catalog":"https://github.com/thanglequoc/vietnamese-provinces-database"},"geometry":null},{"type":"Feature","id":"18418","properties":{"commune_code":"18418","commune_name":"Tùng Lộc","commune_name_en":"Tung Loc","commune_full_name":"Xã Tùng Lộc","commune_full_name_en":"Tung Loc Commune","commune_slug":"tung_loc","unit_type":"Xã","unit_type_en":"Commune","admin_level":2,"province_code":"42","province_name":"Hà Tĩnh","province_full_name":"Tỉnh Hà Tĩnh","province_slug":"ha_tinh","join_key":"18418","status":"active","dataset_effective_date":"2026-04-30","catalog_version":"2026-07-12","geometry_status":"not_embedded_boundary_available_by_url","boundary_source_url":"https://raw.githubusercontent.com/thanglequoc/vietnamese-provinces-database/master/json/geojson/42_ha_tinh/wards/18418_tung_loc.geojson","boundary_source_page":"https://github.com/thanglequoc/vietnamese-provinces-database/blob/master/json/geojson/42_ha_tinh/wards/18418_tung_loc.geojson","source_catalog":"https://github.com/thanglequoc/vietnamese-provinces-database"},"geometry":null},{"type":"Feature","id":"18436","properties":{"commune_code":"18436","commune_name":"Trường Lưu","commune_name_en":"Truong Luu","commune_full_name":"Xã Trường Lưu","commune_full_name_en":"Truong Luu Commune","commune_slug":"truong_luu","unit_type":"Xã","unit_type_en":"Commune","admin_level":2,"province_code":"42","province_name":"Hà Tĩnh","province_full_name":"Tỉnh Hà Tĩnh","province_slug":"ha_tinh","join_key":"18436","status":"active","dataset_effective_date":"2026-04-30","catalog_version":"2026-07-12","geometry_status":"not_embedded_boundary_available_by_url","boundary_source_url":"https://raw.githubusercontent.com/thanglequoc/vietnamese-provinces-database/master/json/geojson/42_ha_tinh/wards/18436_truong_luu.geojson","boundary_source_page":"https://github.com/thanglequoc/vietnamese-provinces-database/blob/master/json/geojson/42_ha_tinh/wards/18436_truong_luu.geojson","source_catalog":"https://github.com/thanglequoc/vietnamese-provinces-database"},"geometry":null},{"type":"Feature","id":"18466","properties":{"commune_code":"18466","commune_name":"Gia Hanh","commune_name_en":"Gia Hanh","commune_full_name":"Xã Gia Hanh","commune_full_name_en":"Gia Hanh Commune","commune_slug":"gia_hanh","unit_type":"Xã","unit_type_en":"Commune","admin_level":2,"province_code":"42","province_name":"Hà Tĩnh","province_full_name":"Tỉnh Hà Tĩnh","province_slug":"ha_tinh","join_key":"18466","status":"active","dataset_effective_date":"2026-04-30","catalog_version":"2026-07-12","geometry_status":"not_embedded_boundary_available_by_url","boundary_source_url":"https://raw.githubusercontent.com/thanglequoc/vietnamese-provinces-database/master/json/geojson/42_ha_tinh/wards/18466_gia_hanh.geojson","boundary_source_page":"https://github.com/thanglequoc/vietnamese-provinces-database/blob/master/json/geojson/42_ha_tinh/wards/18466_gia_hanh.geojson","source_catalog":"https://github.com/thanglequoc/vietnamese-provinces-database"},"geometry":null},{"type":"Feature","id":"18481","properties":{"commune_code":"18481","commune_name":"Xuân Lộc","commune_name_en":"Xuan Loc","commune_full_name":"Xã Xuân Lộc","commune_full_name_en":"Xuan Loc Commune","commune_slug":"xuan_loc","unit_type":"Xã","unit_type_en":"Commune","admin_level":2,"province_code":"42","province_name":"Hà Tĩnh","province_full_name":"Tỉnh Hà Tĩnh","province_slug":"ha_tinh","join_key":"18481","status":"active","dataset_effective_date":"2026-04-30","catalog_version":"2026-07-12","geometry_status":"not_embedded_boundary_available_by_url","boundary_source_url":"https://raw.githubusercontent.com/thanglequoc/vietnamese-provinces-database/master/json/geojson/42_ha_tinh/wards/18481_xuan_loc.geojson","boundary_source_page":"https://github.com/thanglequoc/vietnamese-provinces-database/blob/master/json/geojson/42_ha_tinh/wards/18481_xuan_loc.geojson","source_catalog":"https://github.com/thanglequoc/vietnamese-provinces-database"},"geometry":null},{"type":"Feature","id":"18484","properties":{"commune_code":"18484","commune_name":"Đồng Lộc","commune_name_en":"Dong Loc","commune_full_name":"Xã Đồng Lộc","commune_full_name_en":"Dong Loc Commune","commune_slug":"dong_loc","unit_type":"Xã","unit_type_en":"Commune","admin_level":2,"province_code":"42","province_name":"Hà Tĩnh","province_full_name":"Tỉnh Hà Tĩnh","province_slug":"ha_tinh","join_key":"18484","status":"active","dataset_effective_date":"2026-04-30","catalog_version":"2026-07-12","geometry_status":"not_embedded_boundary_available_by_url","boundary_source_url":"https://raw.githubusercontent.com/thanglequoc/vietnamese-provinces-database/master/json/geojson/42_ha_tinh/wards/18484_dong_loc.geojson","boundary_source_page":"https://github.com/thanglequoc/vietnamese-provinces-database/blob/master/json/geojson/42_ha_tinh/wards/18484_dong_loc.geojson","source_catalog":"https://github.com/thanglequoc/vietnamese-provinces-database"},"geometry":null},{"type":"Feature","id":"18496","properties":{"commune_code":"18496","commune_name":"Hương Khê","commune_name_en":"Huong Khe","commune_full_name":"Xã Hương Khê","commune_full_name_en":"Huong Khe Commune","commune_slug":"huong_khe","unit_type":"Xã","unit_type_en":"Commune","admin_level":2,"province_code":"42","province_name":"Hà Tĩnh","province_full_name":"Tỉnh Hà Tĩnh","province_slug":"ha_tinh","join_key":"18496","status":"active","dataset_effective_date":"2026-04-30","catalog_version":"2026-07-12","geometry_status":"not_embedded_boundary_available_by_url","boundary_source_url":"https://raw.githubusercontent.com/thanglequoc/vietnamese-provinces-database/master/json/geojson/42_ha_tinh/wards/18496_huong_khe.geojson","boundary_source_page":"https://github.com/thanglequoc/vietnamese-provinces-database/blob/master/json/geojson/42_ha_tinh/wards/18496_huong_khe.geojson","source_catalog":"https://github.com/thanglequoc/vietnamese-provinces-database"},"geometry":null},{"type":"Feature","id":"18502","properties":{"commune_code":"18502","commune_name":"Hà Linh","commune_name_en":"Ha Linh","commune_full_name":"Xã Hà Linh","commune_full_name_en":"Ha Linh Commune","commune_slug":"ha_linh","unit_type":"Xã","unit_type_en":"Commune","admin_level":2,"province_code":"42","province_name":"Hà Tĩnh","province_full_name":"Tỉnh Hà Tĩnh","province_slug":"ha_tinh","join_key":"18502","status":"active","dataset_effective_date":"2026-04-30","catalog_version":"2026-07-12","geometry_status":"not_embedded_boundary_available_by_url","boundary_source_url":"https://raw.githubusercontent.com/thanglequoc/vietnamese-provinces-database/master/json/geojson/42_ha_tinh/wards/18502_ha_linh.geojson","boundary_source_page":"https://github.com/thanglequoc/vietnamese-provinces-database/blob/master/json/geojson/42_ha_tinh/wards/18502_ha_linh.geojson","source_catalog":"https://github.com/thanglequoc/vietnamese-provinces-database"},"geometry":null},{"type":"Feature","id":"18523","properties":{"commune_code":"18523","commune_name":"Hương Bình","commune_name_en":"Huong Binh","commune_full_name":"Xã Hương Bình","commune_full_name_en":"Huong Binh Commune","commune_slug":"huong_binh","unit_type":"Xã","unit_type_en":"Commune","admin_level":2,"province_code":"42","province_name":"Hà Tĩnh","province_full_name":"Tỉnh Hà Tĩnh","province_slug":"ha_tinh","join_key":"18523","status":"active","dataset_effective_date":"2026-04-30","catalog_version":"2026-07-12","geometry_status":"not_embedded_boundary_available_by_url","boundary_source_url":"https://raw.githubusercontent.com/thanglequoc/vietnamese-provinces-database/master/json/geojson/42_ha_tinh/wards/18523_huong_binh.geojson","boundary_source_page":"https://github.com/thanglequoc/vietnamese-provinces-database/blob/master/json/geojson/42_ha_tinh/wards/18523_huong_binh.geojson","source_catalog":"https://github.com/thanglequoc/vietnamese-provinces-database"},"geometry":null},{"type":"Feature","id":"18532","properties":{"commune_code":"18532","commune_name":"Hương Phố","commune_name_en":"Huong Pho","commune_full_name":"Xã Hương Phố","commune_full_name_en":"Huong Pho Commune","commune_slug":"huong_pho","unit_type":"Xã","unit_type_en":"Commune","admin_level":2,"province_code":"42","province_name":"Hà Tĩnh","province_full_name":"Tỉnh Hà Tĩnh","province_slug":"ha_tinh","join_key":"18532","status":"active","dataset_effective_date":"2026-04-30","catalog_version":"2026-07-12","geometry_status":"not_embedded_boundary_available_by_url","boundary_source_url":"https://raw.githubusercontent.com/thanglequoc/vietnamese-provinces-database/master/json/geojson/42_ha_tinh/wards/18532_huong_pho.geojson","boundary_source_page":"https://github.com/thanglequoc/vietnamese-provinces-database/blob/master/json/geojson/42_ha_tinh/wards/18532_huong_pho.geojson","source_catalog":"https://github.com/thanglequoc/vietnamese-provinces-database"},"geometry":null},{"type":"Feature","id":"18544","properties":{"commune_code":"18544","commune_name":"Hương Xuân","commune_name_en":"Huong Xuan","commune_full_name":"Xã Hương Xuân","commune_full_name_en":"Huong Xuan Commune","commune_slug":"huong_xuan","unit_type":"Xã","unit_type_en":"Commune","admin_level":2,"province_code":"42","province_name":"Hà Tĩnh","province_full_name":"Tỉnh Hà Tĩnh","province_slug":"ha_tinh","join_key":"18544","status":"active","dataset_effective_date":"2026-04-30","catalog_version":"2026-07-12","geometry_status":"not_embedded_boundary_available_by_url","boundary_source_url":"https://raw.githubusercontent.com/thanglequoc/vietnamese-provinces-database/master/json/geojson/42_ha_tinh/wards/18544_huong_xuan.geojson","boundary_source_page":"https://github.com/thanglequoc/vietnamese-provinces-database/blob/master/json/geojson/42_ha_tinh/wards/18544_huong_xuan.geojson","source_catalog":"https://github.com/thanglequoc/vietnamese-provinces-database"},"geometry":null},{"type":"Feature","id":"18547","properties":{"commune_code":"18547","commune_name":"Phúc Trạch","commune_name_en":"Phuc Trach","commune_full_name":"Xã Phúc Trạch","commune_full_name_en":"Phuc Trach Commune","commune_slug":"phuc_trach","unit_type":"Xã","unit_type_en":"Commune","admin_level":2,"province_code":"42","province_name":"Hà Tĩnh","province_full_name":"Tỉnh Hà Tĩnh","province_slug":"ha_tinh","join_key":"18547","status":"active","dataset_effective_date":"2026-04-30","catalog_version":"2026-07-12","geometry_status":"not_embedded_boundary_available_by_url","boundary_source_url":"https://raw.githubusercontent.com/thanglequoc/vietnamese-provinces-database/master/json/geojson/42_ha_tinh/wards/18547_phuc_trach.geojson","boundary_source_page":"https://github.com/thanglequoc/vietnamese-provinces-database/blob/master/json/geojson/42_ha_tinh/wards/18547_phuc_trach.geojson","source_catalog":"https://github.com/thanglequoc/vietnamese-provinces-database"},"geometry":null},{"type":"Feature","id":"18550","properties":{"commune_code":"18550","commune_name":"Hương Đô","commune_name_en":"Huong Do","commune_full_name":"Xã Hương Đô","commune_full_name_en":"Huong Do Commune","commune_slug":"huong_do","unit_type":"Xã","unit_type_en":"Commune","admin_level":2,"province_code":"42","province_name":"Hà Tĩnh","province_full_name":"Tỉnh Hà Tĩnh","province_slug":"ha_tinh","join_key":"18550","status":"active","dataset_effective_date":"2026-04-30","catalog_version":"2026-07-12","geometry_status":"not_embedded_boundary_available_by_url","boundary_source_url":"https://raw.githubusercontent.com/thanglequoc/vietnamese-provinces-database/master/json/geojson/42_ha_tinh/wards/18550_huong_do.geojson","boundary_source_page":"https://github.com/thanglequoc/vietnamese-provinces-database/blob/master/json/geojson/42_ha_tinh/wards/18550_huong_do.geojson","source_catalog":"https://github.com/thanglequoc/vietnamese-provinces-database"},"geometry":null},{"type":"Feature","id":"18562","properties":{"commune_code":"18562","commune_name":"Thạch Hà","commune_name_en":"Thach Ha","commune_full_name":"Xã Thạch Hà","commune_full_name_en":"Thach Ha Commune","commune_slug":"thach_ha","unit_type":"Xã","unit_type_en":"Commune","admin_level":2,"province_code":"42","province_name":"Hà Tĩnh","province_full_name":"Tỉnh Hà Tĩnh","province_slug":"ha_tinh","join_key":"18562","status":"active","dataset_effective_date":"2026-04-30","catalog_version":"2026-07-12","geometry_status":"not_embedded_boundary_available_by_url","boundary_source_url":"https://raw.githubusercontent.com/thanglequoc/vietnamese-provinces-database/master/json/geojson/42_ha_tinh/wards/18562_thach_ha.geojson","boundary_source_page":"https://github.com/thanglequoc/vietnamese-provinces-database/blob/master/json/geojson/42_ha_tinh/wards/18562_thach_ha.geojson","source_catalog":"https://github.com/thanglequoc/vietnamese-provinces-database"},"geometry":null},{"type":"Feature","id":"18568","properties":{"commune_code":"18568","commune_name":"Lộc Hà","commune_name_en":"Loc Ha","commune_full_name":"Xã Lộc Hà","commune_full_name_en":"Loc Ha Commune","commune_slug":"loc_ha","unit_type":"Xã","unit_type_en":"Commune","admin_level":2,"province_code":"42","province_name":"Hà Tĩnh","province_full_name":"Tỉnh Hà Tĩnh","province_slug":"ha_tinh","join_key":"18568","status":"active","dataset_effective_date":"2026-04-30","catalog_version":"2026-07-12","geometry_status":"not_embedded_boundary_available_by_url","boundary_source_url":"https://raw.githubusercontent.com/thanglequoc/vietnamese-provinces-database/master/json/geojson/42_ha_tinh/wards/18568_loc_ha.geojson","boundary_source_page":"https://github.com/thanglequoc/vietnamese-provinces-database/blob/master/json/geojson/42_ha_tinh/wards/18568_loc_ha.geojson","source_catalog":"https://github.com/thanglequoc/vietnamese-provinces-database"},"geometry":null},{"type":"Feature","id":"18583","properties":{"commune_code":"18583","commune_name":"Mai Phụ","commune_name_en":"Mai Phu","commune_full_name":"Xã Mai Phụ","commune_full_name_en":"Mai Phu Commune","commune_slug":"mai_phu","unit_type":"Xã","unit_type_en":"Commune","admin_level":2,"province_code":"42","province_name":"Hà Tĩnh","province_full_name":"Tỉnh Hà Tĩnh","province_slug":"ha_tinh","join_key":"18583","status":"active","dataset_effective_date":"2026-04-30","catalog_version":"2026-07-12","geometry_status":"not_embedded_boundary_available_by_url","boundary_source_url":"https://raw.githubusercontent.com/thanglequoc/vietnamese-provinces-database/master/json/geojson/42_ha_tinh/wards/18583_mai_phu.geojson","boundary_source_page":"https://github.com/thanglequoc/vietnamese-provinces-database/blob/master/json/geojson/42_ha_tinh/wards/18583_mai_phu.geojson","source_catalog":"https://github.com/thanglequoc/vietnamese-provinces-database"},"geometry":null},{"type":"Feature","id":"18586","properties":{"commune_code":"18586","commune_name":"Đông Kinh","commune_name_en":"Dong Kinh","commune_full_name":"Xã Đông Kinh","commune_full_name_en":"Dong Kinh Commune","commune_slug":"dong_kinh","unit_type":"Xã","unit_type_en":"Commune","admin_level":2,"province_code":"42","province_name":"Hà Tĩnh","province_full_name":"Tỉnh Hà Tĩnh","province_slug":"ha_tinh","join_key":"18586","status":"active","dataset_effective_date":"2026-04-30","catalog_version":"2026-07-12","geometry_status":"not_embedded_boundary_available_by_url","boundary_source_url":"https://raw.githubusercontent.com/thanglequoc/vietnamese-provinces-database/master/json/geojson/42_ha_tinh/wards/18586_dong_kinh.geojson","boundary_source_page":"https://github.com/thanglequoc/vietnamese-provinces-database/blob/master/json/geojson/42_ha_tinh/wards/18586_dong_kinh.geojson","source_catalog":"https://github.com/thanglequoc/vietnamese-provinces-database"},"geometry":null},{"type":"Feature","id":"18601","properties":{"commune_code":"18601","commune_name":"Việt Xuyên","commune_name_en":"Viet Xuyen","commune_full_name":"Xã Việt Xuyên","commune_full_name_en":"Viet Xuyen Commune","commune_slug":"viet_xuyen","unit_type":"Xã","unit_type_en":"Commune","admin_level":2,"province_code":"42","province_name":"Hà Tĩnh","province_full_name":"Tỉnh Hà Tĩnh","province_slug":"ha_tinh","join_key":"18601","status":"active","dataset_effective_date":"2026-04-30","catalog_version":"2026-07-12","geometry_status":"not_embedded_boundary_available_by_url","boundary_source_url":"https://raw.githubusercontent.com/thanglequoc/vietnamese-provinces-database/master/json/geojson/42_ha_tinh/wards/18601_viet_xuyen.geojson","boundary_source_page":"https://github.com/thanglequoc/vietnamese-provinces-database/blob/master/json/geojson/42_ha_tinh/wards/18601_viet_xuyen.geojson","source_catalog":"https://github.com/thanglequoc/vietnamese-provinces-database"},"geometry":null},{"type":"Feature","id":"18604","properties":{"commune_code":"18604","commune_name":"Thạch Khê","commune_name_en":"Thach Khe","commune_full_name":"Xã Thạch Khê","commune_full_name_en":"Thach Khe Commune","commune_slug":"thach_khe","unit_type":"Xã","unit_type_en":"Commune","admin_level":2,"province_code":"42","province_name":"Hà Tĩnh","province_full_name":"Tỉnh Hà Tĩnh","province_slug":"ha_tinh","join_key":"18604","status":"active","dataset_effective_date":"2026-04-30","catalog_version":"2026-07-12","geometry_status":"not_embedded_boundary_available_by_url","boundary_source_url":"https://raw.githubusercontent.com/thanglequoc/vietnamese-provinces-database/master/json/geojson/42_ha_tinh/wards/18604_thach_khe.geojson","boundary_source_page":"https://github.com/thanglequoc/vietnamese-provinces-database/blob/master/json/geojson/42_ha_tinh/wards/18604_thach_khe.geojson","source_catalog":"https://github.com/thanglequoc/vietnamese-provinces-database"},"geometry":null},{"type":"Feature","id":"18619","properties":{"commune_code":"18619","commune_name":"Đồng Tiến","commune_name_en":"Dong Tien","commune_full_name":"Xã Đồng Tiến","commune_full_name_en":"Dong Tien Commune","commune_slug":"dong_tien","unit_type":"Xã","unit_type_en":"Commune","admin_level":2,"province_code":"42","province_name":"Hà Tĩnh","province_full_name":"Tỉnh Hà Tĩnh","province_slug":"ha_tinh","join_key":"18619","status":"active","dataset_effective_date":"2026-04-30","catalog_version":"2026-07-12","geometry_status":"not_embedded_boundary_available_by_url","boundary_source_url":"https://raw.githubusercontent.com/thanglequoc/vietnamese-provinces-database/master/json/geojson/42_ha_tinh/wards/18619_dong_tien.geojson","boundary_source_page":"https://github.com/thanglequoc/vietnamese-provinces-database/blob/master/json/geojson/42_ha_tinh/wards/18619_dong_tien.geojson","source_catalog":"https://github.com/thanglequoc/vietnamese-provinces-database"},"geometry":null},{"type":"Feature","id":"18628","properties":{"commune_code":"18628","commune_name":"Thạch Lạc","commune_name_en":"Thach Lac","commune_full_name":"Xã Thạch Lạc","commune_full_name_en":"Thach Lac Commune","commune_slug":"thach_lac","unit_type":"Xã","unit_type_en":"Commune","admin_level":2,"province_code":"42","province_name":"Hà Tĩnh","province_full_name":"Tỉnh Hà Tĩnh","province_slug":"ha_tinh","join_key":"18628","status":"active","dataset_effective_date":"2026-04-30","catalog_version":"2026-07-12","geometry_status":"not_embedded_boundary_available_by_url","boundary_source_url":"https://raw.githubusercontent.com/thanglequoc/vietnamese-provinces-database/master/json/geojson/42_ha_tinh/wards/18628_thach_lac.geojson","boundary_source_page":"https://github.com/thanglequoc/vietnamese-provinces-database/blob/master/json/geojson/42_ha_tinh/wards/18628_thach_lac.geojson","source_catalog":"https://github.com/thanglequoc/vietnamese-provinces-database"},"geometry":null},{"type":"Feature","id":"18634","properties":{"commune_code":"18634","commune_name":"Toàn Lưu","commune_name_en":"Toan Luu","commune_full_name":"Xã Toàn Lưu","commune_full_name_en":"Toan Luu Commune","commune_slug":"toan_luu","unit_type":"Xã","unit_type_en":"Commune","admin_level":2,"province_code":"42","province_name":"Hà Tĩnh","province_full_name":"Tỉnh Hà Tĩnh","province_slug":"ha_tinh","join_key":"18634","status":"active","dataset_effective_date":"2026-04-30","catalog_version":"2026-07-12","geometry_status":"not_embedded_boundary_available_by_url","boundary_source_url":"https://raw.githubusercontent.com/thanglequoc/vietnamese-provinces-database/master/json/geojson/42_ha_tinh/wards/18634_toan_luu.geojson","boundary_source_page":"https://github.com/thanglequoc/vietnamese-provinces-database/blob/master/json/geojson/42_ha_tinh/wards/18634_toan_luu.geojson","source_catalog":"https://github.com/thanglequoc/vietnamese-provinces-database"},"geometry":null},{"type":"Feature","id":"18652","properties":{"commune_code":"18652","commune_name":"Hà Huy Tập","commune_name_en":"Ha Huy Tap","commune_full_name":"Phường Hà Huy Tập","commune_full_name_en":"Ha Huy Tap Ward","commune_slug":"ha_huy_tap","unit_type":"Phường","unit_type_en":"Ward","admin_level":2,"province_code":"42","province_name":"Hà Tĩnh","province_full_name":"Tỉnh Hà Tĩnh","province_slug":"ha_tinh","join_key":"18652","status":"active","dataset_effective_date":"2026-04-30","catalog_version":"2026-07-12","geometry_status":"not_embedded_boundary_available_by_url","boundary_source_url":"https://raw.githubusercontent.com/thanglequoc/vietnamese-provinces-database/master/json/geojson/42_ha_tinh/wards/18652_ha_huy_tap.geojson","boundary_source_page":"https://github.com/thanglequoc/vietnamese-provinces-database/blob/master/json/geojson/42_ha_tinh/wards/18652_ha_huy_tap.geojson","source_catalog":"https://github.com/thanglequoc/vietnamese-provinces-database"},"geometry":null},{"type":"Feature","id":"18667","properties":{"commune_code":"18667","commune_name":"Thạch Xuân","commune_name_en":"Thach Xuan","commune_full_name":"Xã Thạch Xuân","commune_full_name_en":"Thach Xuan Commune","commune_slug":"thach_xuan","unit_type":"Xã","unit_type_en":"Commune","admin_level":2,"province_code":"42","province_name":"Hà Tĩnh","province_full_name":"Tỉnh Hà Tĩnh","province_slug":"ha_tinh","join_key":"18667","status":"active","dataset_effective_date":"2026-04-30","catalog_version":"2026-07-12","geometry_status":"not_embedded_boundary_available_by_url","boundary_source_url":"https://raw.githubusercontent.com/thanglequoc/vietnamese-provinces-database/master/json/geojson/42_ha_tinh/wards/18667_thach_xuan.geojson","boundary_source_page":"https://github.com/thanglequoc/vietnamese-provinces-database/blob/master/json/geojson/42_ha_tinh/wards/18667_thach_xuan.geojson","source_catalog":"https://github.com/thanglequoc/vietnamese-provinces-database"},"geometry":null},{"type":"Feature","id":"18673","properties":{"commune_code":"18673","commune_name":"Cẩm Xuyên","commune_name_en":"Cam Xuyen","commune_full_name":"Xã Cẩm Xuyên","commune_full_name_en":"Cam Xuyen Commune","commune_slug":"cam_xuyen","unit_type":"Xã","unit_type_en":"Commune","admin_level":2,"province_code":"42","province_name":"Hà Tĩnh","province_full_name":"Tỉnh Hà Tĩnh","province_slug":"ha_tinh","join_key":"18673","status":"active","dataset_effective_date":"2026-04-30","catalog_version":"2026-07-12","geometry_status":"not_embedded_boundary_available_by_url","boundary_source_url":"https://raw.githubusercontent.com/thanglequoc/vietnamese-provinces-database/master/json/geojson/42_ha_tinh/wards/18673_cam_xuyen.geojson","boundary_source_page":"https://github.com/thanglequoc/vietnamese-provinces-database/blob/master/json/geojson/42_ha_tinh/wards/18673_cam_xuyen.geojson","source_catalog":"https://github.com/thanglequoc/vietnamese-provinces-database"},"geometry":null},{"type":"Feature","id":"18676","properties":{"commune_code":"18676","commune_name":"Thiên Cầm","commune_name_en":"Thien Cam","commune_full_name":"Xã Thiên Cầm","commune_full_name_en":"Thien Cam Commune","commune_slug":"thien_cam","unit_type":"Xã","unit_type_en":"Commune","admin_level":2,"province_code":"42","province_name":"Hà Tĩnh","province_full_name":"Tỉnh Hà Tĩnh","province_slug":"ha_tinh","join_key":"18676","status":"active","dataset_effective_date":"2026-04-30","catalog_version":"2026-07-12","geometry_status":"not_embedded_boundary_available_by_url","boundary_source_url":"https://raw.githubusercontent.com/thanglequoc/vietnamese-provinces-database/master/json/geojson/42_ha_tinh/wards/18676_thien_cam.geojson","boundary_source_page":"https://github.com/thanglequoc/vietnamese-provinces-database/blob/master/json/geojson/42_ha_tinh/wards/18676_thien_cam.geojson","source_catalog":"https://github.com/thanglequoc/vietnamese-provinces-database"},"geometry":null},{"type":"Feature","id":"18682","properties":{"commune_code":"18682","commune_name":"Yên Hoà","commune_name_en":"Yen Hoa","commune_full_name":"Xã Yên Hoà","commune_full_name_en":"Yen Hoa Commune","commune_slug":"yen_hoa","unit_type":"Xã","unit_type_en":"Commune","admin_level":2,"province_code":"42","province_name":"Hà Tĩnh","province_full_name":"Tỉnh Hà Tĩnh","province_slug":"ha_tinh","join_key":"18682","status":"active","dataset_effective_date":"2026-04-30","catalog_version":"2026-07-12","geometry_status":"not_embedded_boundary_available_by_url","boundary_source_url":"https://raw.githubusercontent.com/thanglequoc/vietnamese-provinces-database/master/json/geojson/42_ha_tinh/wards/18682_yen_hoa.geojson","boundary_source_page":"https://github.com/thanglequoc/vietnamese-provinces-database/blob/master/json/geojson/42_ha_tinh/wards/18682_yen_hoa.geojson","source_catalog":"https://github.com/thanglequoc/vietnamese-provinces-database"},"geometry":null},{"type":"Feature","id":"18685","properties":{"commune_code":"18685","commune_name":"Cẩm Bình","commune_name_en":"Cam Binh","commune_full_name":"Xã Cẩm Bình","commune_full_name_en":"Cam Binh Commune","commune_slug":"cam_binh","unit_type":"Xã","unit_type_en":"Commune","admin_level":2,"province_code":"42","province_name":"Hà Tĩnh","province_full_name":"Tỉnh Hà Tĩnh","province_slug":"ha_tinh","join_key":"18685","status":"active","dataset_effective_date":"2026-04-30","catalog_version":"2026-07-12","geometry_status":"not_embedded_boundary_available_by_url","boundary_source_url":"https://raw.githubusercontent.com/thanglequoc/vietnamese-provinces-database/master/json/geojson/42_ha_tinh/wards/18685_cam_binh.geojson","boundary_source_page":"https://github.com/thanglequoc/vietnamese-provinces-database/blob/master/json/geojson/42_ha_tinh/wards/18685_cam_binh.geojson","source_catalog":"https://github.com/thanglequoc/vietnamese-provinces-database"},"geometry":null},{"type":"Feature","id":"18736","properties":{"commune_code":"18736","commune_name":"Cẩm Hưng","commune_name_en":"Cam Hung","commune_full_name":"Xã Cẩm Hưng","commune_full_name_en":"Cam Hung Commune","commune_slug":"cam_hung","unit_type":"Xã","unit_type_en":"Commune","admin_level":2,"province_code":"42","province_name":"Hà Tĩnh","province_full_name":"Tỉnh Hà Tĩnh","province_slug":"ha_tinh","join_key":"18736","status":"active","dataset_effective_date":"2026-04-30","catalog_version":"2026-07-12","geometry_status":"not_embedded_boundary_available_by_url","boundary_source_url":"https://raw.githubusercontent.com/thanglequoc/vietnamese-provinces-database/master/json/geojson/42_ha_tinh/wards/18736_cam_hung.geojson","boundary_source_page":"https://github.com/thanglequoc/vietnamese-provinces-database/blob/master/json/geojson/42_ha_tinh/wards/18736_cam_hung.geojson","source_catalog":"https://github.com/thanglequoc/vietnamese-provinces-database"},"geometry":null},{"type":"Feature","id":"18739","properties":{"commune_code":"18739","commune_name":"Cẩm Duệ","commune_name_en":"Cam Due","commune_full_name":"Xã Cẩm Duệ","commune_full_name_en":"Cam Due Commune","commune_slug":"cam_due","unit_type":"Xã","unit_type_en":"Commune","admin_level":2,"province_code":"42","province_name":"Hà Tĩnh","province_full_name":"Tỉnh Hà Tĩnh","province_slug":"ha_tinh","join_key":"18739","status":"active","dataset_effective_date":"2026-04-30","catalog_version":"2026-07-12","geometry_status":"not_embedded_boundary_available_by_url","boundary_source_url":"https://raw.githubusercontent.com/thanglequoc/vietnamese-provinces-database/master/json/geojson/42_ha_tinh/wards/18739_cam_due.geojson","boundary_source_page":"https://github.com/thanglequoc/vietnamese-provinces-database/blob/master/json/geojson/42_ha_tinh/wards/18739_cam_due.geojson","source_catalog":"https://github.com/thanglequoc/vietnamese-provinces-database"},"geometry":null},{"type":"Feature","id":"18742","properties":{"commune_code":"18742","commune_name":"Cẩm Trung","commune_name_en":"Cam Trung","commune_full_name":"Xã Cẩm Trung","commune_full_name_en":"Cam Trung Commune","commune_slug":"cam_trung","unit_type":"Xã","unit_type_en":"Commune","admin_level":2,"province_code":"42","province_name":"Hà Tĩnh","province_full_name":"Tỉnh Hà Tĩnh","province_slug":"ha_tinh","join_key":"18742","status":"active","dataset_effective_date":"2026-04-30","catalog_version":"2026-07-12","geometry_status":"not_embedded_boundary_available_by_url","boundary_source_url":"https://raw.githubusercontent.com/thanglequoc/vietnamese-provinces-database/master/json/geojson/42_ha_tinh/wards/18742_cam_trung.geojson","boundary_source_page":"https://github.com/thanglequoc/vietnamese-provinces-database/blob/master/json/geojson/42_ha_tinh/wards/18742_cam_trung.geojson","source_catalog":"https://github.com/thanglequoc/vietnamese-provinces-database"},"geometry":null},{"type":"Feature","id":"18748","properties":{"commune_code":"18748","commune_name":"Cẩm Lạc","commune_name_en":"Cam Lac","commune_full_name":"Xã Cẩm Lạc","commune_full_name_en":"Cam Lac Commune","commune_slug":"cam_lac","unit_type":"Xã","unit_type_en":"Commune","admin_level":2,"province_code":"42","province_name":"Hà Tĩnh","province_full_name":"Tỉnh Hà Tĩnh","province_slug":"ha_tinh","join_key":"18748","status":"active","dataset_effective_date":"2026-04-30","catalog_version":"2026-07-12","geometry_status":"not_embedded_boundary_available_by_url","boundary_source_url":"https://raw.githubusercontent.com/thanglequoc/vietnamese-provinces-database/master/json/geojson/42_ha_tinh/wards/18748_cam_lac.geojson","boundary_source_page":"https://github.com/thanglequoc/vietnamese-provinces-database/blob/master/json/geojson/42_ha_tinh/wards/18748_cam_lac.geojson","source_catalog":"https://github.com/thanglequoc/vietnamese-provinces-database"},"geometry":null},{"type":"Feature","id":"18754","properties":{"commune_code":"18754","commune_name":"Sông Trí","commune_name_en":"Song Tri","commune_full_name":"Phường Sông Trí","commune_full_name_en":"Song Tri Ward","commune_slug":"song_tri","unit_type":"Phường","unit_type_en":"Ward","admin_level":2,"province_code":"42","province_name":"Hà Tĩnh","province_full_name":"Tỉnh Hà Tĩnh","province_slug":"ha_tinh","join_key":"18754","status":"active","dataset_effective_date":"2026-04-30","catalog_version":"2026-07-12","geometry_status":"not_embedded_boundary_available_by_url","boundary_source_url":"https://raw.githubusercontent.com/thanglequoc/vietnamese-provinces-database/master/json/geojson/42_ha_tinh/wards/18754_song_tri.geojson","boundary_source_page":"https://github.com/thanglequoc/vietnamese-provinces-database/blob/master/json/geojson/42_ha_tinh/wards/18754_song_tri.geojson","source_catalog":"https://github.com/thanglequoc/vietnamese-provinces-database"},"geometry":null},{"type":"Feature","id":"18766","properties":{"commune_code":"18766","commune_name":"Kỳ Xuân","commune_name_en":"Ky Xuan","commune_full_name":"Xã Kỳ Xuân","commune_full_name_en":"Ky Xuan Commune","commune_slug":"ky_xuan","unit_type":"Xã","unit_type_en":"Commune","admin_level":2,"province_code":"42","province_name":"Hà Tĩnh","province_full_name":"Tỉnh Hà Tĩnh","province_slug":"ha_tinh","join_key":"18766","status":"active","dataset_effective_date":"2026-04-30","catalog_version":"2026-07-12","geometry_status":"not_embedded_boundary_available_by_url","boundary_source_url":"https://raw.githubusercontent.com/thanglequoc/vietnamese-provinces-database/master/json/geojson/42_ha_tinh/wards/18766_ky_xuan.geojson","boundary_source_page":"https://github.com/thanglequoc/vietnamese-provinces-database/blob/master/json/geojson/42_ha_tinh/wards/18766_ky_xuan.geojson","source_catalog":"https://github.com/thanglequoc/vietnamese-provinces-database"},"geometry":null},{"type":"Feature","id":"18775","properties":{"commune_code":"18775","commune_name":"Kỳ Anh","commune_name_en":"Ky Anh","commune_full_name":"Xã Kỳ Anh","commune_full_name_en":"Ky Anh Commune","commune_slug":"ky_anh","unit_type":"Xã","unit_type_en":"Commune","admin_level":2,"province_code":"42","province_name":"Hà Tĩnh","province_full_name":"Tỉnh Hà Tĩnh","province_slug":"ha_tinh","join_key":"18775","status":"active","dataset_effective_date":"2026-04-30","catalog_version":"2026-07-12","geometry_status":"not_embedded_boundary_available_by_url","boundary_source_url":"https://raw.githubusercontent.com/thanglequoc/vietnamese-provinces-database/master/json/geojson/42_ha_tinh/wards/18775_ky_anh.geojson","boundary_source_page":"https://github.com/thanglequoc/vietnamese-provinces-database/blob/master/json/geojson/42_ha_tinh/wards/18775_ky_anh.geojson","source_catalog":"https://github.com/thanglequoc/vietnamese-provinces-database"},"geometry":null},{"type":"Feature","id":"18781","properties":{"commune_code":"18781","commune_name":"Hải Ninh","commune_name_en":"Hai Ninh","commune_full_name":"Phường Hải Ninh","commune_full_name_en":"Hai Ninh Ward","commune_slug":"hai_ninh","unit_type":"Phường","unit_type_en":"Ward","admin_level":2,"province_code":"42","province_name":"Hà Tĩnh","province_full_name":"Tỉnh Hà Tĩnh","province_slug":"ha_tinh","join_key":"18781","status":"active","dataset_effective_date":"2026-04-30","catalog_version":"2026-07-12","geometry_status":"not_embedded_boundary_available_by_url","boundary_source_url":"https://raw.githubusercontent.com/thanglequoc/vietnamese-provinces-database/master/json/geojson/42_ha_tinh/wards/18781_hai_ninh.geojson","boundary_source_page":"https://github.com/thanglequoc/vietnamese-provinces-database/blob/master/json/geojson/42_ha_tinh/wards/18781_hai_ninh.geojson","source_catalog":"https://github.com/thanglequoc/vietnamese-provinces-database"},"geometry":null},{"type":"Feature","id":"18787","properties":{"commune_code":"18787","commune_name":"Kỳ Văn","commune_name_en":"Ky Van","commune_full_name":"Xã Kỳ Văn","commune_full_name_en":"Ky Van Commune","commune_slug":"ky_van","unit_type":"Xã","unit_type_en":"Commune","admin_level":2,"province_code":"42","province_name":"Hà Tĩnh","province_full_name":"Tỉnh Hà Tĩnh","province_slug":"ha_tinh","join_key":"18787","status":"active","dataset_effective_date":"2026-04-30","catalog_version":"2026-07-12","geometry_status":"not_embedded_boundary_available_by_url","boundary_source_url":"https://raw.githubusercontent.com/thanglequoc/vietnamese-provinces-database/master/json/geojson/42_ha_tinh/wards/18787_ky_van.geojson","boundary_source_page":"https://github.com/thanglequoc/vietnamese-provinces-database/blob/master/json/geojson/42_ha_tinh/wards/18787_ky_van.geojson","source_catalog":"https://github.com/thanglequoc/vietnamese-provinces-database"},"geometry":null},{"type":"Feature","id":"18790","properties":{"commune_code":"18790","commune_name":"Kỳ Khang","commune_name_en":"Ky Khang","commune_full_name":"Xã Kỳ Khang","commune_full_name_en":"Ky Khang Commune","commune_slug":"ky_khang","unit_type":"Xã","unit_type_en":"Commune","admin_level":2,"province_code":"42","province_name":"Hà Tĩnh","province_full_name":"Tỉnh Hà Tĩnh","province_slug":"ha_tinh","join_key":"18790","status":"active","dataset_effective_date":"2026-04-30","catalog_version":"2026-07-12","geometry_status":"not_embedded_boundary_available_by_url","boundary_source_url":"https://raw.githubusercontent.com/thanglequoc/vietnamese-provinces-database/master/json/geojson/42_ha_tinh/wards/18790_ky_khang.geojson","boundary_source_page":"https://github.com/thanglequoc/vietnamese-provinces-database/blob/master/json/geojson/42_ha_tinh/wards/18790_ky_khang.geojson","source_catalog":"https://github.com/thanglequoc/vietnamese-provinces-database"},"geometry":null},{"type":"Feature","id":"18814","properties":{"commune_code":"18814","commune_name":"Kỳ Hoa","commune_name_en":"Ky Hoa","commune_full_name":"Xã Kỳ Hoa","commune_full_name_en":"Ky Hoa Commune","commune_slug":"ky_hoa","unit_type":"Xã","unit_type_en":"Commune","admin_level":2,"province_code":"42","province_name":"Hà Tĩnh","province_full_name":"Tỉnh Hà Tĩnh","province_slug":"ha_tinh","join_key":"18814","status":"active","dataset_effective_date":"2026-04-30","catalog_version":"2026-07-12","geometry_status":"not_embedded_boundary_available_by_url","boundary_source_url":"https://raw.githubusercontent.com/thanglequoc/vietnamese-provinces-database/master/json/geojson/42_ha_tinh/wards/18814_ky_hoa.geojson","boundary_source_page":"https://github.com/thanglequoc/vietnamese-provinces-database/blob/master/json/geojson/42_ha_tinh/wards/18814_ky_hoa.geojson","source_catalog":"https://github.com/thanglequoc/vietnamese-provinces-database"},"geometry":null},{"type":"Feature","id":"18823","properties":{"commune_code":"18823","commune_name":"Vũng Áng","commune_name_en":"Vung Ang","commune_full_name":"Phường Vũng Áng","commune_full_name_en":"Vung Ang Ward","commune_slug":"vung_ang","unit_type":"Phường","unit_type_en":"Ward","admin_level":2,"province_code":"42","province_name":"Hà Tĩnh","province_full_name":"Tỉnh Hà Tĩnh","province_slug":"ha_tinh","join_key":"18823","status":"active","dataset_effective_date":"2026-04-30","catalog_version":"2026-07-12","geometry_status":"not_embedded_boundary_available_by_url","boundary_source_url":"https://raw.githubusercontent.com/thanglequoc/vietnamese-provinces-database/master/json/geojson/42_ha_tinh/wards/18823_vung_ang.geojson","boundary_source_page":"https://github.com/thanglequoc/vietnamese-provinces-database/blob/master/json/geojson/42_ha_tinh/wards/18823_vung_ang.geojson","source_catalog":"https://github.com/thanglequoc/vietnamese-provinces-database"},"geometry":null},{"type":"Feature","id":"18832","properties":{"commune_code":"18832","commune_name":"Hoành Sơn","commune_name_en":"Hoanh Son","commune_full_name":"Phường Hoành Sơn","commune_full_name_en":"Hoanh Son Ward","commune_slug":"hoanh_son","unit_type":"Phường","unit_type_en":"Ward","admin_level":2,"province_code":"42","province_name":"Hà Tĩnh","province_full_name":"Tỉnh Hà Tĩnh","province_slug":"ha_tinh","join_key":"18832","status":"active","dataset_effective_date":"2026-04-30","catalog_version":"2026-07-12","geometry_status":"not_embedded_boundary_available_by_url","boundary_source_url":"https://raw.githubusercontent.com/thanglequoc/vietnamese-provinces-database/master/json/geojson/42_ha_tinh/wards/18832_hoanh_son.geojson","boundary_source_page":"https://github.com/thanglequoc/vietnamese-provinces-database/blob/master/json/geojson/42_ha_tinh/wards/18832_hoanh_son.geojson","source_catalog":"https://github.com/thanglequoc/vietnamese-provinces-database"},"geometry":null},{"type":"Feature","id":"18838","properties":{"commune_code":"18838","commune_name":"Kỳ Lạc","commune_name_en":"Ky Lac","commune_full_name":"Xã Kỳ Lạc","commune_full_name_en":"Ky Lac Commune","commune_slug":"ky_lac","unit_type":"Xã","unit_type_en":"Commune","admin_level":2,"province_code":"42","province_name":"Hà Tĩnh","province_full_name":"Tỉnh Hà Tĩnh","province_slug":"ha_tinh","join_key":"18838","status":"active","dataset_effective_date":"2026-04-30","catalog_version":"2026-07-12","geometry_status":"not_embedded_boundary_available_by_url","boundary_source_url":"https://raw.githubusercontent.com/thanglequoc/vietnamese-provinces-database/master/json/geojson/42_ha_tinh/wards/18838_ky_lac.geojson","boundary_source_page":"https://github.com/thanglequoc/vietnamese-provinces-database/blob/master/json/geojson/42_ha_tinh/wards/18838_ky_lac.geojson","source_catalog":"https://github.com/thanglequoc/vietnamese-provinces-database"},"geometry":null},{"type":"Feature","id":"18844","properties":{"commune_code":"18844","commune_name":"Kỳ Thượng","commune_name_en":"Ky Thuong","commune_full_name":"Xã Kỳ Thượng","commune_full_name_en":"Ky Thuong Commune","commune_slug":"ky_thuong","unit_type":"Xã","unit_type_en":"Commune","admin_level":2,"province_code":"42","province_name":"Hà Tĩnh","province_full_name":"Tỉnh Hà Tĩnh","province_slug":"ha_tinh","join_key":"18844","status":"active","dataset_effective_date":"2026-04-30","catalog_version":"2026-07-12","geometry_status":"not_embedded_boundary_available_by_url","boundary_source_url":"https://raw.githubusercontent.com/thanglequoc/vietnamese-provinces-database/master/json/geojson/42_ha_tinh/wards/18844_ky_thuong.geojson","boundary_source_page":"https://github.com/thanglequoc/vietnamese-provinces-database/blob/master/json/geojson/42_ha_tinh/wards/18844_ky_thuong.geojson","source_catalog":"https://github.com/thanglequoc/vietnamese-provinces-database"},"geometry":null}]}