{"type":"FeatureCollection","name":"46_hue_communes_attributes","metadata":{"province_code":"46","province_name":"Huế","feature_count":40,"geometry":null,"join_key":"commune_code"},"features":[{"type":"Feature","id":"19753","properties":{"commune_code":"19753","commune_name":"Phú Xuân","commune_name_en":"Phu Xuan","commune_full_name":"Phường Phú Xuân","commune_full_name_en":"Phu Xuan Ward","commune_slug":"phu_xuan","unit_type":"Phường","unit_type_en":"Ward","admin_level":2,"province_code":"46","province_name":"Huế","province_full_name":"Thành phố Huế","province_slug":"hue","join_key":"19753","status":"active","dataset_effective_date":"2026-04-30","catalog_version":"2026-07-12","geometry_status":"not_embedded_boundary_available_by_url","boundary_source_url":"https://raw.githubusercontent.com/thanglequoc/vietnamese-provinces-database/master/json/geojson/46_hue/wards/19753_phu_xuan.geojson","boundary_source_page":"https://github.com/thanglequoc/vietnamese-provinces-database/blob/master/json/geojson/46_hue/wards/19753_phu_xuan.geojson","source_catalog":"https://github.com/thanglequoc/vietnamese-provinces-database"},"geometry":null},{"type":"Feature","id":"19774","properties":{"commune_code":"19774","commune_name":"Kim Long","commune_name_en":"Kim Long","commune_full_name":"Phường Kim Long","commune_full_name_en":"Kim Long Ward","commune_slug":"kim_long","unit_type":"Phường","unit_type_en":"Ward","admin_level":2,"province_code":"46","province_name":"Huế","province_full_name":"Thành phố Huế","province_slug":"hue","join_key":"19774","status":"active","dataset_effective_date":"2026-04-30","catalog_version":"2026-07-12","geometry_status":"not_embedded_boundary_available_by_url","boundary_source_url":"https://raw.githubusercontent.com/thanglequoc/vietnamese-provinces-database/master/json/geojson/46_hue/wards/19774_kim_long.geojson","boundary_source_page":"https://github.com/thanglequoc/vietnamese-provinces-database/blob/master/json/geojson/46_hue/wards/19774_kim_long.geojson","source_catalog":"https://github.com/thanglequoc/vietnamese-provinces-database"},"geometry":null},{"type":"Feature","id":"19777","properties":{"commune_code":"19777","commune_name":"Vỹ Dạ","commune_name_en":"Vy Da","commune_full_name":"Phường Vỹ Dạ","commune_full_name_en":"Vy Da Ward","commune_slug":"vy_da","unit_type":"Phường","unit_type_en":"Ward","admin_level":2,"province_code":"46","province_name":"Huế","province_full_name":"Thành phố Huế","province_slug":"hue","join_key":"19777","status":"active","dataset_effective_date":"2026-04-30","catalog_version":"2026-07-12","geometry_status":"not_embedded_boundary_available_by_url","boundary_source_url":"https://raw.githubusercontent.com/thanglequoc/vietnamese-provinces-database/master/json/geojson/46_hue/wards/19777_vy_da.geojson","boundary_source_page":"https://github.com/thanglequoc/vietnamese-provinces-database/blob/master/json/geojson/46_hue/wards/19777_vy_da.geojson","source_catalog":"https://github.com/thanglequoc/vietnamese-provinces-database"},"geometry":null},{"type":"Feature","id":"19789","properties":{"commune_code":"19789","commune_name":"Thuận Hoá","commune_name_en":"Thuan Hoa","commune_full_name":"Phường Thuận Hoá","commune_full_name_en":"Thuan Hoa Ward","commune_slug":"thuan_hoa","unit_type":"Phường","unit_type_en":"Ward","admin_level":2,"province_code":"46","province_name":"Huế","province_full_name":"Thành phố Huế","province_slug":"hue","join_key":"19789","status":"active","dataset_effective_date":"2026-04-30","catalog_version":"2026-07-12","geometry_status":"not_embedded_boundary_available_by_url","boundary_source_url":"https://raw.githubusercontent.com/thanglequoc/vietnamese-provinces-database/master/json/geojson/46_hue/wards/19789_thuan_hoa.geojson","boundary_source_page":"https://github.com/thanglequoc/vietnamese-provinces-database/blob/master/json/geojson/46_hue/wards/19789_thuan_hoa.geojson","source_catalog":"https://github.com/thanglequoc/vietnamese-provinces-database"},"geometry":null},{"type":"Feature","id":"19804","properties":{"commune_code":"19804","commune_name":"Hương An","commune_name_en":"Huong An","commune_full_name":"Phường Hương An","commune_full_name_en":"Huong An Ward","commune_slug":"huong_an","unit_type":"Phường","unit_type_en":"Ward","admin_level":2,"province_code":"46","province_name":"Huế","province_full_name":"Thành phố Huế","province_slug":"hue","join_key":"19804","status":"active","dataset_effective_date":"2026-04-30","catalog_version":"2026-07-12","geometry_status":"not_embedded_boundary_available_by_url","boundary_source_url":"https://raw.githubusercontent.com/thanglequoc/vietnamese-provinces-database/master/json/geojson/46_hue/wards/19804_huong_an.geojson","boundary_source_page":"https://github.com/thanglequoc/vietnamese-provinces-database/blob/master/json/geojson/46_hue/wards/19804_huong_an.geojson","source_catalog":"https://github.com/thanglequoc/vietnamese-provinces-database"},"geometry":null},{"type":"Feature","id":"19813","properties":{"commune_code":"19813","commune_name":"Thuỷ Xuân","commune_name_en":"Thuy Xuan","commune_full_name":"Phường Thuỷ Xuân","commune_full_name_en":"Thuy Xuan Ward","commune_slug":"thuy_xuan","unit_type":"Phường","unit_type_en":"Ward","admin_level":2,"province_code":"46","province_name":"Huế","province_full_name":"Thành phố Huế","province_slug":"hue","join_key":"19813","status":"active","dataset_effective_date":"2026-04-30","catalog_version":"2026-07-12","geometry_status":"not_embedded_boundary_available_by_url","boundary_source_url":"https://raw.githubusercontent.com/thanglequoc/vietnamese-provinces-database/master/json/geojson/46_hue/wards/19813_thuy_xuan.geojson","boundary_source_page":"https://github.com/thanglequoc/vietnamese-provinces-database/blob/master/json/geojson/46_hue/wards/19813_thuy_xuan.geojson","source_catalog":"https://github.com/thanglequoc/vietnamese-provinces-database"},"geometry":null},{"type":"Feature","id":"19815","properties":{"commune_code":"19815","commune_name":"An Cựu","commune_name_en":"An Cuu","commune_full_name":"Phường An Cựu","commune_full_name_en":"An Cuu Ward","commune_slug":"an_cuu","unit_type":"Phường","unit_type_en":"Ward","admin_level":2,"province_code":"46","province_name":"Huế","province_full_name":"Thành phố Huế","province_slug":"hue","join_key":"19815","status":"active","dataset_effective_date":"2026-04-30","catalog_version":"2026-07-12","geometry_status":"not_embedded_boundary_available_by_url","boundary_source_url":"https://raw.githubusercontent.com/thanglequoc/vietnamese-provinces-database/master/json/geojson/46_hue/wards/19815_an_cuu.geojson","boundary_source_page":"https://github.com/thanglequoc/vietnamese-provinces-database/blob/master/json/geojson/46_hue/wards/19815_an_cuu.geojson","source_catalog":"https://github.com/thanglequoc/vietnamese-provinces-database"},"geometry":null},{"type":"Feature","id":"19819","properties":{"commune_code":"19819","commune_name":"Phong Điền","commune_name_en":"Phong Dien","commune_full_name":"Phường Phong Điền","commune_full_name_en":"Phong Dien Ward","commune_slug":"phong_dien","unit_type":"Phường","unit_type_en":"Ward","admin_level":2,"province_code":"46","province_name":"Huế","province_full_name":"Thành phố Huế","province_slug":"hue","join_key":"19819","status":"active","dataset_effective_date":"2026-04-30","catalog_version":"2026-07-12","geometry_status":"not_embedded_boundary_available_by_url","boundary_source_url":"https://raw.githubusercontent.com/thanglequoc/vietnamese-provinces-database/master/json/geojson/46_hue/wards/19819_phong_dien.geojson","boundary_source_page":"https://github.com/thanglequoc/vietnamese-provinces-database/blob/master/json/geojson/46_hue/wards/19819_phong_dien.geojson","source_catalog":"https://github.com/thanglequoc/vietnamese-provinces-database"},"geometry":null},{"type":"Feature","id":"19828","properties":{"commune_code":"19828","commune_name":"Phong Phú","commune_name_en":"Phong Phu","commune_full_name":"Phường Phong Phú","commune_full_name_en":"Phong Phu Ward","commune_slug":"phong_phu","unit_type":"Phường","unit_type_en":"Ward","admin_level":2,"province_code":"46","province_name":"Huế","province_full_name":"Thành phố Huế","province_slug":"hue","join_key":"19828","status":"active","dataset_effective_date":"2026-04-30","catalog_version":"2026-07-12","geometry_status":"not_embedded_boundary_available_by_url","boundary_source_url":"https://raw.githubusercontent.com/thanglequoc/vietnamese-provinces-database/master/json/geojson/46_hue/wards/19828_phong_phu.geojson","boundary_source_page":"https://github.com/thanglequoc/vietnamese-provinces-database/blob/master/json/geojson/46_hue/wards/19828_phong_phu.geojson","source_catalog":"https://github.com/thanglequoc/vietnamese-provinces-database"},"geometry":null},{"type":"Feature","id":"19831","properties":{"commune_code":"19831","commune_name":"Phong Dinh","commune_name_en":"Phong Dinh","commune_full_name":"Phường Phong Dinh","commune_full_name_en":"Phong Dinh Ward","commune_slug":"phong_dinh","unit_type":"Phường","unit_type_en":"Ward","admin_level":2,"province_code":"46","province_name":"Huế","province_full_name":"Thành phố Huế","province_slug":"hue","join_key":"19831","status":"active","dataset_effective_date":"2026-04-30","catalog_version":"2026-07-12","geometry_status":"not_embedded_boundary_available_by_url","boundary_source_url":"https://raw.githubusercontent.com/thanglequoc/vietnamese-provinces-database/master/json/geojson/46_hue/wards/19831_phong_dinh.geojson","boundary_source_page":"https://github.com/thanglequoc/vietnamese-provinces-database/blob/master/json/geojson/46_hue/wards/19831_phong_dinh.geojson","source_catalog":"https://github.com/thanglequoc/vietnamese-provinces-database"},"geometry":null},{"type":"Feature","id":"19858","properties":{"commune_code":"19858","commune_name":"Phong Thái","commune_name_en":"Phong Thai","commune_full_name":"Phường Phong Thái","commune_full_name_en":"Phong Thai Ward","commune_slug":"phong_thai","unit_type":"Phường","unit_type_en":"Ward","admin_level":2,"province_code":"46","province_name":"Huế","province_full_name":"Thành phố Huế","province_slug":"hue","join_key":"19858","status":"active","dataset_effective_date":"2026-04-30","catalog_version":"2026-07-12","geometry_status":"not_embedded_boundary_available_by_url","boundary_source_url":"https://raw.githubusercontent.com/thanglequoc/vietnamese-provinces-database/master/json/geojson/46_hue/wards/19858_phong_thai.geojson","boundary_source_page":"https://github.com/thanglequoc/vietnamese-provinces-database/blob/master/json/geojson/46_hue/wards/19858_phong_thai.geojson","source_catalog":"https://github.com/thanglequoc/vietnamese-provinces-database"},"geometry":null},{"type":"Feature","id":"19867","properties":{"commune_code":"19867","commune_name":"Quảng Điền","commune_name_en":"Quang Dien","commune_full_name":"Xã Quảng Điền","commune_full_name_en":"Quang Dien Commune","commune_slug":"quang_dien","unit_type":"Xã","unit_type_en":"Commune","admin_level":2,"province_code":"46","province_name":"Huế","province_full_name":"Thành phố Huế","province_slug":"hue","join_key":"19867","status":"active","dataset_effective_date":"2026-04-30","catalog_version":"2026-07-12","geometry_status":"not_embedded_boundary_available_by_url","boundary_source_url":"https://raw.githubusercontent.com/thanglequoc/vietnamese-provinces-database/master/json/geojson/46_hue/wards/19867_quang_dien.geojson","boundary_source_page":"https://github.com/thanglequoc/vietnamese-provinces-database/blob/master/json/geojson/46_hue/wards/19867_quang_dien.geojson","source_catalog":"https://github.com/thanglequoc/vietnamese-provinces-database"},"geometry":null},{"type":"Feature","id":"19873","properties":{"commune_code":"19873","commune_name":"Phong Quảng","commune_name_en":"Phong Quang","commune_full_name":"Phường Phong Quảng","commune_full_name_en":"Phong Quang Ward","commune_slug":"phong_quang","unit_type":"Phường","unit_type_en":"Ward","admin_level":2,"province_code":"46","province_name":"Huế","province_full_name":"Thành phố Huế","province_slug":"hue","join_key":"19873","status":"active","dataset_effective_date":"2026-04-30","catalog_version":"2026-07-12","geometry_status":"not_embedded_boundary_available_by_url","boundary_source_url":"https://raw.githubusercontent.com/thanglequoc/vietnamese-provinces-database/master/json/geojson/46_hue/wards/19873_phong_quang.geojson","boundary_source_page":"https://github.com/thanglequoc/vietnamese-provinces-database/blob/master/json/geojson/46_hue/wards/19873_phong_quang.geojson","source_catalog":"https://github.com/thanglequoc/vietnamese-provinces-database"},"geometry":null},{"type":"Feature","id":"19885","properties":{"commune_code":"19885","commune_name":"Đan Điền","commune_name_en":"Dan Dien","commune_full_name":"Xã Đan Điền","commune_full_name_en":"Dan Dien Commune","commune_slug":"dan_dien","unit_type":"Xã","unit_type_en":"Commune","admin_level":2,"province_code":"46","province_name":"Huế","province_full_name":"Thành phố Huế","province_slug":"hue","join_key":"19885","status":"active","dataset_effective_date":"2026-04-30","catalog_version":"2026-07-12","geometry_status":"not_embedded_boundary_available_by_url","boundary_source_url":"https://raw.githubusercontent.com/thanglequoc/vietnamese-provinces-database/master/json/geojson/46_hue/wards/19885_dan_dien.geojson","boundary_source_page":"https://github.com/thanglequoc/vietnamese-provinces-database/blob/master/json/geojson/46_hue/wards/19885_dan_dien.geojson","source_catalog":"https://github.com/thanglequoc/vietnamese-provinces-database"},"geometry":null},{"type":"Feature","id":"19900","properties":{"commune_code":"19900","commune_name":"Thuận An","commune_name_en":"Thuan An","commune_full_name":"Phường Thuận An","commune_full_name_en":"Thuan An Ward","commune_slug":"thuan_an","unit_type":"Phường","unit_type_en":"Ward","admin_level":2,"province_code":"46","province_name":"Huế","province_full_name":"Thành phố Huế","province_slug":"hue","join_key":"19900","status":"active","dataset_effective_date":"2026-04-30","catalog_version":"2026-07-12","geometry_status":"not_embedded_boundary_available_by_url","boundary_source_url":"https://raw.githubusercontent.com/thanglequoc/vietnamese-provinces-database/master/json/geojson/46_hue/wards/19900_thuan_an.geojson","boundary_source_page":"https://github.com/thanglequoc/vietnamese-provinces-database/blob/master/json/geojson/46_hue/wards/19900_thuan_an.geojson","source_catalog":"https://github.com/thanglequoc/vietnamese-provinces-database"},"geometry":null},{"type":"Feature","id":"19909","properties":{"commune_code":"19909","commune_name":"Dương Nỗ","commune_name_en":"Duong No","commune_full_name":"Phường Dương Nỗ","commune_full_name_en":"Duong No Ward","commune_slug":"duong_no","unit_type":"Phường","unit_type_en":"Ward","admin_level":2,"province_code":"46","province_name":"Huế","province_full_name":"Thành phố Huế","province_slug":"hue","join_key":"19909","status":"active","dataset_effective_date":"2026-04-30","catalog_version":"2026-07-12","geometry_status":"not_embedded_boundary_available_by_url","boundary_source_url":"https://raw.githubusercontent.com/thanglequoc/vietnamese-provinces-database/master/json/geojson/46_hue/wards/19909_duong_no.geojson","boundary_source_page":"https://github.com/thanglequoc/vietnamese-provinces-database/blob/master/json/geojson/46_hue/wards/19909_duong_no.geojson","source_catalog":"https://github.com/thanglequoc/vietnamese-provinces-database"},"geometry":null},{"type":"Feature","id":"19918","properties":{"commune_code":"19918","commune_name":"Phú Hồ","commune_name_en":"Phu Ho","commune_full_name":"Xã Phú Hồ","commune_full_name_en":"Phu Ho Commune","commune_slug":"phu_ho","unit_type":"Xã","unit_type_en":"Commune","admin_level":2,"province_code":"46","province_name":"Huế","province_full_name":"Thành phố Huế","province_slug":"hue","join_key":"19918","status":"active","dataset_effective_date":"2026-04-30","catalog_version":"2026-07-12","geometry_status":"not_embedded_boundary_available_by_url","boundary_source_url":"https://raw.githubusercontent.com/thanglequoc/vietnamese-provinces-database/master/json/geojson/46_hue/wards/19918_phu_ho.geojson","boundary_source_page":"https://github.com/thanglequoc/vietnamese-provinces-database/blob/master/json/geojson/46_hue/wards/19918_phu_ho.geojson","source_catalog":"https://github.com/thanglequoc/vietnamese-provinces-database"},"geometry":null},{"type":"Feature","id":"19930","properties":{"commune_code":"19930","commune_name":"Mỹ Thượng","commune_name_en":"My Thuong","commune_full_name":"Phường Mỹ Thượng","commune_full_name_en":"My Thuong Ward","commune_slug":"my_thuong","unit_type":"Phường","unit_type_en":"Ward","admin_level":2,"province_code":"46","province_name":"Huế","province_full_name":"Thành phố Huế","province_slug":"hue","join_key":"19930","status":"active","dataset_effective_date":"2026-04-30","catalog_version":"2026-07-12","geometry_status":"not_embedded_boundary_available_by_url","boundary_source_url":"https://raw.githubusercontent.com/thanglequoc/vietnamese-provinces-database/master/json/geojson/46_hue/wards/19930_my_thuong.geojson","boundary_source_page":"https://github.com/thanglequoc/vietnamese-provinces-database/blob/master/json/geojson/46_hue/wards/19930_my_thuong.geojson","source_catalog":"https://github.com/thanglequoc/vietnamese-provinces-database"},"geometry":null},{"type":"Feature","id":"19942","properties":{"commune_code":"19942","commune_name":"Phú Vang","commune_name_en":"Phu Vang","commune_full_name":"Xã Phú Vang","commune_full_name_en":"Phu Vang Commune","commune_slug":"phu_vang","unit_type":"Xã","unit_type_en":"Commune","admin_level":2,"province_code":"46","province_name":"Huế","province_full_name":"Thành phố Huế","province_slug":"hue","join_key":"19942","status":"active","dataset_effective_date":"2026-04-30","catalog_version":"2026-07-12","geometry_status":"not_embedded_boundary_available_by_url","boundary_source_url":"https://raw.githubusercontent.com/thanglequoc/vietnamese-provinces-database/master/json/geojson/46_hue/wards/19942_phu_vang.geojson","boundary_source_page":"https://github.com/thanglequoc/vietnamese-provinces-database/blob/master/json/geojson/46_hue/wards/19942_phu_vang.geojson","source_catalog":"https://github.com/thanglequoc/vietnamese-provinces-database"},"geometry":null},{"type":"Feature","id":"19945","properties":{"commune_code":"19945","commune_name":"Phú Vinh","commune_name_en":"Phu Vinh","commune_full_name":"Xã Phú Vinh","commune_full_name_en":"Phu Vinh Commune","commune_slug":"phu_vinh","unit_type":"Xã","unit_type_en":"Commune","admin_level":2,"province_code":"46","province_name":"Huế","province_full_name":"Thành phố Huế","province_slug":"hue","join_key":"19945","status":"active","dataset_effective_date":"2026-04-30","catalog_version":"2026-07-12","geometry_status":"not_embedded_boundary_available_by_url","boundary_source_url":"https://raw.githubusercontent.com/thanglequoc/vietnamese-provinces-database/master/json/geojson/46_hue/wards/19945_phu_vinh.geojson","boundary_source_page":"https://github.com/thanglequoc/vietnamese-provinces-database/blob/master/json/geojson/46_hue/wards/19945_phu_vinh.geojson","source_catalog":"https://github.com/thanglequoc/vietnamese-provinces-database"},"geometry":null},{"type":"Feature","id":"19960","properties":{"commune_code":"19960","commune_name":"Phú Bài","commune_name_en":"Phu Bai","commune_full_name":"Phường Phú Bài","commune_full_name_en":"Phu Bai Ward","commune_slug":"phu_bai","unit_type":"Phường","unit_type_en":"Ward","admin_level":2,"province_code":"46","province_name":"Huế","province_full_name":"Thành phố Huế","province_slug":"hue","join_key":"19960","status":"active","dataset_effective_date":"2026-04-30","catalog_version":"2026-07-12","geometry_status":"not_embedded_boundary_available_by_url","boundary_source_url":"https://raw.githubusercontent.com/thanglequoc/vietnamese-provinces-database/master/json/geojson/46_hue/wards/19960_phu_bai.geojson","boundary_source_page":"https://github.com/thanglequoc/vietnamese-provinces-database/blob/master/json/geojson/46_hue/wards/19960_phu_bai.geojson","source_catalog":"https://github.com/thanglequoc/vietnamese-provinces-database"},"geometry":null},{"type":"Feature","id":"19969","properties":{"commune_code":"19969","commune_name":"Thanh Thuỷ","commune_name_en":"Thanh Thuy","commune_full_name":"Phường Thanh Thuỷ","commune_full_name_en":"Thanh Thuy Ward","commune_slug":"thanh_thuy","unit_type":"Phường","unit_type_en":"Ward","admin_level":2,"province_code":"46","province_name":"Huế","province_full_name":"Thành phố Huế","province_slug":"hue","join_key":"19969","status":"active","dataset_effective_date":"2026-04-30","catalog_version":"2026-07-12","geometry_status":"not_embedded_boundary_available_by_url","boundary_source_url":"https://raw.githubusercontent.com/thanglequoc/vietnamese-provinces-database/master/json/geojson/46_hue/wards/19969_thanh_thuy.geojson","boundary_source_page":"https://github.com/thanglequoc/vietnamese-provinces-database/blob/master/json/geojson/46_hue/wards/19969_thanh_thuy.geojson","source_catalog":"https://github.com/thanglequoc/vietnamese-provinces-database"},"geometry":null},{"type":"Feature","id":"19975","properties":{"commune_code":"19975","commune_name":"Hương Thuỷ","commune_name_en":"Huong Thuy","commune_full_name":"Phường Hương Thuỷ","commune_full_name_en":"Huong Thuy Ward","commune_slug":"huong_thuy","unit_type":"Phường","unit_type_en":"Ward","admin_level":2,"province_code":"46","province_name":"Huế","province_full_name":"Thành phố Huế","province_slug":"hue","join_key":"19975","status":"active","dataset_effective_date":"2026-04-30","catalog_version":"2026-07-12","geometry_status":"not_embedded_boundary_available_by_url","boundary_source_url":"https://raw.githubusercontent.com/thanglequoc/vietnamese-provinces-database/master/json/geojson/46_hue/wards/19975_huong_thuy.geojson","boundary_source_page":"https://github.com/thanglequoc/vietnamese-provinces-database/blob/master/json/geojson/46_hue/wards/19975_huong_thuy.geojson","source_catalog":"https://github.com/thanglequoc/vietnamese-provinces-database"},"geometry":null},{"type":"Feature","id":"19996","properties":{"commune_code":"19996","commune_name":"Hương Trà","commune_name_en":"Huong Tra","commune_full_name":"Phường Hương Trà","commune_full_name_en":"Huong Tra Ward","commune_slug":"huong_tra","unit_type":"Phường","unit_type_en":"Ward","admin_level":2,"province_code":"46","province_name":"Huế","province_full_name":"Thành phố Huế","province_slug":"hue","join_key":"19996","status":"active","dataset_effective_date":"2026-04-30","catalog_version":"2026-07-12","geometry_status":"not_embedded_boundary_available_by_url","boundary_source_url":"https://raw.githubusercontent.com/thanglequoc/vietnamese-provinces-database/master/json/geojson/46_hue/wards/19996_huong_tra.geojson","boundary_source_page":"https://github.com/thanglequoc/vietnamese-provinces-database/blob/master/json/geojson/46_hue/wards/19996_huong_tra.geojson","source_catalog":"https://github.com/thanglequoc/vietnamese-provinces-database"},"geometry":null},{"type":"Feature","id":"20014","properties":{"commune_code":"20014","commune_name":"Hoá Châu","commune_name_en":"Hoa Chau","commune_full_name":"Phường Hoá Châu","commune_full_name_en":"Hoa Chau Ward","commune_slug":"hoa_chau","unit_type":"Phường","unit_type_en":"Ward","admin_level":2,"province_code":"46","province_name":"Huế","province_full_name":"Thành phố Huế","province_slug":"hue","join_key":"20014","status":"active","dataset_effective_date":"2026-04-30","catalog_version":"2026-07-12","geometry_status":"not_embedded_boundary_available_by_url","boundary_source_url":"https://raw.githubusercontent.com/thanglequoc/vietnamese-provinces-database/master/json/geojson/46_hue/wards/20014_hoa_chau.geojson","boundary_source_page":"https://github.com/thanglequoc/vietnamese-provinces-database/blob/master/json/geojson/46_hue/wards/20014_hoa_chau.geojson","source_catalog":"https://github.com/thanglequoc/vietnamese-provinces-database"},"geometry":null},{"type":"Feature","id":"20017","properties":{"commune_code":"20017","commune_name":"Kim Trà","commune_name_en":"Kim Tra","commune_full_name":"Phường Kim Trà","commune_full_name_en":"Kim Tra Ward","commune_slug":"kim_tra","unit_type":"Phường","unit_type_en":"Ward","admin_level":2,"province_code":"46","province_name":"Huế","province_full_name":"Thành phố Huế","province_slug":"hue","join_key":"20017","status":"active","dataset_effective_date":"2026-04-30","catalog_version":"2026-07-12","geometry_status":"not_embedded_boundary_available_by_url","boundary_source_url":"https://raw.githubusercontent.com/thanglequoc/vietnamese-provinces-database/master/json/geojson/46_hue/wards/20017_kim_tra.geojson","boundary_source_page":"https://github.com/thanglequoc/vietnamese-provinces-database/blob/master/json/geojson/46_hue/wards/20017_kim_tra.geojson","source_catalog":"https://github.com/thanglequoc/vietnamese-provinces-database"},"geometry":null},{"type":"Feature","id":"20035","properties":{"commune_code":"20035","commune_name":"Bình Điền","commune_name_en":"Binh Dien","commune_full_name":"Xã Bình Điền","commune_full_name_en":"Binh Dien Commune","commune_slug":"binh_dien","unit_type":"Xã","unit_type_en":"Commune","admin_level":2,"province_code":"46","province_name":"Huế","province_full_name":"Thành phố Huế","province_slug":"hue","join_key":"20035","status":"active","dataset_effective_date":"2026-04-30","catalog_version":"2026-07-12","geometry_status":"not_embedded_boundary_available_by_url","boundary_source_url":"https://raw.githubusercontent.com/thanglequoc/vietnamese-provinces-database/master/json/geojson/46_hue/wards/20035_binh_dien.geojson","boundary_source_page":"https://github.com/thanglequoc/vietnamese-provinces-database/blob/master/json/geojson/46_hue/wards/20035_binh_dien.geojson","source_catalog":"https://github.com/thanglequoc/vietnamese-provinces-database"},"geometry":null},{"type":"Feature","id":"20044","properties":{"commune_code":"20044","commune_name":"A Lưới 2","commune_name_en":"A Luoi 2","commune_full_name":"Xã A Lưới 2","commune_full_name_en":"Commune A Luoi 2","commune_slug":"a_luoi_2","unit_type":"Xã","unit_type_en":"Commune","admin_level":2,"province_code":"46","province_name":"Huế","province_full_name":"Thành phố Huế","province_slug":"hue","join_key":"20044","status":"active","dataset_effective_date":"2026-04-30","catalog_version":"2026-07-12","geometry_status":"not_embedded_boundary_available_by_url","boundary_source_url":"https://raw.githubusercontent.com/thanglequoc/vietnamese-provinces-database/master/json/geojson/46_hue/wards/20044_a_luoi_2.geojson","boundary_source_page":"https://github.com/thanglequoc/vietnamese-provinces-database/blob/master/json/geojson/46_hue/wards/20044_a_luoi_2.geojson","source_catalog":"https://github.com/thanglequoc/vietnamese-provinces-database"},"geometry":null},{"type":"Feature","id":"20050","properties":{"commune_code":"20050","commune_name":"A Lưới 5","commune_name_en":"A Luoi 5","commune_full_name":"Xã A Lưới 5","commune_full_name_en":"Commune A Luoi 5","commune_slug":"a_luoi_5","unit_type":"Xã","unit_type_en":"Commune","admin_level":2,"province_code":"46","province_name":"Huế","province_full_name":"Thành phố Huế","province_slug":"hue","join_key":"20050","status":"active","dataset_effective_date":"2026-04-30","catalog_version":"2026-07-12","geometry_status":"not_embedded_boundary_available_by_url","boundary_source_url":"https://raw.githubusercontent.com/thanglequoc/vietnamese-provinces-database/master/json/geojson/46_hue/wards/20050_a_luoi_5.geojson","boundary_source_page":"https://github.com/thanglequoc/vietnamese-provinces-database/blob/master/json/geojson/46_hue/wards/20050_a_luoi_5.geojson","source_catalog":"https://github.com/thanglequoc/vietnamese-provinces-database"},"geometry":null},{"type":"Feature","id":"20056","properties":{"commune_code":"20056","commune_name":"A Lưới 1","commune_name_en":"A Luoi 1","commune_full_name":"Xã A Lưới 1","commune_full_name_en":"Commune A Luoi 1","commune_slug":"a_luoi_1","unit_type":"Xã","unit_type_en":"Commune","admin_level":2,"province_code":"46","province_name":"Huế","province_full_name":"Thành phố Huế","province_slug":"hue","join_key":"20056","status":"active","dataset_effective_date":"2026-04-30","catalog_version":"2026-07-12","geometry_status":"not_embedded_boundary_available_by_url","boundary_source_url":"https://raw.githubusercontent.com/thanglequoc/vietnamese-provinces-database/master/json/geojson/46_hue/wards/20056_a_luoi_1.geojson","boundary_source_page":"https://github.com/thanglequoc/vietnamese-provinces-database/blob/master/json/geojson/46_hue/wards/20056_a_luoi_1.geojson","source_catalog":"https://github.com/thanglequoc/vietnamese-provinces-database"},"geometry":null},{"type":"Feature","id":"20071","properties":{"commune_code":"20071","commune_name":"A Lưới 3","commune_name_en":"A Luoi 3","commune_full_name":"Xã A Lưới 3","commune_full_name_en":"Commune A Luoi 3","commune_slug":"a_luoi_3","unit_type":"Xã","unit_type_en":"Commune","admin_level":2,"province_code":"46","province_name":"Huế","province_full_name":"Thành phố Huế","province_slug":"hue","join_key":"20071","status":"active","dataset_effective_date":"2026-04-30","catalog_version":"2026-07-12","geometry_status":"not_embedded_boundary_available_by_url","boundary_source_url":"https://raw.githubusercontent.com/thanglequoc/vietnamese-provinces-database/master/json/geojson/46_hue/wards/20071_a_luoi_3.geojson","boundary_source_page":"https://github.com/thanglequoc/vietnamese-provinces-database/blob/master/json/geojson/46_hue/wards/20071_a_luoi_3.geojson","source_catalog":"https://github.com/thanglequoc/vietnamese-provinces-database"},"geometry":null},{"type":"Feature","id":"20101","properties":{"commune_code":"20101","commune_name":"A Lưới 4","commune_name_en":"A Luoi 4","commune_full_name":"Xã A Lưới 4","commune_full_name_en":"Commune A Luoi 4","commune_slug":"a_luoi_4","unit_type":"Xã","unit_type_en":"Commune","admin_level":2,"province_code":"46","province_name":"Huế","province_full_name":"Thành phố Huế","province_slug":"hue","join_key":"20101","status":"active","dataset_effective_date":"2026-04-30","catalog_version":"2026-07-12","geometry_status":"not_embedded_boundary_available_by_url","boundary_source_url":"https://raw.githubusercontent.com/thanglequoc/vietnamese-provinces-database/master/json/geojson/46_hue/wards/20101_a_luoi_4.geojson","boundary_source_page":"https://github.com/thanglequoc/vietnamese-provinces-database/blob/master/json/geojson/46_hue/wards/20101_a_luoi_4.geojson","source_catalog":"https://github.com/thanglequoc/vietnamese-provinces-database"},"geometry":null},{"type":"Feature","id":"20107","properties":{"commune_code":"20107","commune_name":"Phú Lộc","commune_name_en":"Phu Loc","commune_full_name":"Xã Phú Lộc","commune_full_name_en":"Phu Loc Commune","commune_slug":"phu_loc","unit_type":"Xã","unit_type_en":"Commune","admin_level":2,"province_code":"46","province_name":"Huế","province_full_name":"Thành phố Huế","province_slug":"hue","join_key":"20107","status":"active","dataset_effective_date":"2026-04-30","catalog_version":"2026-07-12","geometry_status":"not_embedded_boundary_available_by_url","boundary_source_url":"https://raw.githubusercontent.com/thanglequoc/vietnamese-provinces-database/master/json/geojson/46_hue/wards/20107_phu_loc.geojson","boundary_source_page":"https://github.com/thanglequoc/vietnamese-provinces-database/blob/master/json/geojson/46_hue/wards/20107_phu_loc.geojson","source_catalog":"https://github.com/thanglequoc/vietnamese-provinces-database"},"geometry":null},{"type":"Feature","id":"20122","properties":{"commune_code":"20122","commune_name":"Vinh Lộc","commune_name_en":"Vinh Loc","commune_full_name":"Xã Vinh Lộc","commune_full_name_en":"Vinh Loc Commune","commune_slug":"vinh_loc","unit_type":"Xã","unit_type_en":"Commune","admin_level":2,"province_code":"46","province_name":"Huế","province_full_name":"Thành phố Huế","province_slug":"hue","join_key":"20122","status":"active","dataset_effective_date":"2026-04-30","catalog_version":"2026-07-12","geometry_status":"not_embedded_boundary_available_by_url","boundary_source_url":"https://raw.githubusercontent.com/thanglequoc/vietnamese-provinces-database/master/json/geojson/46_hue/wards/20122_vinh_loc.geojson","boundary_source_page":"https://github.com/thanglequoc/vietnamese-provinces-database/blob/master/json/geojson/46_hue/wards/20122_vinh_loc.geojson","source_catalog":"https://github.com/thanglequoc/vietnamese-provinces-database"},"geometry":null},{"type":"Feature","id":"20131","properties":{"commune_code":"20131","commune_name":"Hưng Lộc","commune_name_en":"Hung Loc","commune_full_name":"Xã Hưng Lộc","commune_full_name_en":"Hung Loc Commune","commune_slug":"hung_loc","unit_type":"Xã","unit_type_en":"Commune","admin_level":2,"province_code":"46","province_name":"Huế","province_full_name":"Thành phố Huế","province_slug":"hue","join_key":"20131","status":"active","dataset_effective_date":"2026-04-30","catalog_version":"2026-07-12","geometry_status":"not_embedded_boundary_available_by_url","boundary_source_url":"https://raw.githubusercontent.com/thanglequoc/vietnamese-provinces-database/master/json/geojson/46_hue/wards/20131_hung_loc.geojson","boundary_source_page":"https://github.com/thanglequoc/vietnamese-provinces-database/blob/master/json/geojson/46_hue/wards/20131_hung_loc.geojson","source_catalog":"https://github.com/thanglequoc/vietnamese-provinces-database"},"geometry":null},{"type":"Feature","id":"20137","properties":{"commune_code":"20137","commune_name":"Chân Mây - Lăng Cô","commune_name_en":"Chan May - Lang Co","commune_full_name":"Xã Chân Mây - Lăng Cô","commune_full_name_en":"Chan May - Lang Co Commune","commune_slug":"chan_may_lang_co","unit_type":"Xã","unit_type_en":"Commune","admin_level":2,"province_code":"46","province_name":"Huế","province_full_name":"Thành phố Huế","province_slug":"hue","join_key":"20137","status":"active","dataset_effective_date":"2026-04-30","catalog_version":"2026-07-12","geometry_status":"not_embedded_boundary_available_by_url","boundary_source_url":"https://raw.githubusercontent.com/thanglequoc/vietnamese-provinces-database/master/json/geojson/46_hue/wards/20137_chan_may_lang_co.geojson","boundary_source_page":"https://github.com/thanglequoc/vietnamese-provinces-database/blob/master/json/geojson/46_hue/wards/20137_chan_may_lang_co.geojson","source_catalog":"https://github.com/thanglequoc/vietnamese-provinces-database"},"geometry":null},{"type":"Feature","id":"20140","properties":{"commune_code":"20140","commune_name":"Lộc An","commune_name_en":"Loc An","commune_full_name":"Xã Lộc An","commune_full_name_en":"Loc An Commune","commune_slug":"loc_an","unit_type":"Xã","unit_type_en":"Commune","admin_level":2,"province_code":"46","province_name":"Huế","province_full_name":"Thành phố Huế","province_slug":"hue","join_key":"20140","status":"active","dataset_effective_date":"2026-04-30","catalog_version":"2026-07-12","geometry_status":"not_embedded_boundary_available_by_url","boundary_source_url":"https://raw.githubusercontent.com/thanglequoc/vietnamese-provinces-database/master/json/geojson/46_hue/wards/20140_loc_an.geojson","boundary_source_page":"https://github.com/thanglequoc/vietnamese-provinces-database/blob/master/json/geojson/46_hue/wards/20140_loc_an.geojson","source_catalog":"https://github.com/thanglequoc/vietnamese-provinces-database"},"geometry":null},{"type":"Feature","id":"20161","properties":{"commune_code":"20161","commune_name":"Khe Tre","commune_name_en":"Khe Tre","commune_full_name":"Xã Khe Tre","commune_full_name_en":"Khe Tre Commune","commune_slug":"khe_tre","unit_type":"Xã","unit_type_en":"Commune","admin_level":2,"province_code":"46","province_name":"Huế","province_full_name":"Thành phố Huế","province_slug":"hue","join_key":"20161","status":"active","dataset_effective_date":"2026-04-30","catalog_version":"2026-07-12","geometry_status":"not_embedded_boundary_available_by_url","boundary_source_url":"https://raw.githubusercontent.com/thanglequoc/vietnamese-provinces-database/master/json/geojson/46_hue/wards/20161_khe_tre.geojson","boundary_source_page":"https://github.com/thanglequoc/vietnamese-provinces-database/blob/master/json/geojson/46_hue/wards/20161_khe_tre.geojson","source_catalog":"https://github.com/thanglequoc/vietnamese-provinces-database"},"geometry":null},{"type":"Feature","id":"20179","properties":{"commune_code":"20179","commune_name":"Nam Đông","commune_name_en":"Nam Dong","commune_full_name":"Xã Nam Đông","commune_full_name_en":"Nam Dong Commune","commune_slug":"nam_dong","unit_type":"Xã","unit_type_en":"Commune","admin_level":2,"province_code":"46","province_name":"Huế","province_full_name":"Thành phố Huế","province_slug":"hue","join_key":"20179","status":"active","dataset_effective_date":"2026-04-30","catalog_version":"2026-07-12","geometry_status":"not_embedded_boundary_available_by_url","boundary_source_url":"https://raw.githubusercontent.com/thanglequoc/vietnamese-provinces-database/master/json/geojson/46_hue/wards/20179_nam_dong.geojson","boundary_source_page":"https://github.com/thanglequoc/vietnamese-provinces-database/blob/master/json/geojson/46_hue/wards/20179_nam_dong.geojson","source_catalog":"https://github.com/thanglequoc/vietnamese-provinces-database"},"geometry":null},{"type":"Feature","id":"20182","properties":{"commune_code":"20182","commune_name":"Long Quảng","commune_name_en":"Long Quang","commune_full_name":"Xã Long Quảng","commune_full_name_en":"Long Quang Commune","commune_slug":"long_quang","unit_type":"Xã","unit_type_en":"Commune","admin_level":2,"province_code":"46","province_name":"Huế","province_full_name":"Thành phố Huế","province_slug":"hue","join_key":"20182","status":"active","dataset_effective_date":"2026-04-30","catalog_version":"2026-07-12","geometry_status":"not_embedded_boundary_available_by_url","boundary_source_url":"https://raw.githubusercontent.com/thanglequoc/vietnamese-provinces-database/master/json/geojson/46_hue/wards/20182_long_quang.geojson","boundary_source_page":"https://github.com/thanglequoc/vietnamese-provinces-database/blob/master/json/geojson/46_hue/wards/20182_long_quang.geojson","source_catalog":"https://github.com/thanglequoc/vietnamese-provinces-database"},"geometry":null}]}