{"type":"FeatureCollection","name":"51_quang_ngai_communes_attributes","metadata":{"province_code":"51","province_name":"Quảng Ngãi","feature_count":96,"geometry":null,"join_key":"commune_code"},"features":[{"type":"Feature","id":"21025","properties":{"commune_code":"21025","commune_name":"Cẩm Thành","commune_name_en":"Cam Thanh","commune_full_name":"Phường Cẩm Thành","commune_full_name_en":"Cam Thanh Ward","commune_slug":"cam_thanh","unit_type":"Phường","unit_type_en":"Ward","admin_level":2,"province_code":"51","province_name":"Quảng Ngãi","province_full_name":"Tỉnh Quảng Ngãi","province_slug":"quang_ngai","join_key":"21025","status":"active","dataset_effective_date":"2026-04-30","catalog_version":"2026-07-12","geometry_status":"not_embedded_boundary_available_by_url","boundary_source_url":"https://raw.githubusercontent.com/thanglequoc/vietnamese-provinces-database/master/json/geojson/51_quang_ngai/wards/21025_cam_thanh.geojson","boundary_source_page":"https://github.com/thanglequoc/vietnamese-provinces-database/blob/master/json/geojson/51_quang_ngai/wards/21025_cam_thanh.geojson","source_catalog":"https://github.com/thanglequoc/vietnamese-provinces-database"},"geometry":null},{"type":"Feature","id":"21028","properties":{"commune_code":"21028","commune_name":"Nghĩa Lộ","commune_name_en":"Nghia Lo","commune_full_name":"Phường Nghĩa Lộ","commune_full_name_en":"Nghia Lo Ward","commune_slug":"nghia_lo","unit_type":"Phường","unit_type_en":"Ward","admin_level":2,"province_code":"51","province_name":"Quảng Ngãi","province_full_name":"Tỉnh Quảng Ngãi","province_slug":"quang_ngai","join_key":"21028","status":"active","dataset_effective_date":"2026-04-30","catalog_version":"2026-07-12","geometry_status":"not_embedded_boundary_available_by_url","boundary_source_url":"https://raw.githubusercontent.com/thanglequoc/vietnamese-provinces-database/master/json/geojson/51_quang_ngai/wards/21028_nghia_lo.geojson","boundary_source_page":"https://github.com/thanglequoc/vietnamese-provinces-database/blob/master/json/geojson/51_quang_ngai/wards/21028_nghia_lo.geojson","source_catalog":"https://github.com/thanglequoc/vietnamese-provinces-database"},"geometry":null},{"type":"Feature","id":"21034","properties":{"commune_code":"21034","commune_name":"An Phú","commune_name_en":"An Phu","commune_full_name":"Xã An Phú","commune_full_name_en":"An Phu Commune","commune_slug":"an_phu","unit_type":"Xã","unit_type_en":"Commune","admin_level":2,"province_code":"51","province_name":"Quảng Ngãi","province_full_name":"Tỉnh Quảng Ngãi","province_slug":"quang_ngai","join_key":"21034","status":"active","dataset_effective_date":"2026-04-30","catalog_version":"2026-07-12","geometry_status":"not_embedded_boundary_available_by_url","boundary_source_url":"https://raw.githubusercontent.com/thanglequoc/vietnamese-provinces-database/master/json/geojson/51_quang_ngai/wards/21034_an_phu.geojson","boundary_source_page":"https://github.com/thanglequoc/vietnamese-provinces-database/blob/master/json/geojson/51_quang_ngai/wards/21034_an_phu.geojson","source_catalog":"https://github.com/thanglequoc/vietnamese-provinces-database"},"geometry":null},{"type":"Feature","id":"21040","properties":{"commune_code":"21040","commune_name":"Bình Sơn","commune_name_en":"Binh Son","commune_full_name":"Xã Bình Sơn","commune_full_name_en":"Binh Son Commune","commune_slug":"binh_son","unit_type":"Xã","unit_type_en":"Commune","admin_level":2,"province_code":"51","province_name":"Quảng Ngãi","province_full_name":"Tỉnh Quảng Ngãi","province_slug":"quang_ngai","join_key":"21040","status":"active","dataset_effective_date":"2026-04-30","catalog_version":"2026-07-12","geometry_status":"not_embedded_boundary_available_by_url","boundary_source_url":"https://raw.githubusercontent.com/thanglequoc/vietnamese-provinces-database/master/json/geojson/51_quang_ngai/wards/21040_binh_son.geojson","boundary_source_page":"https://github.com/thanglequoc/vietnamese-provinces-database/blob/master/json/geojson/51_quang_ngai/wards/21040_binh_son.geojson","source_catalog":"https://github.com/thanglequoc/vietnamese-provinces-database"},"geometry":null},{"type":"Feature","id":"21061","properties":{"commune_code":"21061","commune_name":"Vạn Tường","commune_name_en":"Van Tuong","commune_full_name":"Xã Vạn Tường","commune_full_name_en":"Van Tuong Commune","commune_slug":"van_tuong","unit_type":"Xã","unit_type_en":"Commune","admin_level":2,"province_code":"51","province_name":"Quảng Ngãi","province_full_name":"Tỉnh Quảng Ngãi","province_slug":"quang_ngai","join_key":"21061","status":"active","dataset_effective_date":"2026-04-30","catalog_version":"2026-07-12","geometry_status":"not_embedded_boundary_available_by_url","boundary_source_url":"https://raw.githubusercontent.com/thanglequoc/vietnamese-provinces-database/master/json/geojson/51_quang_ngai/wards/21061_van_tuong.geojson","boundary_source_page":"https://github.com/thanglequoc/vietnamese-provinces-database/blob/master/json/geojson/51_quang_ngai/wards/21061_van_tuong.geojson","source_catalog":"https://github.com/thanglequoc/vietnamese-provinces-database"},"geometry":null},{"type":"Feature","id":"21085","properties":{"commune_code":"21085","commune_name":"Bình Minh","commune_name_en":"Binh Minh","commune_full_name":"Xã Bình Minh","commune_full_name_en":"Binh Minh Commune","commune_slug":"binh_minh","unit_type":"Xã","unit_type_en":"Commune","admin_level":2,"province_code":"51","province_name":"Quảng Ngãi","province_full_name":"Tỉnh Quảng Ngãi","province_slug":"quang_ngai","join_key":"21085","status":"active","dataset_effective_date":"2026-04-30","catalog_version":"2026-07-12","geometry_status":"not_embedded_boundary_available_by_url","boundary_source_url":"https://raw.githubusercontent.com/thanglequoc/vietnamese-provinces-database/master/json/geojson/51_quang_ngai/wards/21085_binh_minh.geojson","boundary_source_page":"https://github.com/thanglequoc/vietnamese-provinces-database/blob/master/json/geojson/51_quang_ngai/wards/21085_binh_minh.geojson","source_catalog":"https://github.com/thanglequoc/vietnamese-provinces-database"},"geometry":null},{"type":"Feature","id":"21100","properties":{"commune_code":"21100","commune_name":"Bình Chương","commune_name_en":"Binh Chuong","commune_full_name":"Xã Bình Chương","commune_full_name_en":"Binh Chuong Commune","commune_slug":"binh_chuong","unit_type":"Xã","unit_type_en":"Commune","admin_level":2,"province_code":"51","province_name":"Quảng Ngãi","province_full_name":"Tỉnh Quảng Ngãi","province_slug":"quang_ngai","join_key":"21100","status":"active","dataset_effective_date":"2026-04-30","catalog_version":"2026-07-12","geometry_status":"not_embedded_boundary_available_by_url","boundary_source_url":"https://raw.githubusercontent.com/thanglequoc/vietnamese-provinces-database/master/json/geojson/51_quang_ngai/wards/21100_binh_chuong.geojson","boundary_source_page":"https://github.com/thanglequoc/vietnamese-provinces-database/blob/master/json/geojson/51_quang_ngai/wards/21100_binh_chuong.geojson","source_catalog":"https://github.com/thanglequoc/vietnamese-provinces-database"},"geometry":null},{"type":"Feature","id":"21109","properties":{"commune_code":"21109","commune_name":"Đông Sơn","commune_name_en":"Dong Son","commune_full_name":"Xã Đông Sơn","commune_full_name_en":"Dong Son Commune","commune_slug":"dong_son","unit_type":"Xã","unit_type_en":"Commune","admin_level":2,"province_code":"51","province_name":"Quảng Ngãi","province_full_name":"Tỉnh Quảng Ngãi","province_slug":"quang_ngai","join_key":"21109","status":"active","dataset_effective_date":"2026-04-30","catalog_version":"2026-07-12","geometry_status":"not_embedded_boundary_available_by_url","boundary_source_url":"https://raw.githubusercontent.com/thanglequoc/vietnamese-provinces-database/master/json/geojson/51_quang_ngai/wards/21109_dong_son.geojson","boundary_source_page":"https://github.com/thanglequoc/vietnamese-provinces-database/blob/master/json/geojson/51_quang_ngai/wards/21109_dong_son.geojson","source_catalog":"https://github.com/thanglequoc/vietnamese-provinces-database"},"geometry":null},{"type":"Feature","id":"21115","properties":{"commune_code":"21115","commune_name":"Trà Bồng","commune_name_en":"Tra Bong","commune_full_name":"Xã Trà Bồng","commune_full_name_en":"Tra Bong Commune","commune_slug":"tra_bong","unit_type":"Xã","unit_type_en":"Commune","admin_level":2,"province_code":"51","province_name":"Quảng Ngãi","province_full_name":"Tỉnh Quảng Ngãi","province_slug":"quang_ngai","join_key":"21115","status":"active","dataset_effective_date":"2026-04-30","catalog_version":"2026-07-12","geometry_status":"not_embedded_boundary_available_by_url","boundary_source_url":"https://raw.githubusercontent.com/thanglequoc/vietnamese-provinces-database/master/json/geojson/51_quang_ngai/wards/21115_tra_bong.geojson","boundary_source_page":"https://github.com/thanglequoc/vietnamese-provinces-database/blob/master/json/geojson/51_quang_ngai/wards/21115_tra_bong.geojson","source_catalog":"https://github.com/thanglequoc/vietnamese-provinces-database"},"geometry":null},{"type":"Feature","id":"21124","properties":{"commune_code":"21124","commune_name":"Thanh Bồng","commune_name_en":"Thanh Bong","commune_full_name":"Xã Thanh Bồng","commune_full_name_en":"Thanh Bong Commune","commune_slug":"thanh_bong","unit_type":"Xã","unit_type_en":"Commune","admin_level":2,"province_code":"51","province_name":"Quảng Ngãi","province_full_name":"Tỉnh Quảng Ngãi","province_slug":"quang_ngai","join_key":"21124","status":"active","dataset_effective_date":"2026-04-30","catalog_version":"2026-07-12","geometry_status":"not_embedded_boundary_available_by_url","boundary_source_url":"https://raw.githubusercontent.com/thanglequoc/vietnamese-provinces-database/master/json/geojson/51_quang_ngai/wards/21124_thanh_bong.geojson","boundary_source_page":"https://github.com/thanglequoc/vietnamese-provinces-database/blob/master/json/geojson/51_quang_ngai/wards/21124_thanh_bong.geojson","source_catalog":"https://github.com/thanglequoc/vietnamese-provinces-database"},"geometry":null},{"type":"Feature","id":"21127","properties":{"commune_code":"21127","commune_name":"Đông Trà Bồng","commune_name_en":"Dong Tra Bong","commune_full_name":"Xã Đông Trà Bồng","commune_full_name_en":"Dong Tra Bong Commune","commune_slug":"dong_tra_bong","unit_type":"Xã","unit_type_en":"Commune","admin_level":2,"province_code":"51","province_name":"Quảng Ngãi","province_full_name":"Tỉnh Quảng Ngãi","province_slug":"quang_ngai","join_key":"21127","status":"active","dataset_effective_date":"2026-04-30","catalog_version":"2026-07-12","geometry_status":"not_embedded_boundary_available_by_url","boundary_source_url":"https://raw.githubusercontent.com/thanglequoc/vietnamese-provinces-database/master/json/geojson/51_quang_ngai/wards/21127_dong_tra_bong.geojson","boundary_source_page":"https://github.com/thanglequoc/vietnamese-provinces-database/blob/master/json/geojson/51_quang_ngai/wards/21127_dong_tra_bong.geojson","source_catalog":"https://github.com/thanglequoc/vietnamese-provinces-database"},"geometry":null},{"type":"Feature","id":"21136","properties":{"commune_code":"21136","commune_name":"Cà Đam","commune_name_en":"Ca Dam","commune_full_name":"Xã Cà Đam","commune_full_name_en":"Ca Dam Commune","commune_slug":"ca_dam","unit_type":"Xã","unit_type_en":"Commune","admin_level":2,"province_code":"51","province_name":"Quảng Ngãi","province_full_name":"Tỉnh Quảng Ngãi","province_slug":"quang_ngai","join_key":"21136","status":"active","dataset_effective_date":"2026-04-30","catalog_version":"2026-07-12","geometry_status":"not_embedded_boundary_available_by_url","boundary_source_url":"https://raw.githubusercontent.com/thanglequoc/vietnamese-provinces-database/master/json/geojson/51_quang_ngai/wards/21136_ca_dam.geojson","boundary_source_page":"https://github.com/thanglequoc/vietnamese-provinces-database/blob/master/json/geojson/51_quang_ngai/wards/21136_ca_dam.geojson","source_catalog":"https://github.com/thanglequoc/vietnamese-provinces-database"},"geometry":null},{"type":"Feature","id":"21154","properties":{"commune_code":"21154","commune_name":"Tây Trà","commune_name_en":"Tay Tra","commune_full_name":"Xã Tây Trà","commune_full_name_en":"Tay Tra Commune","commune_slug":"tay_tra","unit_type":"Xã","unit_type_en":"Commune","admin_level":2,"province_code":"51","province_name":"Quảng Ngãi","province_full_name":"Tỉnh Quảng Ngãi","province_slug":"quang_ngai","join_key":"21154","status":"active","dataset_effective_date":"2026-04-30","catalog_version":"2026-07-12","geometry_status":"not_embedded_boundary_available_by_url","boundary_source_url":"https://raw.githubusercontent.com/thanglequoc/vietnamese-provinces-database/master/json/geojson/51_quang_ngai/wards/21154_tay_tra.geojson","boundary_source_page":"https://github.com/thanglequoc/vietnamese-provinces-database/blob/master/json/geojson/51_quang_ngai/wards/21154_tay_tra.geojson","source_catalog":"https://github.com/thanglequoc/vietnamese-provinces-database"},"geometry":null},{"type":"Feature","id":"21157","properties":{"commune_code":"21157","commune_name":"Tây Trà Bồng","commune_name_en":"Tay Tra Bong","commune_full_name":"Xã Tây Trà Bồng","commune_full_name_en":"Tay Tra Bong Commune","commune_slug":"tay_tra_bong","unit_type":"Xã","unit_type_en":"Commune","admin_level":2,"province_code":"51","province_name":"Quảng Ngãi","province_full_name":"Tỉnh Quảng Ngãi","province_slug":"quang_ngai","join_key":"21157","status":"active","dataset_effective_date":"2026-04-30","catalog_version":"2026-07-12","geometry_status":"not_embedded_boundary_available_by_url","boundary_source_url":"https://raw.githubusercontent.com/thanglequoc/vietnamese-provinces-database/master/json/geojson/51_quang_ngai/wards/21157_tay_tra_bong.geojson","boundary_source_page":"https://github.com/thanglequoc/vietnamese-provinces-database/blob/master/json/geojson/51_quang_ngai/wards/21157_tay_tra_bong.geojson","source_catalog":"https://github.com/thanglequoc/vietnamese-provinces-database"},"geometry":null},{"type":"Feature","id":"21172","properties":{"commune_code":"21172","commune_name":"Trương Quang Trọng","commune_name_en":"Truong Quang Trong","commune_full_name":"Phường Trương Quang Trọng","commune_full_name_en":"Truong Quang Trong Ward","commune_slug":"truong_quang_trong","unit_type":"Phường","unit_type_en":"Ward","admin_level":2,"province_code":"51","province_name":"Quảng Ngãi","province_full_name":"Tỉnh Quảng Ngãi","province_slug":"quang_ngai","join_key":"21172","status":"active","dataset_effective_date":"2026-04-30","catalog_version":"2026-07-12","geometry_status":"not_embedded_boundary_available_by_url","boundary_source_url":"https://raw.githubusercontent.com/thanglequoc/vietnamese-provinces-database/master/json/geojson/51_quang_ngai/wards/21172_truong_quang_trong.geojson","boundary_source_page":"https://github.com/thanglequoc/vietnamese-provinces-database/blob/master/json/geojson/51_quang_ngai/wards/21172_truong_quang_trong.geojson","source_catalog":"https://github.com/thanglequoc/vietnamese-provinces-database"},"geometry":null},{"type":"Feature","id":"21181","properties":{"commune_code":"21181","commune_name":"Thọ Phong","commune_name_en":"Tho Phong","commune_full_name":"Xã Thọ Phong","commune_full_name_en":"Tho Phong Commune","commune_slug":"tho_phong","unit_type":"Xã","unit_type_en":"Commune","admin_level":2,"province_code":"51","province_name":"Quảng Ngãi","province_full_name":"Tỉnh Quảng Ngãi","province_slug":"quang_ngai","join_key":"21181","status":"active","dataset_effective_date":"2026-04-30","catalog_version":"2026-07-12","geometry_status":"not_embedded_boundary_available_by_url","boundary_source_url":"https://raw.githubusercontent.com/thanglequoc/vietnamese-provinces-database/master/json/geojson/51_quang_ngai/wards/21181_tho_phong.geojson","boundary_source_page":"https://github.com/thanglequoc/vietnamese-provinces-database/blob/master/json/geojson/51_quang_ngai/wards/21181_tho_phong.geojson","source_catalog":"https://github.com/thanglequoc/vietnamese-provinces-database"},"geometry":null},{"type":"Feature","id":"21196","properties":{"commune_code":"21196","commune_name":"Trường Giang","commune_name_en":"Truong Giang","commune_full_name":"Xã Trường Giang","commune_full_name_en":"Truong Giang Commune","commune_slug":"truong_giang","unit_type":"Xã","unit_type_en":"Commune","admin_level":2,"province_code":"51","province_name":"Quảng Ngãi","province_full_name":"Tỉnh Quảng Ngãi","province_slug":"quang_ngai","join_key":"21196","status":"active","dataset_effective_date":"2026-04-30","catalog_version":"2026-07-12","geometry_status":"not_embedded_boundary_available_by_url","boundary_source_url":"https://raw.githubusercontent.com/thanglequoc/vietnamese-provinces-database/master/json/geojson/51_quang_ngai/wards/21196_truong_giang.geojson","boundary_source_page":"https://github.com/thanglequoc/vietnamese-provinces-database/blob/master/json/geojson/51_quang_ngai/wards/21196_truong_giang.geojson","source_catalog":"https://github.com/thanglequoc/vietnamese-provinces-database"},"geometry":null},{"type":"Feature","id":"21205","properties":{"commune_code":"21205","commune_name":"Ba Gia","commune_name_en":"Ba Gia","commune_full_name":"Xã Ba Gia","commune_full_name_en":"Ba Gia Commune","commune_slug":"ba_gia","unit_type":"Xã","unit_type_en":"Commune","admin_level":2,"province_code":"51","province_name":"Quảng Ngãi","province_full_name":"Tỉnh Quảng Ngãi","province_slug":"quang_ngai","join_key":"21205","status":"active","dataset_effective_date":"2026-04-30","catalog_version":"2026-07-12","geometry_status":"not_embedded_boundary_available_by_url","boundary_source_url":"https://raw.githubusercontent.com/thanglequoc/vietnamese-provinces-database/master/json/geojson/51_quang_ngai/wards/21205_ba_gia.geojson","boundary_source_page":"https://github.com/thanglequoc/vietnamese-provinces-database/blob/master/json/geojson/51_quang_ngai/wards/21205_ba_gia.geojson","source_catalog":"https://github.com/thanglequoc/vietnamese-provinces-database"},"geometry":null},{"type":"Feature","id":"21211","properties":{"commune_code":"21211","commune_name":"Tịnh Khê","commune_name_en":"Tinh Khe","commune_full_name":"Xã Tịnh Khê","commune_full_name_en":"Tinh Khe Commune","commune_slug":"tinh_khe","unit_type":"Xã","unit_type_en":"Commune","admin_level":2,"province_code":"51","province_name":"Quảng Ngãi","province_full_name":"Tỉnh Quảng Ngãi","province_slug":"quang_ngai","join_key":"21211","status":"active","dataset_effective_date":"2026-04-30","catalog_version":"2026-07-12","geometry_status":"not_embedded_boundary_available_by_url","boundary_source_url":"https://raw.githubusercontent.com/thanglequoc/vietnamese-provinces-database/master/json/geojson/51_quang_ngai/wards/21211_tinh_khe.geojson","boundary_source_page":"https://github.com/thanglequoc/vietnamese-provinces-database/blob/master/json/geojson/51_quang_ngai/wards/21211_tinh_khe.geojson","source_catalog":"https://github.com/thanglequoc/vietnamese-provinces-database"},"geometry":null},{"type":"Feature","id":"21220","properties":{"commune_code":"21220","commune_name":"Sơn Tịnh","commune_name_en":"Son Tinh","commune_full_name":"Xã Sơn Tịnh","commune_full_name_en":"Son Tinh Commune","commune_slug":"son_tinh","unit_type":"Xã","unit_type_en":"Commune","admin_level":2,"province_code":"51","province_name":"Quảng Ngãi","province_full_name":"Tỉnh Quảng Ngãi","province_slug":"quang_ngai","join_key":"21220","status":"active","dataset_effective_date":"2026-04-30","catalog_version":"2026-07-12","geometry_status":"not_embedded_boundary_available_by_url","boundary_source_url":"https://raw.githubusercontent.com/thanglequoc/vietnamese-provinces-database/master/json/geojson/51_quang_ngai/wards/21220_son_tinh.geojson","boundary_source_page":"https://github.com/thanglequoc/vietnamese-provinces-database/blob/master/json/geojson/51_quang_ngai/wards/21220_son_tinh.geojson","source_catalog":"https://github.com/thanglequoc/vietnamese-provinces-database"},"geometry":null},{"type":"Feature","id":"21235","properties":{"commune_code":"21235","commune_name":"Tư Nghĩa","commune_name_en":"Tu Nghia","commune_full_name":"Xã Tư Nghĩa","commune_full_name_en":"Tu Nghia Commune","commune_slug":"tu_nghia","unit_type":"Xã","unit_type_en":"Commune","admin_level":2,"province_code":"51","province_name":"Quảng Ngãi","province_full_name":"Tỉnh Quảng Ngãi","province_slug":"quang_ngai","join_key":"21235","status":"active","dataset_effective_date":"2026-04-30","catalog_version":"2026-07-12","geometry_status":"not_embedded_boundary_available_by_url","boundary_source_url":"https://raw.githubusercontent.com/thanglequoc/vietnamese-provinces-database/master/json/geojson/51_quang_ngai/wards/21235_tu_nghia.geojson","boundary_source_page":"https://github.com/thanglequoc/vietnamese-provinces-database/blob/master/json/geojson/51_quang_ngai/wards/21235_tu_nghia.geojson","source_catalog":"https://github.com/thanglequoc/vietnamese-provinces-database"},"geometry":null},{"type":"Feature","id":"21238","properties":{"commune_code":"21238","commune_name":"Vệ Giang","commune_name_en":"Ve Giang","commune_full_name":"Xã Vệ Giang","commune_full_name_en":"Ve Giang Commune","commune_slug":"ve_giang","unit_type":"Xã","unit_type_en":"Commune","admin_level":2,"province_code":"51","province_name":"Quảng Ngãi","province_full_name":"Tỉnh Quảng Ngãi","province_slug":"quang_ngai","join_key":"21238","status":"active","dataset_effective_date":"2026-04-30","catalog_version":"2026-07-12","geometry_status":"not_embedded_boundary_available_by_url","boundary_source_url":"https://raw.githubusercontent.com/thanglequoc/vietnamese-provinces-database/master/json/geojson/51_quang_ngai/wards/21238_ve_giang.geojson","boundary_source_page":"https://github.com/thanglequoc/vietnamese-provinces-database/blob/master/json/geojson/51_quang_ngai/wards/21238_ve_giang.geojson","source_catalog":"https://github.com/thanglequoc/vietnamese-provinces-database"},"geometry":null},{"type":"Feature","id":"21244","properties":{"commune_code":"21244","commune_name":"Trà Giang","commune_name_en":"Tra Giang","commune_full_name":"Xã Trà Giang","commune_full_name_en":"Tra Giang Commune","commune_slug":"tra_giang","unit_type":"Xã","unit_type_en":"Commune","admin_level":2,"province_code":"51","province_name":"Quảng Ngãi","province_full_name":"Tỉnh Quảng Ngãi","province_slug":"quang_ngai","join_key":"21244","status":"active","dataset_effective_date":"2026-04-30","catalog_version":"2026-07-12","geometry_status":"not_embedded_boundary_available_by_url","boundary_source_url":"https://raw.githubusercontent.com/thanglequoc/vietnamese-provinces-database/master/json/geojson/51_quang_ngai/wards/21244_tra_giang.geojson","boundary_source_page":"https://github.com/thanglequoc/vietnamese-provinces-database/blob/master/json/geojson/51_quang_ngai/wards/21244_tra_giang.geojson","source_catalog":"https://github.com/thanglequoc/vietnamese-provinces-database"},"geometry":null},{"type":"Feature","id":"21250","properties":{"commune_code":"21250","commune_name":"Nghĩa Giang","commune_name_en":"Nghia Giang","commune_full_name":"Xã Nghĩa Giang","commune_full_name_en":"Nghia Giang Commune","commune_slug":"nghia_giang","unit_type":"Xã","unit_type_en":"Commune","admin_level":2,"province_code":"51","province_name":"Quảng Ngãi","province_full_name":"Tỉnh Quảng Ngãi","province_slug":"quang_ngai","join_key":"21250","status":"active","dataset_effective_date":"2026-04-30","catalog_version":"2026-07-12","geometry_status":"not_embedded_boundary_available_by_url","boundary_source_url":"https://raw.githubusercontent.com/thanglequoc/vietnamese-provinces-database/master/json/geojson/51_quang_ngai/wards/21250_nghia_giang.geojson","boundary_source_page":"https://github.com/thanglequoc/vietnamese-provinces-database/blob/master/json/geojson/51_quang_ngai/wards/21250_nghia_giang.geojson","source_catalog":"https://github.com/thanglequoc/vietnamese-provinces-database"},"geometry":null},{"type":"Feature","id":"21289","properties":{"commune_code":"21289","commune_name":"Sơn Hà","commune_name_en":"Son Ha","commune_full_name":"Xã Sơn Hà","commune_full_name_en":"Son Ha Commune","commune_slug":"son_ha","unit_type":"Xã","unit_type_en":"Commune","admin_level":2,"province_code":"51","province_name":"Quảng Ngãi","province_full_name":"Tỉnh Quảng Ngãi","province_slug":"quang_ngai","join_key":"21289","status":"active","dataset_effective_date":"2026-04-30","catalog_version":"2026-07-12","geometry_status":"not_embedded_boundary_available_by_url","boundary_source_url":"https://raw.githubusercontent.com/thanglequoc/vietnamese-provinces-database/master/json/geojson/51_quang_ngai/wards/21289_son_ha.geojson","boundary_source_page":"https://github.com/thanglequoc/vietnamese-provinces-database/blob/master/json/geojson/51_quang_ngai/wards/21289_son_ha.geojson","source_catalog":"https://github.com/thanglequoc/vietnamese-provinces-database"},"geometry":null},{"type":"Feature","id":"21292","properties":{"commune_code":"21292","commune_name":"Sơn Hạ","commune_name_en":"Son Ha","commune_full_name":"Xã Sơn Hạ","commune_full_name_en":"Son Ha Commune","commune_slug":"son_ha","unit_type":"Xã","unit_type_en":"Commune","admin_level":2,"province_code":"51","province_name":"Quảng Ngãi","province_full_name":"Tỉnh Quảng Ngãi","province_slug":"quang_ngai","join_key":"21292","status":"active","dataset_effective_date":"2026-04-30","catalog_version":"2026-07-12","geometry_status":"not_embedded_boundary_available_by_url","boundary_source_url":"https://raw.githubusercontent.com/thanglequoc/vietnamese-provinces-database/master/json/geojson/51_quang_ngai/wards/21292_son_ha.geojson","boundary_source_page":"https://github.com/thanglequoc/vietnamese-provinces-database/blob/master/json/geojson/51_quang_ngai/wards/21292_son_ha.geojson","source_catalog":"https://github.com/thanglequoc/vietnamese-provinces-database"},"geometry":null},{"type":"Feature","id":"21307","properties":{"commune_code":"21307","commune_name":"Sơn Linh","commune_name_en":"Son Linh","commune_full_name":"Xã Sơn Linh","commune_full_name_en":"Son Linh Commune","commune_slug":"son_linh","unit_type":"Xã","unit_type_en":"Commune","admin_level":2,"province_code":"51","province_name":"Quảng Ngãi","province_full_name":"Tỉnh Quảng Ngãi","province_slug":"quang_ngai","join_key":"21307","status":"active","dataset_effective_date":"2026-04-30","catalog_version":"2026-07-12","geometry_status":"not_embedded_boundary_available_by_url","boundary_source_url":"https://raw.githubusercontent.com/thanglequoc/vietnamese-provinces-database/master/json/geojson/51_quang_ngai/wards/21307_son_linh.geojson","boundary_source_page":"https://github.com/thanglequoc/vietnamese-provinces-database/blob/master/json/geojson/51_quang_ngai/wards/21307_son_linh.geojson","source_catalog":"https://github.com/thanglequoc/vietnamese-provinces-database"},"geometry":null},{"type":"Feature","id":"21319","properties":{"commune_code":"21319","commune_name":"Sơn Thuỷ","commune_name_en":"Son Thuy","commune_full_name":"Xã Sơn Thuỷ","commune_full_name_en":"Son Thuy Commune","commune_slug":"son_thuy","unit_type":"Xã","unit_type_en":"Commune","admin_level":2,"province_code":"51","province_name":"Quảng Ngãi","province_full_name":"Tỉnh Quảng Ngãi","province_slug":"quang_ngai","join_key":"21319","status":"active","dataset_effective_date":"2026-04-30","catalog_version":"2026-07-12","geometry_status":"not_embedded_boundary_available_by_url","boundary_source_url":"https://raw.githubusercontent.com/thanglequoc/vietnamese-provinces-database/master/json/geojson/51_quang_ngai/wards/21319_son_thuy.geojson","boundary_source_page":"https://github.com/thanglequoc/vietnamese-provinces-database/blob/master/json/geojson/51_quang_ngai/wards/21319_son_thuy.geojson","source_catalog":"https://github.com/thanglequoc/vietnamese-provinces-database"},"geometry":null},{"type":"Feature","id":"21325","properties":{"commune_code":"21325","commune_name":"Sơn Kỳ","commune_name_en":"Son Ky","commune_full_name":"Xã Sơn Kỳ","commune_full_name_en":"Son Ky Commune","commune_slug":"son_ky","unit_type":"Xã","unit_type_en":"Commune","admin_level":2,"province_code":"51","province_name":"Quảng Ngãi","province_full_name":"Tỉnh Quảng Ngãi","province_slug":"quang_ngai","join_key":"21325","status":"active","dataset_effective_date":"2026-04-30","catalog_version":"2026-07-12","geometry_status":"not_embedded_boundary_available_by_url","boundary_source_url":"https://raw.githubusercontent.com/thanglequoc/vietnamese-provinces-database/master/json/geojson/51_quang_ngai/wards/21325_son_ky.geojson","boundary_source_page":"https://github.com/thanglequoc/vietnamese-provinces-database/blob/master/json/geojson/51_quang_ngai/wards/21325_son_ky.geojson","source_catalog":"https://github.com/thanglequoc/vietnamese-provinces-database"},"geometry":null},{"type":"Feature","id":"21334","properties":{"commune_code":"21334","commune_name":"Sơn Tây Thượng","commune_name_en":"Son Tay Thuong","commune_full_name":"Xã Sơn Tây Thượng","commune_full_name_en":"Son Tay Thuong Commune","commune_slug":"son_tay_thuong","unit_type":"Xã","unit_type_en":"Commune","admin_level":2,"province_code":"51","province_name":"Quảng Ngãi","province_full_name":"Tỉnh Quảng Ngãi","province_slug":"quang_ngai","join_key":"21334","status":"active","dataset_effective_date":"2026-04-30","catalog_version":"2026-07-12","geometry_status":"not_embedded_boundary_available_by_url","boundary_source_url":"https://raw.githubusercontent.com/thanglequoc/vietnamese-provinces-database/master/json/geojson/51_quang_ngai/wards/21334_son_tay_thuong.geojson","boundary_source_page":"https://github.com/thanglequoc/vietnamese-provinces-database/blob/master/json/geojson/51_quang_ngai/wards/21334_son_tay_thuong.geojson","source_catalog":"https://github.com/thanglequoc/vietnamese-provinces-database"},"geometry":null},{"type":"Feature","id":"21340","properties":{"commune_code":"21340","commune_name":"Sơn Tây","commune_name_en":"Son Tay","commune_full_name":"Xã Sơn Tây","commune_full_name_en":"Son Tay Commune","commune_slug":"son_tay","unit_type":"Xã","unit_type_en":"Commune","admin_level":2,"province_code":"51","province_name":"Quảng Ngãi","province_full_name":"Tỉnh Quảng Ngãi","province_slug":"quang_ngai","join_key":"21340","status":"active","dataset_effective_date":"2026-04-30","catalog_version":"2026-07-12","geometry_status":"not_embedded_boundary_available_by_url","boundary_source_url":"https://raw.githubusercontent.com/thanglequoc/vietnamese-provinces-database/master/json/geojson/51_quang_ngai/wards/21340_son_tay.geojson","boundary_source_page":"https://github.com/thanglequoc/vietnamese-provinces-database/blob/master/json/geojson/51_quang_ngai/wards/21340_son_tay.geojson","source_catalog":"https://github.com/thanglequoc/vietnamese-provinces-database"},"geometry":null},{"type":"Feature","id":"21343","properties":{"commune_code":"21343","commune_name":"Sơn Tây Hạ","commune_name_en":"Son Tay Ha","commune_full_name":"Xã Sơn Tây Hạ","commune_full_name_en":"Son Tay Ha Commune","commune_slug":"son_tay_ha","unit_type":"Xã","unit_type_en":"Commune","admin_level":2,"province_code":"51","province_name":"Quảng Ngãi","province_full_name":"Tỉnh Quảng Ngãi","province_slug":"quang_ngai","join_key":"21343","status":"active","dataset_effective_date":"2026-04-30","catalog_version":"2026-07-12","geometry_status":"not_embedded_boundary_available_by_url","boundary_source_url":"https://raw.githubusercontent.com/thanglequoc/vietnamese-provinces-database/master/json/geojson/51_quang_ngai/wards/21343_son_tay_ha.geojson","boundary_source_page":"https://github.com/thanglequoc/vietnamese-provinces-database/blob/master/json/geojson/51_quang_ngai/wards/21343_son_tay_ha.geojson","source_catalog":"https://github.com/thanglequoc/vietnamese-provinces-database"},"geometry":null},{"type":"Feature","id":"21349","properties":{"commune_code":"21349","commune_name":"Sơn Mai","commune_name_en":"Son Mai","commune_full_name":"Xã Sơn Mai","commune_full_name_en":"Son Mai Commune","commune_slug":"son_mai","unit_type":"Xã","unit_type_en":"Commune","admin_level":2,"province_code":"51","province_name":"Quảng Ngãi","province_full_name":"Tỉnh Quảng Ngãi","province_slug":"quang_ngai","join_key":"21349","status":"active","dataset_effective_date":"2026-04-30","catalog_version":"2026-07-12","geometry_status":"not_embedded_boundary_available_by_url","boundary_source_url":"https://raw.githubusercontent.com/thanglequoc/vietnamese-provinces-database/master/json/geojson/51_quang_ngai/wards/21349_son_mai.geojson","boundary_source_page":"https://github.com/thanglequoc/vietnamese-provinces-database/blob/master/json/geojson/51_quang_ngai/wards/21349_son_mai.geojson","source_catalog":"https://github.com/thanglequoc/vietnamese-provinces-database"},"geometry":null},{"type":"Feature","id":"21361","properties":{"commune_code":"21361","commune_name":"Minh Long","commune_name_en":"Minh Long","commune_full_name":"Xã Minh Long","commune_full_name_en":"Minh Long Commune","commune_slug":"minh_long","unit_type":"Xã","unit_type_en":"Commune","admin_level":2,"province_code":"51","province_name":"Quảng Ngãi","province_full_name":"Tỉnh Quảng Ngãi","province_slug":"quang_ngai","join_key":"21361","status":"active","dataset_effective_date":"2026-04-30","catalog_version":"2026-07-12","geometry_status":"not_embedded_boundary_available_by_url","boundary_source_url":"https://raw.githubusercontent.com/thanglequoc/vietnamese-provinces-database/master/json/geojson/51_quang_ngai/wards/21361_minh_long.geojson","boundary_source_page":"https://github.com/thanglequoc/vietnamese-provinces-database/blob/master/json/geojson/51_quang_ngai/wards/21361_minh_long.geojson","source_catalog":"https://github.com/thanglequoc/vietnamese-provinces-database"},"geometry":null},{"type":"Feature","id":"21364","properties":{"commune_code":"21364","commune_name":"Nghĩa Hành","commune_name_en":"Nghia Hanh","commune_full_name":"Xã Nghĩa Hành","commune_full_name_en":"Nghia Hanh Commune","commune_slug":"nghia_hanh","unit_type":"Xã","unit_type_en":"Commune","admin_level":2,"province_code":"51","province_name":"Quảng Ngãi","province_full_name":"Tỉnh Quảng Ngãi","province_slug":"quang_ngai","join_key":"21364","status":"active","dataset_effective_date":"2026-04-30","catalog_version":"2026-07-12","geometry_status":"not_embedded_boundary_available_by_url","boundary_source_url":"https://raw.githubusercontent.com/thanglequoc/vietnamese-provinces-database/master/json/geojson/51_quang_ngai/wards/21364_nghia_hanh.geojson","boundary_source_page":"https://github.com/thanglequoc/vietnamese-provinces-database/blob/master/json/geojson/51_quang_ngai/wards/21364_nghia_hanh.geojson","source_catalog":"https://github.com/thanglequoc/vietnamese-provinces-database"},"geometry":null},{"type":"Feature","id":"21370","properties":{"commune_code":"21370","commune_name":"Phước Giang","commune_name_en":"Phuoc Giang","commune_full_name":"Xã Phước Giang","commune_full_name_en":"Phuoc Giang Commune","commune_slug":"phuoc_giang","unit_type":"Xã","unit_type_en":"Commune","admin_level":2,"province_code":"51","province_name":"Quảng Ngãi","province_full_name":"Tỉnh Quảng Ngãi","province_slug":"quang_ngai","join_key":"21370","status":"active","dataset_effective_date":"2026-04-30","catalog_version":"2026-07-12","geometry_status":"not_embedded_boundary_available_by_url","boundary_source_url":"https://raw.githubusercontent.com/thanglequoc/vietnamese-provinces-database/master/json/geojson/51_quang_ngai/wards/21370_phuoc_giang.geojson","boundary_source_page":"https://github.com/thanglequoc/vietnamese-provinces-database/blob/master/json/geojson/51_quang_ngai/wards/21370_phuoc_giang.geojson","source_catalog":"https://github.com/thanglequoc/vietnamese-provinces-database"},"geometry":null},{"type":"Feature","id":"21385","properties":{"commune_code":"21385","commune_name":"Đình Cương","commune_name_en":"Dinh Cuong","commune_full_name":"Xã Đình Cương","commune_full_name_en":"Dinh Cuong Commune","commune_slug":"dinh_cuong","unit_type":"Xã","unit_type_en":"Commune","admin_level":2,"province_code":"51","province_name":"Quảng Ngãi","province_full_name":"Tỉnh Quảng Ngãi","province_slug":"quang_ngai","join_key":"21385","status":"active","dataset_effective_date":"2026-04-30","catalog_version":"2026-07-12","geometry_status":"not_embedded_boundary_available_by_url","boundary_source_url":"https://raw.githubusercontent.com/thanglequoc/vietnamese-provinces-database/master/json/geojson/51_quang_ngai/wards/21385_dinh_cuong.geojson","boundary_source_page":"https://github.com/thanglequoc/vietnamese-provinces-database/blob/master/json/geojson/51_quang_ngai/wards/21385_dinh_cuong.geojson","source_catalog":"https://github.com/thanglequoc/vietnamese-provinces-database"},"geometry":null},{"type":"Feature","id":"21388","properties":{"commune_code":"21388","commune_name":"Thiện Tín","commune_name_en":"Thien Tin","commune_full_name":"Xã Thiện Tín","commune_full_name_en":"Thien Tin Commune","commune_slug":"thien_tin","unit_type":"Xã","unit_type_en":"Commune","admin_level":2,"province_code":"51","province_name":"Quảng Ngãi","province_full_name":"Tỉnh Quảng Ngãi","province_slug":"quang_ngai","join_key":"21388","status":"active","dataset_effective_date":"2026-04-30","catalog_version":"2026-07-12","geometry_status":"not_embedded_boundary_available_by_url","boundary_source_url":"https://raw.githubusercontent.com/thanglequoc/vietnamese-provinces-database/master/json/geojson/51_quang_ngai/wards/21388_thien_tin.geojson","boundary_source_page":"https://github.com/thanglequoc/vietnamese-provinces-database/blob/master/json/geojson/51_quang_ngai/wards/21388_thien_tin.geojson","source_catalog":"https://github.com/thanglequoc/vietnamese-provinces-database"},"geometry":null},{"type":"Feature","id":"21400","properties":{"commune_code":"21400","commune_name":"Mộ Đức","commune_name_en":"Mo Duc","commune_full_name":"Xã Mộ Đức","commune_full_name_en":"Mo Duc Commune","commune_slug":"mo_duc","unit_type":"Xã","unit_type_en":"Commune","admin_level":2,"province_code":"51","province_name":"Quảng Ngãi","province_full_name":"Tỉnh Quảng Ngãi","province_slug":"quang_ngai","join_key":"21400","status":"active","dataset_effective_date":"2026-04-30","catalog_version":"2026-07-12","geometry_status":"not_embedded_boundary_available_by_url","boundary_source_url":"https://raw.githubusercontent.com/thanglequoc/vietnamese-provinces-database/master/json/geojson/51_quang_ngai/wards/21400_mo_duc.geojson","boundary_source_page":"https://github.com/thanglequoc/vietnamese-provinces-database/blob/master/json/geojson/51_quang_ngai/wards/21400_mo_duc.geojson","source_catalog":"https://github.com/thanglequoc/vietnamese-provinces-database"},"geometry":null},{"type":"Feature","id":"21409","properties":{"commune_code":"21409","commune_name":"Long Phụng","commune_name_en":"Long Phung","commune_full_name":"Xã Long Phụng","commune_full_name_en":"Long Phung Commune","commune_slug":"long_phung","unit_type":"Xã","unit_type_en":"Commune","admin_level":2,"province_code":"51","province_name":"Quảng Ngãi","province_full_name":"Tỉnh Quảng Ngãi","province_slug":"quang_ngai","join_key":"21409","status":"active","dataset_effective_date":"2026-04-30","catalog_version":"2026-07-12","geometry_status":"not_embedded_boundary_available_by_url","boundary_source_url":"https://raw.githubusercontent.com/thanglequoc/vietnamese-provinces-database/master/json/geojson/51_quang_ngai/wards/21409_long_phung.geojson","boundary_source_page":"https://github.com/thanglequoc/vietnamese-provinces-database/blob/master/json/geojson/51_quang_ngai/wards/21409_long_phung.geojson","source_catalog":"https://github.com/thanglequoc/vietnamese-provinces-database"},"geometry":null},{"type":"Feature","id":"21421","properties":{"commune_code":"21421","commune_name":"Mỏ Cày","commune_name_en":"Mo Cay","commune_full_name":"Xã Mỏ Cày","commune_full_name_en":"Mo Cay Commune","commune_slug":"mo_cay","unit_type":"Xã","unit_type_en":"Commune","admin_level":2,"province_code":"51","province_name":"Quảng Ngãi","province_full_name":"Tỉnh Quảng Ngãi","province_slug":"quang_ngai","join_key":"21421","status":"active","dataset_effective_date":"2026-04-30","catalog_version":"2026-07-12","geometry_status":"not_embedded_boundary_available_by_url","boundary_source_url":"https://raw.githubusercontent.com/thanglequoc/vietnamese-provinces-database/master/json/geojson/51_quang_ngai/wards/21421_mo_cay.geojson","boundary_source_page":"https://github.com/thanglequoc/vietnamese-provinces-database/blob/master/json/geojson/51_quang_ngai/wards/21421_mo_cay.geojson","source_catalog":"https://github.com/thanglequoc/vietnamese-provinces-database"},"geometry":null},{"type":"Feature","id":"21433","properties":{"commune_code":"21433","commune_name":"Lân Phong","commune_name_en":"Lan Phong","commune_full_name":"Xã Lân Phong","commune_full_name_en":"Lan Phong Commune","commune_slug":"lan_phong","unit_type":"Xã","unit_type_en":"Commune","admin_level":2,"province_code":"51","province_name":"Quảng Ngãi","province_full_name":"Tỉnh Quảng Ngãi","province_slug":"quang_ngai","join_key":"21433","status":"active","dataset_effective_date":"2026-04-30","catalog_version":"2026-07-12","geometry_status":"not_embedded_boundary_available_by_url","boundary_source_url":"https://raw.githubusercontent.com/thanglequoc/vietnamese-provinces-database/master/json/geojson/51_quang_ngai/wards/21433_lan_phong.geojson","boundary_source_page":"https://github.com/thanglequoc/vietnamese-provinces-database/blob/master/json/geojson/51_quang_ngai/wards/21433_lan_phong.geojson","source_catalog":"https://github.com/thanglequoc/vietnamese-provinces-database"},"geometry":null},{"type":"Feature","id":"21439","properties":{"commune_code":"21439","commune_name":"Đức Phổ","commune_name_en":"Duc Pho","commune_full_name":"Phường Đức Phổ","commune_full_name_en":"Duc Pho Ward","commune_slug":"duc_pho","unit_type":"Phường","unit_type_en":"Ward","admin_level":2,"province_code":"51","province_name":"Quảng Ngãi","province_full_name":"Tỉnh Quảng Ngãi","province_slug":"quang_ngai","join_key":"21439","status":"active","dataset_effective_date":"2026-04-30","catalog_version":"2026-07-12","geometry_status":"not_embedded_boundary_available_by_url","boundary_source_url":"https://raw.githubusercontent.com/thanglequoc/vietnamese-provinces-database/master/json/geojson/51_quang_ngai/wards/21439_duc_pho.geojson","boundary_source_page":"https://github.com/thanglequoc/vietnamese-provinces-database/blob/master/json/geojson/51_quang_ngai/wards/21439_duc_pho.geojson","source_catalog":"https://github.com/thanglequoc/vietnamese-provinces-database"},"geometry":null},{"type":"Feature","id":"21451","properties":{"commune_code":"21451","commune_name":"Trà Câu","commune_name_en":"Tra Cau","commune_full_name":"Phường Trà Câu","commune_full_name_en":"Tra Cau Ward","commune_slug":"tra_cau","unit_type":"Phường","unit_type_en":"Ward","admin_level":2,"province_code":"51","province_name":"Quảng Ngãi","province_full_name":"Tỉnh Quảng Ngãi","province_slug":"quang_ngai","join_key":"21451","status":"active","dataset_effective_date":"2026-04-30","catalog_version":"2026-07-12","geometry_status":"not_embedded_boundary_available_by_url","boundary_source_url":"https://raw.githubusercontent.com/thanglequoc/vietnamese-provinces-database/master/json/geojson/51_quang_ngai/wards/21451_tra_cau.geojson","boundary_source_page":"https://github.com/thanglequoc/vietnamese-provinces-database/blob/master/json/geojson/51_quang_ngai/wards/21451_tra_cau.geojson","source_catalog":"https://github.com/thanglequoc/vietnamese-provinces-database"},"geometry":null},{"type":"Feature","id":"21457","properties":{"commune_code":"21457","commune_name":"Nguyễn Nghiêm","commune_name_en":"Nguyen Nghiem","commune_full_name":"Xã Nguyễn Nghiêm","commune_full_name_en":"Nguyen Nghiem Commune","commune_slug":"nguyen_nghiem","unit_type":"Xã","unit_type_en":"Commune","admin_level":2,"province_code":"51","province_name":"Quảng Ngãi","province_full_name":"Tỉnh Quảng Ngãi","province_slug":"quang_ngai","join_key":"21457","status":"active","dataset_effective_date":"2026-04-30","catalog_version":"2026-07-12","geometry_status":"not_embedded_boundary_available_by_url","boundary_source_url":"https://raw.githubusercontent.com/thanglequoc/vietnamese-provinces-database/master/json/geojson/51_quang_ngai/wards/21457_nguyen_nghiem.geojson","boundary_source_page":"https://github.com/thanglequoc/vietnamese-provinces-database/blob/master/json/geojson/51_quang_ngai/wards/21457_nguyen_nghiem.geojson","source_catalog":"https://github.com/thanglequoc/vietnamese-provinces-database"},"geometry":null},{"type":"Feature","id":"21472","properties":{"commune_code":"21472","commune_name":"Khánh Cường","commune_name_en":"Khanh Cuong","commune_full_name":"Xã Khánh Cường","commune_full_name_en":"Khanh Cuong Commune","commune_slug":"khanh_cuong","unit_type":"Xã","unit_type_en":"Commune","admin_level":2,"province_code":"51","province_name":"Quảng Ngãi","province_full_name":"Tỉnh Quảng Ngãi","province_slug":"quang_ngai","join_key":"21472","status":"active","dataset_effective_date":"2026-04-30","catalog_version":"2026-07-12","geometry_status":"not_embedded_boundary_available_by_url","boundary_source_url":"https://raw.githubusercontent.com/thanglequoc/vietnamese-provinces-database/master/json/geojson/51_quang_ngai/wards/21472_khanh_cuong.geojson","boundary_source_page":"https://github.com/thanglequoc/vietnamese-provinces-database/blob/master/json/geojson/51_quang_ngai/wards/21472_khanh_cuong.geojson","source_catalog":"https://github.com/thanglequoc/vietnamese-provinces-database"},"geometry":null},{"type":"Feature","id":"21478","properties":{"commune_code":"21478","commune_name":"Sa Huỳnh","commune_name_en":"Sa Huynh","commune_full_name":"Phường Sa Huỳnh","commune_full_name_en":"Sa Huynh Ward","commune_slug":"sa_huynh","unit_type":"Phường","unit_type_en":"Ward","admin_level":2,"province_code":"51","province_name":"Quảng Ngãi","province_full_name":"Tỉnh Quảng Ngãi","province_slug":"quang_ngai","join_key":"21478","status":"active","dataset_effective_date":"2026-04-30","catalog_version":"2026-07-12","geometry_status":"not_embedded_boundary_available_by_url","boundary_source_url":"https://raw.githubusercontent.com/thanglequoc/vietnamese-provinces-database/master/json/geojson/51_quang_ngai/wards/21478_sa_huynh.geojson","boundary_source_page":"https://github.com/thanglequoc/vietnamese-provinces-database/blob/master/json/geojson/51_quang_ngai/wards/21478_sa_huynh.geojson","source_catalog":"https://github.com/thanglequoc/vietnamese-provinces-database"},"geometry":null},{"type":"Feature","id":"21484","properties":{"commune_code":"21484","commune_name":"Ba Tơ","commune_name_en":"Ba To","commune_full_name":"Xã Ba Tơ","commune_full_name_en":"Ba To Commune","commune_slug":"ba_to","unit_type":"Xã","unit_type_en":"Commune","admin_level":2,"province_code":"51","province_name":"Quảng Ngãi","province_full_name":"Tỉnh Quảng Ngãi","province_slug":"quang_ngai","join_key":"21484","status":"active","dataset_effective_date":"2026-04-30","catalog_version":"2026-07-12","geometry_status":"not_embedded_boundary_available_by_url","boundary_source_url":"https://raw.githubusercontent.com/thanglequoc/vietnamese-provinces-database/master/json/geojson/51_quang_ngai/wards/21484_ba_to.geojson","boundary_source_page":"https://github.com/thanglequoc/vietnamese-provinces-database/blob/master/json/geojson/51_quang_ngai/wards/21484_ba_to.geojson","source_catalog":"https://github.com/thanglequoc/vietnamese-provinces-database"},"geometry":null},{"type":"Feature","id":"21490","properties":{"commune_code":"21490","commune_name":"Ba Vinh","commune_name_en":"Ba Vinh","commune_full_name":"Xã Ba Vinh","commune_full_name_en":"Ba Vinh Commune","commune_slug":"ba_vinh","unit_type":"Xã","unit_type_en":"Commune","admin_level":2,"province_code":"51","province_name":"Quảng Ngãi","province_full_name":"Tỉnh Quảng Ngãi","province_slug":"quang_ngai","join_key":"21490","status":"active","dataset_effective_date":"2026-04-30","catalog_version":"2026-07-12","geometry_status":"not_embedded_boundary_available_by_url","boundary_source_url":"https://raw.githubusercontent.com/thanglequoc/vietnamese-provinces-database/master/json/geojson/51_quang_ngai/wards/21490_ba_vinh.geojson","boundary_source_page":"https://github.com/thanglequoc/vietnamese-provinces-database/blob/master/json/geojson/51_quang_ngai/wards/21490_ba_vinh.geojson","source_catalog":"https://github.com/thanglequoc/vietnamese-provinces-database"},"geometry":null},{"type":"Feature","id":"21496","properties":{"commune_code":"21496","commune_name":"Ba Động","commune_name_en":"Ba Dong","commune_full_name":"Xã Ba Động","commune_full_name_en":"Ba Dong Commune","commune_slug":"ba_dong","unit_type":"Xã","unit_type_en":"Commune","admin_level":2,"province_code":"51","province_name":"Quảng Ngãi","province_full_name":"Tỉnh Quảng Ngãi","province_slug":"quang_ngai","join_key":"21496","status":"active","dataset_effective_date":"2026-04-30","catalog_version":"2026-07-12","geometry_status":"not_embedded_boundary_available_by_url","boundary_source_url":"https://raw.githubusercontent.com/thanglequoc/vietnamese-provinces-database/master/json/geojson/51_quang_ngai/wards/21496_ba_dong.geojson","boundary_source_page":"https://github.com/thanglequoc/vietnamese-provinces-database/blob/master/json/geojson/51_quang_ngai/wards/21496_ba_dong.geojson","source_catalog":"https://github.com/thanglequoc/vietnamese-provinces-database"},"geometry":null},{"type":"Feature","id":"21499","properties":{"commune_code":"21499","commune_name":"Ba Dinh","commune_name_en":"Ba Dinh","commune_full_name":"Xã Ba Dinh","commune_full_name_en":"Ba Dinh Commune","commune_slug":"ba_dinh","unit_type":"Xã","unit_type_en":"Commune","admin_level":2,"province_code":"51","province_name":"Quảng Ngãi","province_full_name":"Tỉnh Quảng Ngãi","province_slug":"quang_ngai","join_key":"21499","status":"active","dataset_effective_date":"2026-04-30","catalog_version":"2026-07-12","geometry_status":"not_embedded_boundary_available_by_url","boundary_source_url":"https://raw.githubusercontent.com/thanglequoc/vietnamese-provinces-database/master/json/geojson/51_quang_ngai/wards/21499_ba_dinh.geojson","boundary_source_page":"https://github.com/thanglequoc/vietnamese-provinces-database/blob/master/json/geojson/51_quang_ngai/wards/21499_ba_dinh.geojson","source_catalog":"https://github.com/thanglequoc/vietnamese-provinces-database"},"geometry":null},{"type":"Feature","id":"21520","properties":{"commune_code":"21520","commune_name":"Đặng Thuỳ Trâm","commune_name_en":"Dang Thuy Tram","commune_full_name":"Xã Đặng Thuỳ Trâm","commune_full_name_en":"Dang Thuy Tram Commune","commune_slug":"dang_thuy_tram","unit_type":"Xã","unit_type_en":"Commune","admin_level":2,"province_code":"51","province_name":"Quảng Ngãi","province_full_name":"Tỉnh Quảng Ngãi","province_slug":"quang_ngai","join_key":"21520","status":"active","dataset_effective_date":"2026-04-30","catalog_version":"2026-07-12","geometry_status":"not_embedded_boundary_available_by_url","boundary_source_url":"https://raw.githubusercontent.com/thanglequoc/vietnamese-provinces-database/master/json/geojson/51_quang_ngai/wards/21520_dang_thuy_tram.geojson","boundary_source_page":"https://github.com/thanglequoc/vietnamese-provinces-database/blob/master/json/geojson/51_quang_ngai/wards/21520_dang_thuy_tram.geojson","source_catalog":"https://github.com/thanglequoc/vietnamese-provinces-database"},"geometry":null},{"type":"Feature","id":"21523","properties":{"commune_code":"21523","commune_name":"Ba Tô","commune_name_en":"Ba To","commune_full_name":"Xã Ba Tô","commune_full_name_en":"Ba To Commune","commune_slug":"ba_to","unit_type":"Xã","unit_type_en":"Commune","admin_level":2,"province_code":"51","province_name":"Quảng Ngãi","province_full_name":"Tỉnh Quảng Ngãi","province_slug":"quang_ngai","join_key":"21523","status":"active","dataset_effective_date":"2026-04-30","catalog_version":"2026-07-12","geometry_status":"not_embedded_boundary_available_by_url","boundary_source_url":"https://raw.githubusercontent.com/thanglequoc/vietnamese-provinces-database/master/json/geojson/51_quang_ngai/wards/21523_ba_to.geojson","boundary_source_page":"https://github.com/thanglequoc/vietnamese-provinces-database/blob/master/json/geojson/51_quang_ngai/wards/21523_ba_to.geojson","source_catalog":"https://github.com/thanglequoc/vietnamese-provinces-database"},"geometry":null},{"type":"Feature","id":"21529","properties":{"commune_code":"21529","commune_name":"Ba Vì","commune_name_en":"Ba Vi","commune_full_name":"Xã Ba Vì","commune_full_name_en":"Ba Vi Commune","commune_slug":"ba_vi","unit_type":"Xã","unit_type_en":"Commune","admin_level":2,"province_code":"51","province_name":"Quảng Ngãi","province_full_name":"Tỉnh Quảng Ngãi","province_slug":"quang_ngai","join_key":"21529","status":"active","dataset_effective_date":"2026-04-30","catalog_version":"2026-07-12","geometry_status":"not_embedded_boundary_available_by_url","boundary_source_url":"https://raw.githubusercontent.com/thanglequoc/vietnamese-provinces-database/master/json/geojson/51_quang_ngai/wards/21529_ba_vi.geojson","boundary_source_page":"https://github.com/thanglequoc/vietnamese-provinces-database/blob/master/json/geojson/51_quang_ngai/wards/21529_ba_vi.geojson","source_catalog":"https://github.com/thanglequoc/vietnamese-provinces-database"},"geometry":null},{"type":"Feature","id":"21538","properties":{"commune_code":"21538","commune_name":"Ba Xa","commune_name_en":"Ba Xa","commune_full_name":"Xã Ba Xa","commune_full_name_en":"Ba Xa Commune","commune_slug":"ba_xa","unit_type":"Xã","unit_type_en":"Commune","admin_level":2,"province_code":"51","province_name":"Quảng Ngãi","province_full_name":"Tỉnh Quảng Ngãi","province_slug":"quang_ngai","join_key":"21538","status":"active","dataset_effective_date":"2026-04-30","catalog_version":"2026-07-12","geometry_status":"not_embedded_boundary_available_by_url","boundary_source_url":"https://raw.githubusercontent.com/thanglequoc/vietnamese-provinces-database/master/json/geojson/51_quang_ngai/wards/21538_ba_xa.geojson","boundary_source_page":"https://github.com/thanglequoc/vietnamese-provinces-database/blob/master/json/geojson/51_quang_ngai/wards/21538_ba_xa.geojson","source_catalog":"https://github.com/thanglequoc/vietnamese-provinces-database"},"geometry":null},{"type":"Feature","id":"21548","properties":{"commune_code":"21548","commune_name":"Lý Sơn","commune_name_en":"Ly Son","commune_full_name":"Đặc khu Lý Sơn","commune_full_name_en":"Ly Son Special administrative region","commune_slug":"ly_son","unit_type":"Đặc khu","unit_type_en":"Special administrative region","admin_level":2,"province_code":"51","province_name":"Quảng Ngãi","province_full_name":"Tỉnh Quảng Ngãi","province_slug":"quang_ngai","join_key":"21548","status":"active","dataset_effective_date":"2026-04-30","catalog_version":"2026-07-12","geometry_status":"not_embedded_boundary_available_by_url","boundary_source_url":"https://raw.githubusercontent.com/thanglequoc/vietnamese-provinces-database/master/json/geojson/51_quang_ngai/wards/21548_ly_son.geojson","boundary_source_page":"https://github.com/thanglequoc/vietnamese-provinces-database/blob/master/json/geojson/51_quang_ngai/wards/21548_ly_son.geojson","source_catalog":"https://github.com/thanglequoc/vietnamese-provinces-database"},"geometry":null},{"type":"Feature","id":"23284","properties":{"commune_code":"23284","commune_name":"Đăk Cấm","commune_name_en":"Dak Cam","commune_full_name":"Phường Đăk Cấm","commune_full_name_en":"Dak Cam Ward","commune_slug":"dak_cam","unit_type":"Phường","unit_type_en":"Ward","admin_level":2,"province_code":"51","province_name":"Quảng Ngãi","province_full_name":"Tỉnh Quảng Ngãi","province_slug":"quang_ngai","join_key":"23284","status":"active","dataset_effective_date":"2026-04-30","catalog_version":"2026-07-12","geometry_status":"not_embedded_boundary_available_by_url","boundary_source_url":"https://raw.githubusercontent.com/thanglequoc/vietnamese-provinces-database/master/json/geojson/51_quang_ngai/wards/23284_dak_cam.geojson","boundary_source_page":"https://github.com/thanglequoc/vietnamese-provinces-database/blob/master/json/geojson/51_quang_ngai/wards/23284_dak_cam.geojson","source_catalog":"https://github.com/thanglequoc/vietnamese-provinces-database"},"geometry":null},{"type":"Feature","id":"23293","properties":{"commune_code":"23293","commune_name":"Kon Tum","commune_name_en":"Kon Tum","commune_full_name":"Phường Kon Tum","commune_full_name_en":"Kon Tum Ward","commune_slug":"kon_tum","unit_type":"Phường","unit_type_en":"Ward","admin_level":2,"province_code":"51","province_name":"Quảng Ngãi","province_full_name":"Tỉnh Quảng Ngãi","province_slug":"quang_ngai","join_key":"23293","status":"active","dataset_effective_date":"2026-04-30","catalog_version":"2026-07-12","geometry_status":"not_embedded_boundary_available_by_url","boundary_source_url":"https://raw.githubusercontent.com/thanglequoc/vietnamese-provinces-database/master/json/geojson/51_quang_ngai/wards/23293_kon_tum.geojson","boundary_source_page":"https://github.com/thanglequoc/vietnamese-provinces-database/blob/master/json/geojson/51_quang_ngai/wards/23293_kon_tum.geojson","source_catalog":"https://github.com/thanglequoc/vietnamese-provinces-database"},"geometry":null},{"type":"Feature","id":"23302","properties":{"commune_code":"23302","commune_name":"Đăk Bla","commune_name_en":"Dak Bla","commune_full_name":"Phường Đăk Bla","commune_full_name_en":"Dak Bla Ward","commune_slug":"dak_bla","unit_type":"Phường","unit_type_en":"Ward","admin_level":2,"province_code":"51","province_name":"Quảng Ngãi","province_full_name":"Tỉnh Quảng Ngãi","province_slug":"quang_ngai","join_key":"23302","status":"active","dataset_effective_date":"2026-04-30","catalog_version":"2026-07-12","geometry_status":"not_embedded_boundary_available_by_url","boundary_source_url":"https://raw.githubusercontent.com/thanglequoc/vietnamese-provinces-database/master/json/geojson/51_quang_ngai/wards/23302_dak_bla.geojson","boundary_source_page":"https://github.com/thanglequoc/vietnamese-provinces-database/blob/master/json/geojson/51_quang_ngai/wards/23302_dak_bla.geojson","source_catalog":"https://github.com/thanglequoc/vietnamese-provinces-database"},"geometry":null},{"type":"Feature","id":"23317","properties":{"commune_code":"23317","commune_name":"Ngọk Bay","commune_name_en":"Ngok Bay","commune_full_name":"Xã Ngọk Bay","commune_full_name_en":"Ngok Bay Commune","commune_slug":"ngok_bay","unit_type":"Xã","unit_type_en":"Commune","admin_level":2,"province_code":"51","province_name":"Quảng Ngãi","province_full_name":"Tỉnh Quảng Ngãi","province_slug":"quang_ngai","join_key":"23317","status":"active","dataset_effective_date":"2026-04-30","catalog_version":"2026-07-12","geometry_status":"not_embedded_boundary_available_by_url","boundary_source_url":"https://raw.githubusercontent.com/thanglequoc/vietnamese-provinces-database/master/json/geojson/51_quang_ngai/wards/23317_ngok_bay.geojson","boundary_source_page":"https://github.com/thanglequoc/vietnamese-provinces-database/blob/master/json/geojson/51_quang_ngai/wards/23317_ngok_bay.geojson","source_catalog":"https://github.com/thanglequoc/vietnamese-provinces-database"},"geometry":null},{"type":"Feature","id":"23326","properties":{"commune_code":"23326","commune_name":"Ia Chim","commune_name_en":"Ia Chim","commune_full_name":"Xã Ia Chim","commune_full_name_en":"Ia Chim Commune","commune_slug":"ia_chim","unit_type":"Xã","unit_type_en":"Commune","admin_level":2,"province_code":"51","province_name":"Quảng Ngãi","province_full_name":"Tỉnh Quảng Ngãi","province_slug":"quang_ngai","join_key":"23326","status":"active","dataset_effective_date":"2026-04-30","catalog_version":"2026-07-12","geometry_status":"not_embedded_boundary_available_by_url","boundary_source_url":"https://raw.githubusercontent.com/thanglequoc/vietnamese-provinces-database/master/json/geojson/51_quang_ngai/wards/23326_ia_chim.geojson","boundary_source_page":"https://github.com/thanglequoc/vietnamese-provinces-database/blob/master/json/geojson/51_quang_ngai/wards/23326_ia_chim.geojson","source_catalog":"https://github.com/thanglequoc/vietnamese-provinces-database"},"geometry":null},{"type":"Feature","id":"23332","properties":{"commune_code":"23332","commune_name":"Đăk Rơ Wa","commune_name_en":"Dak Ro Wa","commune_full_name":"Xã Đăk Rơ Wa","commune_full_name_en":"Dak Ro Wa Commune","commune_slug":"dak_ro_wa","unit_type":"Xã","unit_type_en":"Commune","admin_level":2,"province_code":"51","province_name":"Quảng Ngãi","province_full_name":"Tỉnh Quảng Ngãi","province_slug":"quang_ngai","join_key":"23332","status":"active","dataset_effective_date":"2026-04-30","catalog_version":"2026-07-12","geometry_status":"not_embedded_boundary_available_by_url","boundary_source_url":"https://raw.githubusercontent.com/thanglequoc/vietnamese-provinces-database/master/json/geojson/51_quang_ngai/wards/23332_dak_ro_wa.geojson","boundary_source_page":"https://github.com/thanglequoc/vietnamese-provinces-database/blob/master/json/geojson/51_quang_ngai/wards/23332_dak_ro_wa.geojson","source_catalog":"https://github.com/thanglequoc/vietnamese-provinces-database"},"geometry":null},{"type":"Feature","id":"23341","properties":{"commune_code":"23341","commune_name":"Đăk Pék","commune_name_en":"Dak Pek","commune_full_name":"Xã Đăk Pék","commune_full_name_en":"Dak Pek Commune","commune_slug":"dak_pek","unit_type":"Xã","unit_type_en":"Commune","admin_level":2,"province_code":"51","province_name":"Quảng Ngãi","province_full_name":"Tỉnh Quảng Ngãi","province_slug":"quang_ngai","join_key":"23341","status":"active","dataset_effective_date":"2026-04-30","catalog_version":"2026-07-12","geometry_status":"not_embedded_boundary_available_by_url","boundary_source_url":"https://raw.githubusercontent.com/thanglequoc/vietnamese-provinces-database/master/json/geojson/51_quang_ngai/wards/23341_dak_pek.geojson","boundary_source_page":"https://github.com/thanglequoc/vietnamese-provinces-database/blob/master/json/geojson/51_quang_ngai/wards/23341_dak_pek.geojson","source_catalog":"https://github.com/thanglequoc/vietnamese-provinces-database"},"geometry":null},{"type":"Feature","id":"23344","properties":{"commune_code":"23344","commune_name":"Đăk Plô","commune_name_en":"Dak Plo","commune_full_name":"Xã Đăk Plô","commune_full_name_en":"Dak Plo Commune","commune_slug":"dak_plo","unit_type":"Xã","unit_type_en":"Commune","admin_level":2,"province_code":"51","province_name":"Quảng Ngãi","province_full_name":"Tỉnh Quảng Ngãi","province_slug":"quang_ngai","join_key":"23344","status":"active","dataset_effective_date":"2026-04-30","catalog_version":"2026-07-12","geometry_status":"not_embedded_boundary_available_by_url","boundary_source_url":"https://raw.githubusercontent.com/thanglequoc/vietnamese-provinces-database/master/json/geojson/51_quang_ngai/wards/23344_dak_plo.geojson","boundary_source_page":"https://github.com/thanglequoc/vietnamese-provinces-database/blob/master/json/geojson/51_quang_ngai/wards/23344_dak_plo.geojson","source_catalog":"https://github.com/thanglequoc/vietnamese-provinces-database"},"geometry":null},{"type":"Feature","id":"23356","properties":{"commune_code":"23356","commune_name":"Xốp","commune_name_en":"Xop","commune_full_name":"Xã Xốp","commune_full_name_en":"Xop Commune","commune_slug":"xop","unit_type":"Xã","unit_type_en":"Commune","admin_level":2,"province_code":"51","province_name":"Quảng Ngãi","province_full_name":"Tỉnh Quảng Ngãi","province_slug":"quang_ngai","join_key":"23356","status":"active","dataset_effective_date":"2026-04-30","catalog_version":"2026-07-12","geometry_status":"not_embedded_boundary_available_by_url","boundary_source_url":"https://raw.githubusercontent.com/thanglequoc/vietnamese-provinces-database/master/json/geojson/51_quang_ngai/wards/23356_xop.geojson","boundary_source_page":"https://github.com/thanglequoc/vietnamese-provinces-database/blob/master/json/geojson/51_quang_ngai/wards/23356_xop.geojson","source_catalog":"https://github.com/thanglequoc/vietnamese-provinces-database"},"geometry":null},{"type":"Feature","id":"23365","properties":{"commune_code":"23365","commune_name":"Ngọc Linh","commune_name_en":"Ngoc Linh","commune_full_name":"Xã Ngọc Linh","commune_full_name_en":"Ngoc Linh Commune","commune_slug":"ngoc_linh","unit_type":"Xã","unit_type_en":"Commune","admin_level":2,"province_code":"51","province_name":"Quảng Ngãi","province_full_name":"Tỉnh Quảng Ngãi","province_slug":"quang_ngai","join_key":"23365","status":"active","dataset_effective_date":"2026-04-30","catalog_version":"2026-07-12","geometry_status":"not_embedded_boundary_available_by_url","boundary_source_url":"https://raw.githubusercontent.com/thanglequoc/vietnamese-provinces-database/master/json/geojson/51_quang_ngai/wards/23365_ngoc_linh.geojson","boundary_source_page":"https://github.com/thanglequoc/vietnamese-provinces-database/blob/master/json/geojson/51_quang_ngai/wards/23365_ngoc_linh.geojson","source_catalog":"https://github.com/thanglequoc/vietnamese-provinces-database"},"geometry":null},{"type":"Feature","id":"23368","properties":{"commune_code":"23368","commune_name":"Đăk Long","commune_name_en":"Dak Long","commune_full_name":"Xã Đăk Long","commune_full_name_en":"Dak Long Commune","commune_slug":"dak_long","unit_type":"Xã","unit_type_en":"Commune","admin_level":2,"province_code":"51","province_name":"Quảng Ngãi","province_full_name":"Tỉnh Quảng Ngãi","province_slug":"quang_ngai","join_key":"23368","status":"active","dataset_effective_date":"2026-04-30","catalog_version":"2026-07-12","geometry_status":"not_embedded_boundary_available_by_url","boundary_source_url":"https://raw.githubusercontent.com/thanglequoc/vietnamese-provinces-database/master/json/geojson/51_quang_ngai/wards/23368_dak_long.geojson","boundary_source_page":"https://github.com/thanglequoc/vietnamese-provinces-database/blob/master/json/geojson/51_quang_ngai/wards/23368_dak_long.geojson","source_catalog":"https://github.com/thanglequoc/vietnamese-provinces-database"},"geometry":null},{"type":"Feature","id":"23374","properties":{"commune_code":"23374","commune_name":"Đăk Môn","commune_name_en":"Dak Mon","commune_full_name":"Xã Đăk Môn","commune_full_name_en":"Dak Mon Commune","commune_slug":"dak_mon","unit_type":"Xã","unit_type_en":"Commune","admin_level":2,"province_code":"51","province_name":"Quảng Ngãi","province_full_name":"Tỉnh Quảng Ngãi","province_slug":"quang_ngai","join_key":"23374","status":"active","dataset_effective_date":"2026-04-30","catalog_version":"2026-07-12","geometry_status":"not_embedded_boundary_available_by_url","boundary_source_url":"https://raw.githubusercontent.com/thanglequoc/vietnamese-provinces-database/master/json/geojson/51_quang_ngai/wards/23374_dak_mon.geojson","boundary_source_page":"https://github.com/thanglequoc/vietnamese-provinces-database/blob/master/json/geojson/51_quang_ngai/wards/23374_dak_mon.geojson","source_catalog":"https://github.com/thanglequoc/vietnamese-provinces-database"},"geometry":null},{"type":"Feature","id":"23377","properties":{"commune_code":"23377","commune_name":"Bờ Y","commune_name_en":"Bo Y","commune_full_name":"Xã Bờ Y","commune_full_name_en":"Bo Y Commune","commune_slug":"bo_y","unit_type":"Xã","unit_type_en":"Commune","admin_level":2,"province_code":"51","province_name":"Quảng Ngãi","province_full_name":"Tỉnh Quảng Ngãi","province_slug":"quang_ngai","join_key":"23377","status":"active","dataset_effective_date":"2026-04-30","catalog_version":"2026-07-12","geometry_status":"not_embedded_boundary_available_by_url","boundary_source_url":"https://raw.githubusercontent.com/thanglequoc/vietnamese-provinces-database/master/json/geojson/51_quang_ngai/wards/23377_bo_y.geojson","boundary_source_page":"https://github.com/thanglequoc/vietnamese-provinces-database/blob/master/json/geojson/51_quang_ngai/wards/23377_bo_y.geojson","source_catalog":"https://github.com/thanglequoc/vietnamese-provinces-database"},"geometry":null},{"type":"Feature","id":"23383","properties":{"commune_code":"23383","commune_name":"Dục Nông","commune_name_en":"Duc Nong","commune_full_name":"Xã Dục Nông","commune_full_name_en":"Duc Nong Commune","commune_slug":"duc_nong","unit_type":"Xã","unit_type_en":"Commune","admin_level":2,"province_code":"51","province_name":"Quảng Ngãi","province_full_name":"Tỉnh Quảng Ngãi","province_slug":"quang_ngai","join_key":"23383","status":"active","dataset_effective_date":"2026-04-30","catalog_version":"2026-07-12","geometry_status":"not_embedded_boundary_available_by_url","boundary_source_url":"https://raw.githubusercontent.com/thanglequoc/vietnamese-provinces-database/master/json/geojson/51_quang_ngai/wards/23383_duc_nong.geojson","boundary_source_page":"https://github.com/thanglequoc/vietnamese-provinces-database/blob/master/json/geojson/51_quang_ngai/wards/23383_duc_nong.geojson","source_catalog":"https://github.com/thanglequoc/vietnamese-provinces-database"},"geometry":null},{"type":"Feature","id":"23392","properties":{"commune_code":"23392","commune_name":"Sa Loong","commune_name_en":"Sa Loong","commune_full_name":"Xã Sa Loong","commune_full_name_en":"Sa Loong Commune","commune_slug":"sa_loong","unit_type":"Xã","unit_type_en":"Commune","admin_level":2,"province_code":"51","province_name":"Quảng Ngãi","province_full_name":"Tỉnh Quảng Ngãi","province_slug":"quang_ngai","join_key":"23392","status":"active","dataset_effective_date":"2026-04-30","catalog_version":"2026-07-12","geometry_status":"not_embedded_boundary_available_by_url","boundary_source_url":"https://raw.githubusercontent.com/thanglequoc/vietnamese-provinces-database/master/json/geojson/51_quang_ngai/wards/23392_sa_loong.geojson","boundary_source_page":"https://github.com/thanglequoc/vietnamese-provinces-database/blob/master/json/geojson/51_quang_ngai/wards/23392_sa_loong.geojson","source_catalog":"https://github.com/thanglequoc/vietnamese-provinces-database"},"geometry":null},{"type":"Feature","id":"23401","properties":{"commune_code":"23401","commune_name":"Đăk Tô","commune_name_en":"Dak To","commune_full_name":"Xã Đăk Tô","commune_full_name_en":"Dak To Commune","commune_slug":"dak_to","unit_type":"Xã","unit_type_en":"Commune","admin_level":2,"province_code":"51","province_name":"Quảng Ngãi","province_full_name":"Tỉnh Quảng Ngãi","province_slug":"quang_ngai","join_key":"23401","status":"active","dataset_effective_date":"2026-04-30","catalog_version":"2026-07-12","geometry_status":"not_embedded_boundary_available_by_url","boundary_source_url":"https://raw.githubusercontent.com/thanglequoc/vietnamese-provinces-database/master/json/geojson/51_quang_ngai/wards/23401_dak_to.geojson","boundary_source_page":"https://github.com/thanglequoc/vietnamese-provinces-database/blob/master/json/geojson/51_quang_ngai/wards/23401_dak_to.geojson","source_catalog":"https://github.com/thanglequoc/vietnamese-provinces-database"},"geometry":null},{"type":"Feature","id":"23416","properties":{"commune_code":"23416","commune_name":"Đăk Sao","commune_name_en":"Dak Sao","commune_full_name":"Xã Đăk Sao","commune_full_name_en":"Dak Sao Commune","commune_slug":"dak_sao","unit_type":"Xã","unit_type_en":"Commune","admin_level":2,"province_code":"51","province_name":"Quảng Ngãi","province_full_name":"Tỉnh Quảng Ngãi","province_slug":"quang_ngai","join_key":"23416","status":"active","dataset_effective_date":"2026-04-30","catalog_version":"2026-07-12","geometry_status":"not_embedded_boundary_available_by_url","boundary_source_url":"https://raw.githubusercontent.com/thanglequoc/vietnamese-provinces-database/master/json/geojson/51_quang_ngai/wards/23416_dak_sao.geojson","boundary_source_page":"https://github.com/thanglequoc/vietnamese-provinces-database/blob/master/json/geojson/51_quang_ngai/wards/23416_dak_sao.geojson","source_catalog":"https://github.com/thanglequoc/vietnamese-provinces-database"},"geometry":null},{"type":"Feature","id":"23419","properties":{"commune_code":"23419","commune_name":"Đăk Tờ Kan","commune_name_en":"Dak To Kan","commune_full_name":"Xã Đăk Tờ Kan","commune_full_name_en":"Dak To Kan Commune","commune_slug":"dak_to_kan","unit_type":"Xã","unit_type_en":"Commune","admin_level":2,"province_code":"51","province_name":"Quảng Ngãi","province_full_name":"Tỉnh Quảng Ngãi","province_slug":"quang_ngai","join_key":"23419","status":"active","dataset_effective_date":"2026-04-30","catalog_version":"2026-07-12","geometry_status":"not_embedded_boundary_available_by_url","boundary_source_url":"https://raw.githubusercontent.com/thanglequoc/vietnamese-provinces-database/master/json/geojson/51_quang_ngai/wards/23419_dak_to_kan.geojson","boundary_source_page":"https://github.com/thanglequoc/vietnamese-provinces-database/blob/master/json/geojson/51_quang_ngai/wards/23419_dak_to_kan.geojson","source_catalog":"https://github.com/thanglequoc/vietnamese-provinces-database"},"geometry":null},{"type":"Feature","id":"23425","properties":{"commune_code":"23425","commune_name":"Tu Mơ Rông","commune_name_en":"Tu Mo Rong","commune_full_name":"Xã Tu Mơ Rông","commune_full_name_en":"Tu Mo Rong Commune","commune_slug":"tu_mo_rong","unit_type":"Xã","unit_type_en":"Commune","admin_level":2,"province_code":"51","province_name":"Quảng Ngãi","province_full_name":"Tỉnh Quảng Ngãi","province_slug":"quang_ngai","join_key":"23425","status":"active","dataset_effective_date":"2026-04-30","catalog_version":"2026-07-12","geometry_status":"not_embedded_boundary_available_by_url","boundary_source_url":"https://raw.githubusercontent.com/thanglequoc/vietnamese-provinces-database/master/json/geojson/51_quang_ngai/wards/23425_tu_mo_rong.geojson","boundary_source_page":"https://github.com/thanglequoc/vietnamese-provinces-database/blob/master/json/geojson/51_quang_ngai/wards/23425_tu_mo_rong.geojson","source_catalog":"https://github.com/thanglequoc/vietnamese-provinces-database"},"geometry":null},{"type":"Feature","id":"23428","properties":{"commune_code":"23428","commune_name":"Ngọk Tụ","commune_name_en":"Ngok Tu","commune_full_name":"Xã Ngọk Tụ","commune_full_name_en":"Ngok Tu Commune","commune_slug":"ngok_tu","unit_type":"Xã","unit_type_en":"Commune","admin_level":2,"province_code":"51","province_name":"Quảng Ngãi","province_full_name":"Tỉnh Quảng Ngãi","province_slug":"quang_ngai","join_key":"23428","status":"active","dataset_effective_date":"2026-04-30","catalog_version":"2026-07-12","geometry_status":"not_embedded_boundary_available_by_url","boundary_source_url":"https://raw.githubusercontent.com/thanglequoc/vietnamese-provinces-database/master/json/geojson/51_quang_ngai/wards/23428_ngok_tu.geojson","boundary_source_page":"https://github.com/thanglequoc/vietnamese-provinces-database/blob/master/json/geojson/51_quang_ngai/wards/23428_ngok_tu.geojson","source_catalog":"https://github.com/thanglequoc/vietnamese-provinces-database"},"geometry":null},{"type":"Feature","id":"23430","properties":{"commune_code":"23430","commune_name":"Kon Đào","commune_name_en":"Kon Dao","commune_full_name":"Xã Kon Đào","commune_full_name_en":"Kon Dao Commune","commune_slug":"kon_dao","unit_type":"Xã","unit_type_en":"Commune","admin_level":2,"province_code":"51","province_name":"Quảng Ngãi","province_full_name":"Tỉnh Quảng Ngãi","province_slug":"quang_ngai","join_key":"23430","status":"active","dataset_effective_date":"2026-04-30","catalog_version":"2026-07-12","geometry_status":"not_embedded_boundary_available_by_url","boundary_source_url":"https://raw.githubusercontent.com/thanglequoc/vietnamese-provinces-database/master/json/geojson/51_quang_ngai/wards/23430_kon_dao.geojson","boundary_source_page":"https://github.com/thanglequoc/vietnamese-provinces-database/blob/master/json/geojson/51_quang_ngai/wards/23430_kon_dao.geojson","source_catalog":"https://github.com/thanglequoc/vietnamese-provinces-database"},"geometry":null},{"type":"Feature","id":"23446","properties":{"commune_code":"23446","commune_name":"Măng Ri","commune_name_en":"Mang Ri","commune_full_name":"Xã Măng Ri","commune_full_name_en":"Mang Ri Commune","commune_slug":"mang_ri","unit_type":"Xã","unit_type_en":"Commune","admin_level":2,"province_code":"51","province_name":"Quảng Ngãi","province_full_name":"Tỉnh Quảng Ngãi","province_slug":"quang_ngai","join_key":"23446","status":"active","dataset_effective_date":"2026-04-30","catalog_version":"2026-07-12","geometry_status":"not_embedded_boundary_available_by_url","boundary_source_url":"https://raw.githubusercontent.com/thanglequoc/vietnamese-provinces-database/master/json/geojson/51_quang_ngai/wards/23446_mang_ri.geojson","boundary_source_page":"https://github.com/thanglequoc/vietnamese-provinces-database/blob/master/json/geojson/51_quang_ngai/wards/23446_mang_ri.geojson","source_catalog":"https://github.com/thanglequoc/vietnamese-provinces-database"},"geometry":null},{"type":"Feature","id":"23455","properties":{"commune_code":"23455","commune_name":"Măng Bút","commune_name_en":"Mang But","commune_full_name":"Xã Măng Bút","commune_full_name_en":"Mang But Commune","commune_slug":"mang_but","unit_type":"Xã","unit_type_en":"Commune","admin_level":2,"province_code":"51","province_name":"Quảng Ngãi","province_full_name":"Tỉnh Quảng Ngãi","province_slug":"quang_ngai","join_key":"23455","status":"active","dataset_effective_date":"2026-04-30","catalog_version":"2026-07-12","geometry_status":"not_embedded_boundary_available_by_url","boundary_source_url":"https://raw.githubusercontent.com/thanglequoc/vietnamese-provinces-database/master/json/geojson/51_quang_ngai/wards/23455_mang_but.geojson","boundary_source_page":"https://github.com/thanglequoc/vietnamese-provinces-database/blob/master/json/geojson/51_quang_ngai/wards/23455_mang_but.geojson","source_catalog":"https://github.com/thanglequoc/vietnamese-provinces-database"},"geometry":null},{"type":"Feature","id":"23473","properties":{"commune_code":"23473","commune_name":"Măng Đen","commune_name_en":"Mang Den","commune_full_name":"Xã Măng Đen","commune_full_name_en":"Mang Den Commune","commune_slug":"mang_den","unit_type":"Xã","unit_type_en":"Commune","admin_level":2,"province_code":"51","province_name":"Quảng Ngãi","province_full_name":"Tỉnh Quảng Ngãi","province_slug":"quang_ngai","join_key":"23473","status":"active","dataset_effective_date":"2026-04-30","catalog_version":"2026-07-12","geometry_status":"not_embedded_boundary_available_by_url","boundary_source_url":"https://raw.githubusercontent.com/thanglequoc/vietnamese-provinces-database/master/json/geojson/51_quang_ngai/wards/23473_mang_den.geojson","boundary_source_page":"https://github.com/thanglequoc/vietnamese-provinces-database/blob/master/json/geojson/51_quang_ngai/wards/23473_mang_den.geojson","source_catalog":"https://github.com/thanglequoc/vietnamese-provinces-database"},"geometry":null},{"type":"Feature","id":"23476","properties":{"commune_code":"23476","commune_name":"Kon Plông","commune_name_en":"Kon Plong","commune_full_name":"Xã Kon Plông","commune_full_name_en":"Kon Plong Commune","commune_slug":"kon_plong","unit_type":"Xã","unit_type_en":"Commune","admin_level":2,"province_code":"51","province_name":"Quảng Ngãi","province_full_name":"Tỉnh Quảng Ngãi","province_slug":"quang_ngai","join_key":"23476","status":"active","dataset_effective_date":"2026-04-30","catalog_version":"2026-07-12","geometry_status":"not_embedded_boundary_available_by_url","boundary_source_url":"https://raw.githubusercontent.com/thanglequoc/vietnamese-provinces-database/master/json/geojson/51_quang_ngai/wards/23476_kon_plong.geojson","boundary_source_page":"https://github.com/thanglequoc/vietnamese-provinces-database/blob/master/json/geojson/51_quang_ngai/wards/23476_kon_plong.geojson","source_catalog":"https://github.com/thanglequoc/vietnamese-provinces-database"},"geometry":null},{"type":"Feature","id":"23479","properties":{"commune_code":"23479","commune_name":"Đăk Rve","commune_name_en":"Dak Rve","commune_full_name":"Xã Đăk Rve","commune_full_name_en":"Dak Rve Commune","commune_slug":"dak_rve","unit_type":"Xã","unit_type_en":"Commune","admin_level":2,"province_code":"51","province_name":"Quảng Ngãi","province_full_name":"Tỉnh Quảng Ngãi","province_slug":"quang_ngai","join_key":"23479","status":"active","dataset_effective_date":"2026-04-30","catalog_version":"2026-07-12","geometry_status":"not_embedded_boundary_available_by_url","boundary_source_url":"https://raw.githubusercontent.com/thanglequoc/vietnamese-provinces-database/master/json/geojson/51_quang_ngai/wards/23479_dak_rve.geojson","boundary_source_page":"https://github.com/thanglequoc/vietnamese-provinces-database/blob/master/json/geojson/51_quang_ngai/wards/23479_dak_rve.geojson","source_catalog":"https://github.com/thanglequoc/vietnamese-provinces-database"},"geometry":null},{"type":"Feature","id":"23485","properties":{"commune_code":"23485","commune_name":"Đăk Kôi","commune_name_en":"Dak Koi","commune_full_name":"Xã Đăk Kôi","commune_full_name_en":"Dak Koi Commune","commune_slug":"dak_koi","unit_type":"Xã","unit_type_en":"Commune","admin_level":2,"province_code":"51","province_name":"Quảng Ngãi","province_full_name":"Tỉnh Quảng Ngãi","province_slug":"quang_ngai","join_key":"23485","status":"active","dataset_effective_date":"2026-04-30","catalog_version":"2026-07-12","geometry_status":"not_embedded_boundary_available_by_url","boundary_source_url":"https://raw.githubusercontent.com/thanglequoc/vietnamese-provinces-database/master/json/geojson/51_quang_ngai/wards/23485_dak_koi.geojson","boundary_source_page":"https://github.com/thanglequoc/vietnamese-provinces-database/blob/master/json/geojson/51_quang_ngai/wards/23485_dak_koi.geojson","source_catalog":"https://github.com/thanglequoc/vietnamese-provinces-database"},"geometry":null},{"type":"Feature","id":"23497","properties":{"commune_code":"23497","commune_name":"Kon Braih","commune_name_en":"Kon Braih","commune_full_name":"Xã Kon Braih","commune_full_name_en":"Kon Braih Commune","commune_slug":"kon_braih","unit_type":"Xã","unit_type_en":"Commune","admin_level":2,"province_code":"51","province_name":"Quảng Ngãi","province_full_name":"Tỉnh Quảng Ngãi","province_slug":"quang_ngai","join_key":"23497","status":"active","dataset_effective_date":"2026-04-30","catalog_version":"2026-07-12","geometry_status":"not_embedded_boundary_available_by_url","boundary_source_url":"https://raw.githubusercontent.com/thanglequoc/vietnamese-provinces-database/master/json/geojson/51_quang_ngai/wards/23497_kon_braih.geojson","boundary_source_page":"https://github.com/thanglequoc/vietnamese-provinces-database/blob/master/json/geojson/51_quang_ngai/wards/23497_kon_braih.geojson","source_catalog":"https://github.com/thanglequoc/vietnamese-provinces-database"},"geometry":null},{"type":"Feature","id":"23500","properties":{"commune_code":"23500","commune_name":"Đăk Hà","commune_name_en":"Dak Ha","commune_full_name":"Xã Đăk Hà","commune_full_name_en":"Dak Ha Commune","commune_slug":"dak_ha","unit_type":"Xã","unit_type_en":"Commune","admin_level":2,"province_code":"51","province_name":"Quảng Ngãi","province_full_name":"Tỉnh Quảng Ngãi","province_slug":"quang_ngai","join_key":"23500","status":"active","dataset_effective_date":"2026-04-30","catalog_version":"2026-07-12","geometry_status":"not_embedded_boundary_available_by_url","boundary_source_url":"https://raw.githubusercontent.com/thanglequoc/vietnamese-provinces-database/master/json/geojson/51_quang_ngai/wards/23500_dak_ha.geojson","boundary_source_page":"https://github.com/thanglequoc/vietnamese-provinces-database/blob/master/json/geojson/51_quang_ngai/wards/23500_dak_ha.geojson","source_catalog":"https://github.com/thanglequoc/vietnamese-provinces-database"},"geometry":null},{"type":"Feature","id":"23504","properties":{"commune_code":"23504","commune_name":"Đăk Pxi","commune_name_en":"Dak Pxi","commune_full_name":"Xã Đăk Pxi","commune_full_name_en":"Dak Pxi Commune","commune_slug":"dak_pxi","unit_type":"Xã","unit_type_en":"Commune","admin_level":2,"province_code":"51","province_name":"Quảng Ngãi","province_full_name":"Tỉnh Quảng Ngãi","province_slug":"quang_ngai","join_key":"23504","status":"active","dataset_effective_date":"2026-04-30","catalog_version":"2026-07-12","geometry_status":"not_embedded_boundary_available_by_url","boundary_source_url":"https://raw.githubusercontent.com/thanglequoc/vietnamese-provinces-database/master/json/geojson/51_quang_ngai/wards/23504_dak_pxi.geojson","boundary_source_page":"https://github.com/thanglequoc/vietnamese-provinces-database/blob/master/json/geojson/51_quang_ngai/wards/23504_dak_pxi.geojson","source_catalog":"https://github.com/thanglequoc/vietnamese-provinces-database"},"geometry":null},{"type":"Feature","id":"23510","properties":{"commune_code":"23510","commune_name":"Đăk Ui","commune_name_en":"Dak Ui","commune_full_name":"Xã Đăk Ui","commune_full_name_en":"Dak Ui Commune","commune_slug":"dak_ui","unit_type":"Xã","unit_type_en":"Commune","admin_level":2,"province_code":"51","province_name":"Quảng Ngãi","province_full_name":"Tỉnh Quảng Ngãi","province_slug":"quang_ngai","join_key":"23510","status":"active","dataset_effective_date":"2026-04-30","catalog_version":"2026-07-12","geometry_status":"not_embedded_boundary_available_by_url","boundary_source_url":"https://raw.githubusercontent.com/thanglequoc/vietnamese-provinces-database/master/json/geojson/51_quang_ngai/wards/23510_dak_ui.geojson","boundary_source_page":"https://github.com/thanglequoc/vietnamese-provinces-database/blob/master/json/geojson/51_quang_ngai/wards/23510_dak_ui.geojson","source_catalog":"https://github.com/thanglequoc/vietnamese-provinces-database"},"geometry":null},{"type":"Feature","id":"23512","properties":{"commune_code":"23512","commune_name":"Đăk Mar","commune_name_en":"Dak Mar","commune_full_name":"Xã Đăk Mar","commune_full_name_en":"Dak Mar Commune","commune_slug":"dak_mar","unit_type":"Xã","unit_type_en":"Commune","admin_level":2,"province_code":"51","province_name":"Quảng Ngãi","province_full_name":"Tỉnh Quảng Ngãi","province_slug":"quang_ngai","join_key":"23512","status":"active","dataset_effective_date":"2026-04-30","catalog_version":"2026-07-12","geometry_status":"not_embedded_boundary_available_by_url","boundary_source_url":"https://raw.githubusercontent.com/thanglequoc/vietnamese-provinces-database/master/json/geojson/51_quang_ngai/wards/23512_dak_mar.geojson","boundary_source_page":"https://github.com/thanglequoc/vietnamese-provinces-database/blob/master/json/geojson/51_quang_ngai/wards/23512_dak_mar.geojson","source_catalog":"https://github.com/thanglequoc/vietnamese-provinces-database"},"geometry":null},{"type":"Feature","id":"23515","properties":{"commune_code":"23515","commune_name":"Ngọk Réo","commune_name_en":"Ngok Reo","commune_full_name":"Xã Ngọk Réo","commune_full_name_en":"Ngok Reo Commune","commune_slug":"ngok_reo","unit_type":"Xã","unit_type_en":"Commune","admin_level":2,"province_code":"51","province_name":"Quảng Ngãi","province_full_name":"Tỉnh Quảng Ngãi","province_slug":"quang_ngai","join_key":"23515","status":"active","dataset_effective_date":"2026-04-30","catalog_version":"2026-07-12","geometry_status":"not_embedded_boundary_available_by_url","boundary_source_url":"https://raw.githubusercontent.com/thanglequoc/vietnamese-provinces-database/master/json/geojson/51_quang_ngai/wards/23515_ngok_reo.geojson","boundary_source_page":"https://github.com/thanglequoc/vietnamese-provinces-database/blob/master/json/geojson/51_quang_ngai/wards/23515_ngok_reo.geojson","source_catalog":"https://github.com/thanglequoc/vietnamese-provinces-database"},"geometry":null},{"type":"Feature","id":"23527","properties":{"commune_code":"23527","commune_name":"Sa Thầy","commune_name_en":"Sa Thay","commune_full_name":"Xã Sa Thầy","commune_full_name_en":"Sa Thay Commune","commune_slug":"sa_thay","unit_type":"Xã","unit_type_en":"Commune","admin_level":2,"province_code":"51","province_name":"Quảng Ngãi","province_full_name":"Tỉnh Quảng Ngãi","province_slug":"quang_ngai","join_key":"23527","status":"active","dataset_effective_date":"2026-04-30","catalog_version":"2026-07-12","geometry_status":"not_embedded_boundary_available_by_url","boundary_source_url":"https://raw.githubusercontent.com/thanglequoc/vietnamese-provinces-database/master/json/geojson/51_quang_ngai/wards/23527_sa_thay.geojson","boundary_source_page":"https://github.com/thanglequoc/vietnamese-provinces-database/blob/master/json/geojson/51_quang_ngai/wards/23527_sa_thay.geojson","source_catalog":"https://github.com/thanglequoc/vietnamese-provinces-database"},"geometry":null},{"type":"Feature","id":"23530","properties":{"commune_code":"23530","commune_name":"Rờ Kơi","commune_name_en":"Ro Koi","commune_full_name":"Xã Rờ Kơi","commune_full_name_en":"Ro Koi Commune","commune_slug":"ro_koi","unit_type":"Xã","unit_type_en":"Commune","admin_level":2,"province_code":"51","province_name":"Quảng Ngãi","province_full_name":"Tỉnh Quảng Ngãi","province_slug":"quang_ngai","join_key":"23530","status":"active","dataset_effective_date":"2026-04-30","catalog_version":"2026-07-12","geometry_status":"not_embedded_boundary_available_by_url","boundary_source_url":"https://raw.githubusercontent.com/thanglequoc/vietnamese-provinces-database/master/json/geojson/51_quang_ngai/wards/23530_ro_koi.geojson","boundary_source_page":"https://github.com/thanglequoc/vietnamese-provinces-database/blob/master/json/geojson/51_quang_ngai/wards/23530_ro_koi.geojson","source_catalog":"https://github.com/thanglequoc/vietnamese-provinces-database"},"geometry":null},{"type":"Feature","id":"23534","properties":{"commune_code":"23534","commune_name":"Sa Bình","commune_name_en":"Sa Binh","commune_full_name":"Xã Sa Bình","commune_full_name_en":"Sa Binh Commune","commune_slug":"sa_binh","unit_type":"Xã","unit_type_en":"Commune","admin_level":2,"province_code":"51","province_name":"Quảng Ngãi","province_full_name":"Tỉnh Quảng Ngãi","province_slug":"quang_ngai","join_key":"23534","status":"active","dataset_effective_date":"2026-04-30","catalog_version":"2026-07-12","geometry_status":"not_embedded_boundary_available_by_url","boundary_source_url":"https://raw.githubusercontent.com/thanglequoc/vietnamese-provinces-database/master/json/geojson/51_quang_ngai/wards/23534_sa_binh.geojson","boundary_source_page":"https://github.com/thanglequoc/vietnamese-provinces-database/blob/master/json/geojson/51_quang_ngai/wards/23534_sa_binh.geojson","source_catalog":"https://github.com/thanglequoc/vietnamese-provinces-database"},"geometry":null},{"type":"Feature","id":"23535","properties":{"commune_code":"23535","commune_name":"Ia Đal","commune_name_en":"Ia Dal","commune_full_name":"Xã Ia Đal","commune_full_name_en":"Ia Dal Commune","commune_slug":"ia_dal","unit_type":"Xã","unit_type_en":"Commune","admin_level":2,"province_code":"51","province_name":"Quảng Ngãi","province_full_name":"Tỉnh Quảng Ngãi","province_slug":"quang_ngai","join_key":"23535","status":"active","dataset_effective_date":"2026-04-30","catalog_version":"2026-07-12","geometry_status":"not_embedded_boundary_available_by_url","boundary_source_url":"https://raw.githubusercontent.com/thanglequoc/vietnamese-provinces-database/master/json/geojson/51_quang_ngai/wards/23535_ia_dal.geojson","boundary_source_page":"https://github.com/thanglequoc/vietnamese-provinces-database/blob/master/json/geojson/51_quang_ngai/wards/23535_ia_dal.geojson","source_catalog":"https://github.com/thanglequoc/vietnamese-provinces-database"},"geometry":null},{"type":"Feature","id":"23536","properties":{"commune_code":"23536","commune_name":"Mô Rai","commune_name_en":"Mo Rai","commune_full_name":"Xã Mô Rai","commune_full_name_en":"Mo Rai Commune","commune_slug":"mo_rai","unit_type":"Xã","unit_type_en":"Commune","admin_level":2,"province_code":"51","province_name":"Quảng Ngãi","province_full_name":"Tỉnh Quảng Ngãi","province_slug":"quang_ngai","join_key":"23536","status":"active","dataset_effective_date":"2026-04-30","catalog_version":"2026-07-12","geometry_status":"not_embedded_boundary_available_by_url","boundary_source_url":"https://raw.githubusercontent.com/thanglequoc/vietnamese-provinces-database/master/json/geojson/51_quang_ngai/wards/23536_mo_rai.geojson","boundary_source_page":"https://github.com/thanglequoc/vietnamese-provinces-database/blob/master/json/geojson/51_quang_ngai/wards/23536_mo_rai.geojson","source_catalog":"https://github.com/thanglequoc/vietnamese-provinces-database"},"geometry":null},{"type":"Feature","id":"23538","properties":{"commune_code":"23538","commune_name":"Ia Tơi","commune_name_en":"Ia Toi","commune_full_name":"Xã Ia Tơi","commune_full_name_en":"Ia Toi Commune","commune_slug":"ia_toi","unit_type":"Xã","unit_type_en":"Commune","admin_level":2,"province_code":"51","province_name":"Quảng Ngãi","province_full_name":"Tỉnh Quảng Ngãi","province_slug":"quang_ngai","join_key":"23538","status":"active","dataset_effective_date":"2026-04-30","catalog_version":"2026-07-12","geometry_status":"not_embedded_boundary_available_by_url","boundary_source_url":"https://raw.githubusercontent.com/thanglequoc/vietnamese-provinces-database/master/json/geojson/51_quang_ngai/wards/23538_ia_toi.geojson","boundary_source_page":"https://github.com/thanglequoc/vietnamese-provinces-database/blob/master/json/geojson/51_quang_ngai/wards/23538_ia_toi.geojson","source_catalog":"https://github.com/thanglequoc/vietnamese-provinces-database"},"geometry":null},{"type":"Feature","id":"23548","properties":{"commune_code":"23548","commune_name":"Ya Ly","commune_name_en":"Ya Ly","commune_full_name":"Xã Ya Ly","commune_full_name_en":"Ya Ly Commune","commune_slug":"ya_ly","unit_type":"Xã","unit_type_en":"Commune","admin_level":2,"province_code":"51","province_name":"Quảng Ngãi","province_full_name":"Tỉnh Quảng Ngãi","province_slug":"quang_ngai","join_key":"23548","status":"active","dataset_effective_date":"2026-04-30","catalog_version":"2026-07-12","geometry_status":"not_embedded_boundary_available_by_url","boundary_source_url":"https://raw.githubusercontent.com/thanglequoc/vietnamese-provinces-database/master/json/geojson/51_quang_ngai/wards/23548_ya_ly.geojson","boundary_source_page":"https://github.com/thanglequoc/vietnamese-provinces-database/blob/master/json/geojson/51_quang_ngai/wards/23548_ya_ly.geojson","source_catalog":"https://github.com/thanglequoc/vietnamese-provinces-database"},"geometry":null}]}