{"type":"FeatureCollection","name":"56_khanh_hoa_communes_attributes","metadata":{"province_code":"56","province_name":"Khánh Hoà","feature_count":65,"geometry":null,"join_key":"commune_code"},"features":[{"type":"Feature","id":"22333","properties":{"commune_code":"22333","commune_name":"Bắc Nha Trang","commune_name_en":"Bac Nha Trang","commune_full_name":"Phường Bắc Nha Trang","commune_full_name_en":"Bac Nha Trang Ward","commune_slug":"bac_nha_trang","unit_type":"Phường","unit_type_en":"Ward","admin_level":2,"province_code":"56","province_name":"Khánh Hoà","province_full_name":"Tỉnh Khánh Hoà","province_slug":"khanh_hoa","join_key":"22333","status":"active","dataset_effective_date":"2026-04-30","catalog_version":"2026-07-12","geometry_status":"not_embedded_boundary_available_by_url","boundary_source_url":"https://raw.githubusercontent.com/thanglequoc/vietnamese-provinces-database/master/json/geojson/56_khanh_hoa/wards/22333_bac_nha_trang.geojson","boundary_source_page":"https://github.com/thanglequoc/vietnamese-provinces-database/blob/master/json/geojson/56_khanh_hoa/wards/22333_bac_nha_trang.geojson","source_catalog":"https://github.com/thanglequoc/vietnamese-provinces-database"},"geometry":null},{"type":"Feature","id":"22366","properties":{"commune_code":"22366","commune_name":"Nha Trang","commune_name_en":"Nha Trang","commune_full_name":"Phường Nha Trang","commune_full_name_en":"Nha Trang Ward","commune_slug":"nha_trang","unit_type":"Phường","unit_type_en":"Ward","admin_level":2,"province_code":"56","province_name":"Khánh Hoà","province_full_name":"Tỉnh Khánh Hoà","province_slug":"khanh_hoa","join_key":"22366","status":"active","dataset_effective_date":"2026-04-30","catalog_version":"2026-07-12","geometry_status":"not_embedded_boundary_available_by_url","boundary_source_url":"https://raw.githubusercontent.com/thanglequoc/vietnamese-provinces-database/master/json/geojson/56_khanh_hoa/wards/22366_nha_trang.geojson","boundary_source_page":"https://github.com/thanglequoc/vietnamese-provinces-database/blob/master/json/geojson/56_khanh_hoa/wards/22366_nha_trang.geojson","source_catalog":"https://github.com/thanglequoc/vietnamese-provinces-database"},"geometry":null},{"type":"Feature","id":"22390","properties":{"commune_code":"22390","commune_name":"Tây Nha Trang","commune_name_en":"Tay Nha Trang","commune_full_name":"Phường Tây Nha Trang","commune_full_name_en":"Tay Nha Trang Ward","commune_slug":"tay_nha_trang","unit_type":"Phường","unit_type_en":"Ward","admin_level":2,"province_code":"56","province_name":"Khánh Hoà","province_full_name":"Tỉnh Khánh Hoà","province_slug":"khanh_hoa","join_key":"22390","status":"active","dataset_effective_date":"2026-04-30","catalog_version":"2026-07-12","geometry_status":"not_embedded_boundary_available_by_url","boundary_source_url":"https://raw.githubusercontent.com/thanglequoc/vietnamese-provinces-database/master/json/geojson/56_khanh_hoa/wards/22390_tay_nha_trang.geojson","boundary_source_page":"https://github.com/thanglequoc/vietnamese-provinces-database/blob/master/json/geojson/56_khanh_hoa/wards/22390_tay_nha_trang.geojson","source_catalog":"https://github.com/thanglequoc/vietnamese-provinces-database"},"geometry":null},{"type":"Feature","id":"22402","properties":{"commune_code":"22402","commune_name":"Nam Nha Trang","commune_name_en":"Nam Nha Trang","commune_full_name":"Phường Nam Nha Trang","commune_full_name_en":"Nam Nha Trang Ward","commune_slug":"nam_nha_trang","unit_type":"Phường","unit_type_en":"Ward","admin_level":2,"province_code":"56","province_name":"Khánh Hoà","province_full_name":"Tỉnh Khánh Hoà","province_slug":"khanh_hoa","join_key":"22402","status":"active","dataset_effective_date":"2026-04-30","catalog_version":"2026-07-12","geometry_status":"not_embedded_boundary_available_by_url","boundary_source_url":"https://raw.githubusercontent.com/thanglequoc/vietnamese-provinces-database/master/json/geojson/56_khanh_hoa/wards/22402_nam_nha_trang.geojson","boundary_source_page":"https://github.com/thanglequoc/vietnamese-provinces-database/blob/master/json/geojson/56_khanh_hoa/wards/22402_nam_nha_trang.geojson","source_catalog":"https://github.com/thanglequoc/vietnamese-provinces-database"},"geometry":null},{"type":"Feature","id":"22411","properties":{"commune_code":"22411","commune_name":"Bắc Cam Ranh","commune_name_en":"Bac Cam Ranh","commune_full_name":"Phường Bắc Cam Ranh","commune_full_name_en":"Bac Cam Ranh Ward","commune_slug":"bac_cam_ranh","unit_type":"Phường","unit_type_en":"Ward","admin_level":2,"province_code":"56","province_name":"Khánh Hoà","province_full_name":"Tỉnh Khánh Hoà","province_slug":"khanh_hoa","join_key":"22411","status":"active","dataset_effective_date":"2026-04-30","catalog_version":"2026-07-12","geometry_status":"not_embedded_boundary_available_by_url","boundary_source_url":"https://raw.githubusercontent.com/thanglequoc/vietnamese-provinces-database/master/json/geojson/56_khanh_hoa/wards/22411_bac_cam_ranh.geojson","boundary_source_page":"https://github.com/thanglequoc/vietnamese-provinces-database/blob/master/json/geojson/56_khanh_hoa/wards/22411_bac_cam_ranh.geojson","source_catalog":"https://github.com/thanglequoc/vietnamese-provinces-database"},"geometry":null},{"type":"Feature","id":"22420","properties":{"commune_code":"22420","commune_name":"Cam Ranh","commune_name_en":"Cam Ranh","commune_full_name":"Phường Cam Ranh","commune_full_name_en":"Cam Ranh Ward","commune_slug":"cam_ranh","unit_type":"Phường","unit_type_en":"Ward","admin_level":2,"province_code":"56","province_name":"Khánh Hoà","province_full_name":"Tỉnh Khánh Hoà","province_slug":"khanh_hoa","join_key":"22420","status":"active","dataset_effective_date":"2026-04-30","catalog_version":"2026-07-12","geometry_status":"not_embedded_boundary_available_by_url","boundary_source_url":"https://raw.githubusercontent.com/thanglequoc/vietnamese-provinces-database/master/json/geojson/56_khanh_hoa/wards/22420_cam_ranh.geojson","boundary_source_page":"https://github.com/thanglequoc/vietnamese-provinces-database/blob/master/json/geojson/56_khanh_hoa/wards/22420_cam_ranh.geojson","source_catalog":"https://github.com/thanglequoc/vietnamese-provinces-database"},"geometry":null},{"type":"Feature","id":"22423","properties":{"commune_code":"22423","commune_name":"Ba Ngòi","commune_name_en":"Ba Ngoi","commune_full_name":"Phường Ba Ngòi","commune_full_name_en":"Ba Ngoi Ward","commune_slug":"ba_ngoi","unit_type":"Phường","unit_type_en":"Ward","admin_level":2,"province_code":"56","province_name":"Khánh Hoà","province_full_name":"Tỉnh Khánh Hoà","province_slug":"khanh_hoa","join_key":"22423","status":"active","dataset_effective_date":"2026-04-30","catalog_version":"2026-07-12","geometry_status":"not_embedded_boundary_available_by_url","boundary_source_url":"https://raw.githubusercontent.com/thanglequoc/vietnamese-provinces-database/master/json/geojson/56_khanh_hoa/wards/22423_ba_ngoi.geojson","boundary_source_page":"https://github.com/thanglequoc/vietnamese-provinces-database/blob/master/json/geojson/56_khanh_hoa/wards/22423_ba_ngoi.geojson","source_catalog":"https://github.com/thanglequoc/vietnamese-provinces-database"},"geometry":null},{"type":"Feature","id":"22432","properties":{"commune_code":"22432","commune_name":"Cam Linh","commune_name_en":"Cam Linh","commune_full_name":"Phường Cam Linh","commune_full_name_en":"Cam Linh Ward","commune_slug":"cam_linh","unit_type":"Phường","unit_type_en":"Ward","admin_level":2,"province_code":"56","province_name":"Khánh Hoà","province_full_name":"Tỉnh Khánh Hoà","province_slug":"khanh_hoa","join_key":"22432","status":"active","dataset_effective_date":"2026-04-30","catalog_version":"2026-07-12","geometry_status":"not_embedded_boundary_available_by_url","boundary_source_url":"https://raw.githubusercontent.com/thanglequoc/vietnamese-provinces-database/master/json/geojson/56_khanh_hoa/wards/22432_cam_linh.geojson","boundary_source_page":"https://github.com/thanglequoc/vietnamese-provinces-database/blob/master/json/geojson/56_khanh_hoa/wards/22432_cam_linh.geojson","source_catalog":"https://github.com/thanglequoc/vietnamese-provinces-database"},"geometry":null},{"type":"Feature","id":"22435","properties":{"commune_code":"22435","commune_name":"Cam Hiệp","commune_name_en":"Cam Hiep","commune_full_name":"Xã Cam Hiệp","commune_full_name_en":"Cam Hiep Commune","commune_slug":"cam_hiep","unit_type":"Xã","unit_type_en":"Commune","admin_level":2,"province_code":"56","province_name":"Khánh Hoà","province_full_name":"Tỉnh Khánh Hoà","province_slug":"khanh_hoa","join_key":"22435","status":"active","dataset_effective_date":"2026-04-30","catalog_version":"2026-07-12","geometry_status":"not_embedded_boundary_available_by_url","boundary_source_url":"https://raw.githubusercontent.com/thanglequoc/vietnamese-provinces-database/master/json/geojson/56_khanh_hoa/wards/22435_cam_hiep.geojson","boundary_source_page":"https://github.com/thanglequoc/vietnamese-provinces-database/blob/master/json/geojson/56_khanh_hoa/wards/22435_cam_hiep.geojson","source_catalog":"https://github.com/thanglequoc/vietnamese-provinces-database"},"geometry":null},{"type":"Feature","id":"22453","properties":{"commune_code":"22453","commune_name":"Cam Lâm","commune_name_en":"Cam Lam","commune_full_name":"Xã Cam Lâm","commune_full_name_en":"Cam Lam Commune","commune_slug":"cam_lam","unit_type":"Xã","unit_type_en":"Commune","admin_level":2,"province_code":"56","province_name":"Khánh Hoà","province_full_name":"Tỉnh Khánh Hoà","province_slug":"khanh_hoa","join_key":"22453","status":"active","dataset_effective_date":"2026-04-30","catalog_version":"2026-07-12","geometry_status":"not_embedded_boundary_available_by_url","boundary_source_url":"https://raw.githubusercontent.com/thanglequoc/vietnamese-provinces-database/master/json/geojson/56_khanh_hoa/wards/22453_cam_lam.geojson","boundary_source_page":"https://github.com/thanglequoc/vietnamese-provinces-database/blob/master/json/geojson/56_khanh_hoa/wards/22453_cam_lam.geojson","source_catalog":"https://github.com/thanglequoc/vietnamese-provinces-database"},"geometry":null},{"type":"Feature","id":"22465","properties":{"commune_code":"22465","commune_name":"Cam An","commune_name_en":"Cam An","commune_full_name":"Xã Cam An","commune_full_name_en":"Cam An Commune","commune_slug":"cam_an","unit_type":"Xã","unit_type_en":"Commune","admin_level":2,"province_code":"56","province_name":"Khánh Hoà","province_full_name":"Tỉnh Khánh Hoà","province_slug":"khanh_hoa","join_key":"22465","status":"active","dataset_effective_date":"2026-04-30","catalog_version":"2026-07-12","geometry_status":"not_embedded_boundary_available_by_url","boundary_source_url":"https://raw.githubusercontent.com/thanglequoc/vietnamese-provinces-database/master/json/geojson/56_khanh_hoa/wards/22465_cam_an.geojson","boundary_source_page":"https://github.com/thanglequoc/vietnamese-provinces-database/blob/master/json/geojson/56_khanh_hoa/wards/22465_cam_an.geojson","source_catalog":"https://github.com/thanglequoc/vietnamese-provinces-database"},"geometry":null},{"type":"Feature","id":"22480","properties":{"commune_code":"22480","commune_name":"Nam Cam Ranh","commune_name_en":"Nam Cam Ranh","commune_full_name":"Xã Nam Cam Ranh","commune_full_name_en":"Nam Cam Ranh Commune","commune_slug":"nam_cam_ranh","unit_type":"Xã","unit_type_en":"Commune","admin_level":2,"province_code":"56","province_name":"Khánh Hoà","province_full_name":"Tỉnh Khánh Hoà","province_slug":"khanh_hoa","join_key":"22480","status":"active","dataset_effective_date":"2026-04-30","catalog_version":"2026-07-12","geometry_status":"not_embedded_boundary_available_by_url","boundary_source_url":"https://raw.githubusercontent.com/thanglequoc/vietnamese-provinces-database/master/json/geojson/56_khanh_hoa/wards/22480_nam_cam_ranh.geojson","boundary_source_page":"https://github.com/thanglequoc/vietnamese-provinces-database/blob/master/json/geojson/56_khanh_hoa/wards/22480_nam_cam_ranh.geojson","source_catalog":"https://github.com/thanglequoc/vietnamese-provinces-database"},"geometry":null},{"type":"Feature","id":"22489","properties":{"commune_code":"22489","commune_name":"Vạn Ninh","commune_name_en":"Van Ninh","commune_full_name":"Xã Vạn Ninh","commune_full_name_en":"Van Ninh Commune","commune_slug":"van_ninh","unit_type":"Xã","unit_type_en":"Commune","admin_level":2,"province_code":"56","province_name":"Khánh Hoà","province_full_name":"Tỉnh Khánh Hoà","province_slug":"khanh_hoa","join_key":"22489","status":"active","dataset_effective_date":"2026-04-30","catalog_version":"2026-07-12","geometry_status":"not_embedded_boundary_available_by_url","boundary_source_url":"https://raw.githubusercontent.com/thanglequoc/vietnamese-provinces-database/master/json/geojson/56_khanh_hoa/wards/22489_van_ninh.geojson","boundary_source_page":"https://github.com/thanglequoc/vietnamese-provinces-database/blob/master/json/geojson/56_khanh_hoa/wards/22489_van_ninh.geojson","source_catalog":"https://github.com/thanglequoc/vietnamese-provinces-database"},"geometry":null},{"type":"Feature","id":"22498","properties":{"commune_code":"22498","commune_name":"Tu Bông","commune_name_en":"Tu Bong","commune_full_name":"Xã Tu Bông","commune_full_name_en":"Tu Bong Commune","commune_slug":"tu_bong","unit_type":"Xã","unit_type_en":"Commune","admin_level":2,"province_code":"56","province_name":"Khánh Hoà","province_full_name":"Tỉnh Khánh Hoà","province_slug":"khanh_hoa","join_key":"22498","status":"active","dataset_effective_date":"2026-04-30","catalog_version":"2026-07-12","geometry_status":"not_embedded_boundary_available_by_url","boundary_source_url":"https://raw.githubusercontent.com/thanglequoc/vietnamese-provinces-database/master/json/geojson/56_khanh_hoa/wards/22498_tu_bong.geojson","boundary_source_page":"https://github.com/thanglequoc/vietnamese-provinces-database/blob/master/json/geojson/56_khanh_hoa/wards/22498_tu_bong.geojson","source_catalog":"https://github.com/thanglequoc/vietnamese-provinces-database"},"geometry":null},{"type":"Feature","id":"22504","properties":{"commune_code":"22504","commune_name":"Đại Lãnh","commune_name_en":"Dai Lanh","commune_full_name":"Xã Đại Lãnh","commune_full_name_en":"Dai Lanh Commune","commune_slug":"dai_lanh","unit_type":"Xã","unit_type_en":"Commune","admin_level":2,"province_code":"56","province_name":"Khánh Hoà","province_full_name":"Tỉnh Khánh Hoà","province_slug":"khanh_hoa","join_key":"22504","status":"active","dataset_effective_date":"2026-04-30","catalog_version":"2026-07-12","geometry_status":"not_embedded_boundary_available_by_url","boundary_source_url":"https://raw.githubusercontent.com/thanglequoc/vietnamese-provinces-database/master/json/geojson/56_khanh_hoa/wards/22504_dai_lanh.geojson","boundary_source_page":"https://github.com/thanglequoc/vietnamese-provinces-database/blob/master/json/geojson/56_khanh_hoa/wards/22504_dai_lanh.geojson","source_catalog":"https://github.com/thanglequoc/vietnamese-provinces-database"},"geometry":null},{"type":"Feature","id":"22516","properties":{"commune_code":"22516","commune_name":"Vạn Thắng","commune_name_en":"Van Thang","commune_full_name":"Xã Vạn Thắng","commune_full_name_en":"Van Thang Commune","commune_slug":"van_thang","unit_type":"Xã","unit_type_en":"Commune","admin_level":2,"province_code":"56","province_name":"Khánh Hoà","province_full_name":"Tỉnh Khánh Hoà","province_slug":"khanh_hoa","join_key":"22516","status":"active","dataset_effective_date":"2026-04-30","catalog_version":"2026-07-12","geometry_status":"not_embedded_boundary_available_by_url","boundary_source_url":"https://raw.githubusercontent.com/thanglequoc/vietnamese-provinces-database/master/json/geojson/56_khanh_hoa/wards/22516_van_thang.geojson","boundary_source_page":"https://github.com/thanglequoc/vietnamese-provinces-database/blob/master/json/geojson/56_khanh_hoa/wards/22516_van_thang.geojson","source_catalog":"https://github.com/thanglequoc/vietnamese-provinces-database"},"geometry":null},{"type":"Feature","id":"22525","properties":{"commune_code":"22525","commune_name":"Vạn Hưng","commune_name_en":"Van Hung","commune_full_name":"Xã Vạn Hưng","commune_full_name_en":"Van Hung Commune","commune_slug":"van_hung","unit_type":"Xã","unit_type_en":"Commune","admin_level":2,"province_code":"56","province_name":"Khánh Hoà","province_full_name":"Tỉnh Khánh Hoà","province_slug":"khanh_hoa","join_key":"22525","status":"active","dataset_effective_date":"2026-04-30","catalog_version":"2026-07-12","geometry_status":"not_embedded_boundary_available_by_url","boundary_source_url":"https://raw.githubusercontent.com/thanglequoc/vietnamese-provinces-database/master/json/geojson/56_khanh_hoa/wards/22525_van_hung.geojson","boundary_source_page":"https://github.com/thanglequoc/vietnamese-provinces-database/blob/master/json/geojson/56_khanh_hoa/wards/22525_van_hung.geojson","source_catalog":"https://github.com/thanglequoc/vietnamese-provinces-database"},"geometry":null},{"type":"Feature","id":"22528","properties":{"commune_code":"22528","commune_name":"Ninh Hoà","commune_name_en":"Ninh Hoa","commune_full_name":"Phường Ninh Hoà","commune_full_name_en":"Ninh Hoa Ward","commune_slug":"ninh_hoa","unit_type":"Phường","unit_type_en":"Ward","admin_level":2,"province_code":"56","province_name":"Khánh Hoà","province_full_name":"Tỉnh Khánh Hoà","province_slug":"khanh_hoa","join_key":"22528","status":"active","dataset_effective_date":"2026-04-30","catalog_version":"2026-07-12","geometry_status":"not_embedded_boundary_available_by_url","boundary_source_url":"https://raw.githubusercontent.com/thanglequoc/vietnamese-provinces-database/master/json/geojson/56_khanh_hoa/wards/22528_ninh_hoa.geojson","boundary_source_page":"https://github.com/thanglequoc/vietnamese-provinces-database/blob/master/json/geojson/56_khanh_hoa/wards/22528_ninh_hoa.geojson","source_catalog":"https://github.com/thanglequoc/vietnamese-provinces-database"},"geometry":null},{"type":"Feature","id":"22546","properties":{"commune_code":"22546","commune_name":"Bắc Ninh Hoà","commune_name_en":"Bac Ninh Hoa","commune_full_name":"Xã Bắc Ninh Hoà","commune_full_name_en":"Bac Ninh Hoa Commune","commune_slug":"bac_ninh_hoa","unit_type":"Xã","unit_type_en":"Commune","admin_level":2,"province_code":"56","province_name":"Khánh Hoà","province_full_name":"Tỉnh Khánh Hoà","province_slug":"khanh_hoa","join_key":"22546","status":"active","dataset_effective_date":"2026-04-30","catalog_version":"2026-07-12","geometry_status":"not_embedded_boundary_available_by_url","boundary_source_url":"https://raw.githubusercontent.com/thanglequoc/vietnamese-provinces-database/master/json/geojson/56_khanh_hoa/wards/22546_bac_ninh_hoa.geojson","boundary_source_page":"https://github.com/thanglequoc/vietnamese-provinces-database/blob/master/json/geojson/56_khanh_hoa/wards/22546_bac_ninh_hoa.geojson","source_catalog":"https://github.com/thanglequoc/vietnamese-provinces-database"},"geometry":null},{"type":"Feature","id":"22552","properties":{"commune_code":"22552","commune_name":"Tây Ninh Hoà","commune_name_en":"Tay Ninh Hoa","commune_full_name":"Xã Tây Ninh Hoà","commune_full_name_en":"Tay Ninh Hoa Commune","commune_slug":"tay_ninh_hoa","unit_type":"Xã","unit_type_en":"Commune","admin_level":2,"province_code":"56","province_name":"Khánh Hoà","province_full_name":"Tỉnh Khánh Hoà","province_slug":"khanh_hoa","join_key":"22552","status":"active","dataset_effective_date":"2026-04-30","catalog_version":"2026-07-12","geometry_status":"not_embedded_boundary_available_by_url","boundary_source_url":"https://raw.githubusercontent.com/thanglequoc/vietnamese-provinces-database/master/json/geojson/56_khanh_hoa/wards/22552_tay_ninh_hoa.geojson","boundary_source_page":"https://github.com/thanglequoc/vietnamese-provinces-database/blob/master/json/geojson/56_khanh_hoa/wards/22552_tay_ninh_hoa.geojson","source_catalog":"https://github.com/thanglequoc/vietnamese-provinces-database"},"geometry":null},{"type":"Feature","id":"22558","properties":{"commune_code":"22558","commune_name":"Hoà Trí","commune_name_en":"Hoa Tri","commune_full_name":"Xã Hoà Trí","commune_full_name_en":"Hoa Tri Commune","commune_slug":"hoa_tri","unit_type":"Xã","unit_type_en":"Commune","admin_level":2,"province_code":"56","province_name":"Khánh Hoà","province_full_name":"Tỉnh Khánh Hoà","province_slug":"khanh_hoa","join_key":"22558","status":"active","dataset_effective_date":"2026-04-30","catalog_version":"2026-07-12","geometry_status":"not_embedded_boundary_available_by_url","boundary_source_url":"https://raw.githubusercontent.com/thanglequoc/vietnamese-provinces-database/master/json/geojson/56_khanh_hoa/wards/22558_hoa_tri.geojson","boundary_source_page":"https://github.com/thanglequoc/vietnamese-provinces-database/blob/master/json/geojson/56_khanh_hoa/wards/22558_hoa_tri.geojson","source_catalog":"https://github.com/thanglequoc/vietnamese-provinces-database"},"geometry":null},{"type":"Feature","id":"22561","properties":{"commune_code":"22561","commune_name":"Đông Ninh Hoà","commune_name_en":"Dong Ninh Hoa","commune_full_name":"Phường Đông Ninh Hoà","commune_full_name_en":"Dong Ninh Hoa Ward","commune_slug":"dong_ninh_hoa","unit_type":"Phường","unit_type_en":"Ward","admin_level":2,"province_code":"56","province_name":"Khánh Hoà","province_full_name":"Tỉnh Khánh Hoà","province_slug":"khanh_hoa","join_key":"22561","status":"active","dataset_effective_date":"2026-04-30","catalog_version":"2026-07-12","geometry_status":"not_embedded_boundary_available_by_url","boundary_source_url":"https://raw.githubusercontent.com/thanglequoc/vietnamese-provinces-database/master/json/geojson/56_khanh_hoa/wards/22561_dong_ninh_hoa.geojson","boundary_source_page":"https://github.com/thanglequoc/vietnamese-provinces-database/blob/master/json/geojson/56_khanh_hoa/wards/22561_dong_ninh_hoa.geojson","source_catalog":"https://github.com/thanglequoc/vietnamese-provinces-database"},"geometry":null},{"type":"Feature","id":"22576","properties":{"commune_code":"22576","commune_name":"Tân Định","commune_name_en":"Tan Dinh","commune_full_name":"Xã Tân Định","commune_full_name_en":"Tan Dinh Commune","commune_slug":"tan_dinh","unit_type":"Xã","unit_type_en":"Commune","admin_level":2,"province_code":"56","province_name":"Khánh Hoà","province_full_name":"Tỉnh Khánh Hoà","province_slug":"khanh_hoa","join_key":"22576","status":"active","dataset_effective_date":"2026-04-30","catalog_version":"2026-07-12","geometry_status":"not_embedded_boundary_available_by_url","boundary_source_url":"https://raw.githubusercontent.com/thanglequoc/vietnamese-provinces-database/master/json/geojson/56_khanh_hoa/wards/22576_tan_dinh.geojson","boundary_source_page":"https://github.com/thanglequoc/vietnamese-provinces-database/blob/master/json/geojson/56_khanh_hoa/wards/22576_tan_dinh.geojson","source_catalog":"https://github.com/thanglequoc/vietnamese-provinces-database"},"geometry":null},{"type":"Feature","id":"22591","properties":{"commune_code":"22591","commune_name":"Hoà Thắng","commune_name_en":"Hoa Thang","commune_full_name":"Phường Hoà Thắng","commune_full_name_en":"Hoa Thang Ward","commune_slug":"hoa_thang","unit_type":"Phường","unit_type_en":"Ward","admin_level":2,"province_code":"56","province_name":"Khánh Hoà","province_full_name":"Tỉnh Khánh Hoà","province_slug":"khanh_hoa","join_key":"22591","status":"active","dataset_effective_date":"2026-04-30","catalog_version":"2026-07-12","geometry_status":"not_embedded_boundary_available_by_url","boundary_source_url":"https://raw.githubusercontent.com/thanglequoc/vietnamese-provinces-database/master/json/geojson/56_khanh_hoa/wards/22591_hoa_thang.geojson","boundary_source_page":"https://github.com/thanglequoc/vietnamese-provinces-database/blob/master/json/geojson/56_khanh_hoa/wards/22591_hoa_thang.geojson","source_catalog":"https://github.com/thanglequoc/vietnamese-provinces-database"},"geometry":null},{"type":"Feature","id":"22597","properties":{"commune_code":"22597","commune_name":"Nam Ninh Hoà","commune_name_en":"Nam Ninh Hoa","commune_full_name":"Xã Nam Ninh Hoà","commune_full_name_en":"Nam Ninh Hoa Commune","commune_slug":"nam_ninh_hoa","unit_type":"Xã","unit_type_en":"Commune","admin_level":2,"province_code":"56","province_name":"Khánh Hoà","province_full_name":"Tỉnh Khánh Hoà","province_slug":"khanh_hoa","join_key":"22597","status":"active","dataset_effective_date":"2026-04-30","catalog_version":"2026-07-12","geometry_status":"not_embedded_boundary_available_by_url","boundary_source_url":"https://raw.githubusercontent.com/thanglequoc/vietnamese-provinces-database/master/json/geojson/56_khanh_hoa/wards/22597_nam_ninh_hoa.geojson","boundary_source_page":"https://github.com/thanglequoc/vietnamese-provinces-database/blob/master/json/geojson/56_khanh_hoa/wards/22597_nam_ninh_hoa.geojson","source_catalog":"https://github.com/thanglequoc/vietnamese-provinces-database"},"geometry":null},{"type":"Feature","id":"22609","properties":{"commune_code":"22609","commune_name":"Khánh Vĩnh","commune_name_en":"Khanh Vinh","commune_full_name":"Xã Khánh Vĩnh","commune_full_name_en":"Khanh Vinh Commune","commune_slug":"khanh_vinh","unit_type":"Xã","unit_type_en":"Commune","admin_level":2,"province_code":"56","province_name":"Khánh Hoà","province_full_name":"Tỉnh Khánh Hoà","province_slug":"khanh_hoa","join_key":"22609","status":"active","dataset_effective_date":"2026-04-30","catalog_version":"2026-07-12","geometry_status":"not_embedded_boundary_available_by_url","boundary_source_url":"https://raw.githubusercontent.com/thanglequoc/vietnamese-provinces-database/master/json/geojson/56_khanh_hoa/wards/22609_khanh_vinh.geojson","boundary_source_page":"https://github.com/thanglequoc/vietnamese-provinces-database/blob/master/json/geojson/56_khanh_hoa/wards/22609_khanh_vinh.geojson","source_catalog":"https://github.com/thanglequoc/vietnamese-provinces-database"},"geometry":null},{"type":"Feature","id":"22612","properties":{"commune_code":"22612","commune_name":"Trung Khánh Vĩnh","commune_name_en":"Trung Khanh Vinh","commune_full_name":"Xã Trung Khánh Vĩnh","commune_full_name_en":"Trung Khanh Vinh Commune","commune_slug":"trung_khanh_vinh","unit_type":"Xã","unit_type_en":"Commune","admin_level":2,"province_code":"56","province_name":"Khánh Hoà","province_full_name":"Tỉnh Khánh Hoà","province_slug":"khanh_hoa","join_key":"22612","status":"active","dataset_effective_date":"2026-04-30","catalog_version":"2026-07-12","geometry_status":"not_embedded_boundary_available_by_url","boundary_source_url":"https://raw.githubusercontent.com/thanglequoc/vietnamese-provinces-database/master/json/geojson/56_khanh_hoa/wards/22612_trung_khanh_vinh.geojson","boundary_source_page":"https://github.com/thanglequoc/vietnamese-provinces-database/blob/master/json/geojson/56_khanh_hoa/wards/22612_trung_khanh_vinh.geojson","source_catalog":"https://github.com/thanglequoc/vietnamese-provinces-database"},"geometry":null},{"type":"Feature","id":"22615","properties":{"commune_code":"22615","commune_name":"Bắc Khánh Vĩnh","commune_name_en":"Bac Khanh Vinh","commune_full_name":"Xã Bắc Khánh Vĩnh","commune_full_name_en":"Bac Khanh Vinh Commune","commune_slug":"bac_khanh_vinh","unit_type":"Xã","unit_type_en":"Commune","admin_level":2,"province_code":"56","province_name":"Khánh Hoà","province_full_name":"Tỉnh Khánh Hoà","province_slug":"khanh_hoa","join_key":"22615","status":"active","dataset_effective_date":"2026-04-30","catalog_version":"2026-07-12","geometry_status":"not_embedded_boundary_available_by_url","boundary_source_url":"https://raw.githubusercontent.com/thanglequoc/vietnamese-provinces-database/master/json/geojson/56_khanh_hoa/wards/22615_bac_khanh_vinh.geojson","boundary_source_page":"https://github.com/thanglequoc/vietnamese-provinces-database/blob/master/json/geojson/56_khanh_hoa/wards/22615_bac_khanh_vinh.geojson","source_catalog":"https://github.com/thanglequoc/vietnamese-provinces-database"},"geometry":null},{"type":"Feature","id":"22624","properties":{"commune_code":"22624","commune_name":"Tây Khánh Vĩnh","commune_name_en":"Tay Khanh Vinh","commune_full_name":"Xã Tây Khánh Vĩnh","commune_full_name_en":"Tay Khanh Vinh Commune","commune_slug":"tay_khanh_vinh","unit_type":"Xã","unit_type_en":"Commune","admin_level":2,"province_code":"56","province_name":"Khánh Hoà","province_full_name":"Tỉnh Khánh Hoà","province_slug":"khanh_hoa","join_key":"22624","status":"active","dataset_effective_date":"2026-04-30","catalog_version":"2026-07-12","geometry_status":"not_embedded_boundary_available_by_url","boundary_source_url":"https://raw.githubusercontent.com/thanglequoc/vietnamese-provinces-database/master/json/geojson/56_khanh_hoa/wards/22624_tay_khanh_vinh.geojson","boundary_source_page":"https://github.com/thanglequoc/vietnamese-provinces-database/blob/master/json/geojson/56_khanh_hoa/wards/22624_tay_khanh_vinh.geojson","source_catalog":"https://github.com/thanglequoc/vietnamese-provinces-database"},"geometry":null},{"type":"Feature","id":"22648","properties":{"commune_code":"22648","commune_name":"Nam Khánh Vĩnh","commune_name_en":"Nam Khanh Vinh","commune_full_name":"Xã Nam Khánh Vĩnh","commune_full_name_en":"Nam Khanh Vinh Commune","commune_slug":"nam_khanh_vinh","unit_type":"Xã","unit_type_en":"Commune","admin_level":2,"province_code":"56","province_name":"Khánh Hoà","province_full_name":"Tỉnh Khánh Hoà","province_slug":"khanh_hoa","join_key":"22648","status":"active","dataset_effective_date":"2026-04-30","catalog_version":"2026-07-12","geometry_status":"not_embedded_boundary_available_by_url","boundary_source_url":"https://raw.githubusercontent.com/thanglequoc/vietnamese-provinces-database/master/json/geojson/56_khanh_hoa/wards/22648_nam_khanh_vinh.geojson","boundary_source_page":"https://github.com/thanglequoc/vietnamese-provinces-database/blob/master/json/geojson/56_khanh_hoa/wards/22648_nam_khanh_vinh.geojson","source_catalog":"https://github.com/thanglequoc/vietnamese-provinces-database"},"geometry":null},{"type":"Feature","id":"22651","properties":{"commune_code":"22651","commune_name":"Diên Khánh","commune_name_en":"Dien Khanh","commune_full_name":"Xã Diên Khánh","commune_full_name_en":"Dien Khanh Commune","commune_slug":"dien_khanh","unit_type":"Xã","unit_type_en":"Commune","admin_level":2,"province_code":"56","province_name":"Khánh Hoà","province_full_name":"Tỉnh Khánh Hoà","province_slug":"khanh_hoa","join_key":"22651","status":"active","dataset_effective_date":"2026-04-30","catalog_version":"2026-07-12","geometry_status":"not_embedded_boundary_available_by_url","boundary_source_url":"https://raw.githubusercontent.com/thanglequoc/vietnamese-provinces-database/master/json/geojson/56_khanh_hoa/wards/22651_dien_khanh.geojson","boundary_source_page":"https://github.com/thanglequoc/vietnamese-provinces-database/blob/master/json/geojson/56_khanh_hoa/wards/22651_dien_khanh.geojson","source_catalog":"https://github.com/thanglequoc/vietnamese-provinces-database"},"geometry":null},{"type":"Feature","id":"22657","properties":{"commune_code":"22657","commune_name":"Diên Điền","commune_name_en":"Dien Dien","commune_full_name":"Xã Diên Điền","commune_full_name_en":"Dien Dien Commune","commune_slug":"dien_dien","unit_type":"Xã","unit_type_en":"Commune","admin_level":2,"province_code":"56","province_name":"Khánh Hoà","province_full_name":"Tỉnh Khánh Hoà","province_slug":"khanh_hoa","join_key":"22657","status":"active","dataset_effective_date":"2026-04-30","catalog_version":"2026-07-12","geometry_status":"not_embedded_boundary_available_by_url","boundary_source_url":"https://raw.githubusercontent.com/thanglequoc/vietnamese-provinces-database/master/json/geojson/56_khanh_hoa/wards/22657_dien_dien.geojson","boundary_source_page":"https://github.com/thanglequoc/vietnamese-provinces-database/blob/master/json/geojson/56_khanh_hoa/wards/22657_dien_dien.geojson","source_catalog":"https://github.com/thanglequoc/vietnamese-provinces-database"},"geometry":null},{"type":"Feature","id":"22660","properties":{"commune_code":"22660","commune_name":"Diên Lâm","commune_name_en":"Dien Lam","commune_full_name":"Xã Diên Lâm","commune_full_name_en":"Dien Lam Commune","commune_slug":"dien_lam","unit_type":"Xã","unit_type_en":"Commune","admin_level":2,"province_code":"56","province_name":"Khánh Hoà","province_full_name":"Tỉnh Khánh Hoà","province_slug":"khanh_hoa","join_key":"22660","status":"active","dataset_effective_date":"2026-04-30","catalog_version":"2026-07-12","geometry_status":"not_embedded_boundary_available_by_url","boundary_source_url":"https://raw.githubusercontent.com/thanglequoc/vietnamese-provinces-database/master/json/geojson/56_khanh_hoa/wards/22660_dien_lam.geojson","boundary_source_page":"https://github.com/thanglequoc/vietnamese-provinces-database/blob/master/json/geojson/56_khanh_hoa/wards/22660_dien_lam.geojson","source_catalog":"https://github.com/thanglequoc/vietnamese-provinces-database"},"geometry":null},{"type":"Feature","id":"22672","properties":{"commune_code":"22672","commune_name":"Diên Thọ","commune_name_en":"Dien Tho","commune_full_name":"Xã Diên Thọ","commune_full_name_en":"Dien Tho Commune","commune_slug":"dien_tho","unit_type":"Xã","unit_type_en":"Commune","admin_level":2,"province_code":"56","province_name":"Khánh Hoà","province_full_name":"Tỉnh Khánh Hoà","province_slug":"khanh_hoa","join_key":"22672","status":"active","dataset_effective_date":"2026-04-30","catalog_version":"2026-07-12","geometry_status":"not_embedded_boundary_available_by_url","boundary_source_url":"https://raw.githubusercontent.com/thanglequoc/vietnamese-provinces-database/master/json/geojson/56_khanh_hoa/wards/22672_dien_tho.geojson","boundary_source_page":"https://github.com/thanglequoc/vietnamese-provinces-database/blob/master/json/geojson/56_khanh_hoa/wards/22672_dien_tho.geojson","source_catalog":"https://github.com/thanglequoc/vietnamese-provinces-database"},"geometry":null},{"type":"Feature","id":"22678","properties":{"commune_code":"22678","commune_name":"Diên Lạc","commune_name_en":"Dien Lac","commune_full_name":"Xã Diên Lạc","commune_full_name_en":"Dien Lac Commune","commune_slug":"dien_lac","unit_type":"Xã","unit_type_en":"Commune","admin_level":2,"province_code":"56","province_name":"Khánh Hoà","province_full_name":"Tỉnh Khánh Hoà","province_slug":"khanh_hoa","join_key":"22678","status":"active","dataset_effective_date":"2026-04-30","catalog_version":"2026-07-12","geometry_status":"not_embedded_boundary_available_by_url","boundary_source_url":"https://raw.githubusercontent.com/thanglequoc/vietnamese-provinces-database/master/json/geojson/56_khanh_hoa/wards/22678_dien_lac.geojson","boundary_source_page":"https://github.com/thanglequoc/vietnamese-provinces-database/blob/master/json/geojson/56_khanh_hoa/wards/22678_dien_lac.geojson","source_catalog":"https://github.com/thanglequoc/vietnamese-provinces-database"},"geometry":null},{"type":"Feature","id":"22702","properties":{"commune_code":"22702","commune_name":"Suối Hiệp","commune_name_en":"Suoi Hiep","commune_full_name":"Xã Suối Hiệp","commune_full_name_en":"Suoi Hiep Commune","commune_slug":"suoi_hiep","unit_type":"Xã","unit_type_en":"Commune","admin_level":2,"province_code":"56","province_name":"Khánh Hoà","province_full_name":"Tỉnh Khánh Hoà","province_slug":"khanh_hoa","join_key":"22702","status":"active","dataset_effective_date":"2026-04-30","catalog_version":"2026-07-12","geometry_status":"not_embedded_boundary_available_by_url","boundary_source_url":"https://raw.githubusercontent.com/thanglequoc/vietnamese-provinces-database/master/json/geojson/56_khanh_hoa/wards/22702_suoi_hiep.geojson","boundary_source_page":"https://github.com/thanglequoc/vietnamese-provinces-database/blob/master/json/geojson/56_khanh_hoa/wards/22702_suoi_hiep.geojson","source_catalog":"https://github.com/thanglequoc/vietnamese-provinces-database"},"geometry":null},{"type":"Feature","id":"22708","properties":{"commune_code":"22708","commune_name":"Suối Dầu","commune_name_en":"Suoi Dau","commune_full_name":"Xã Suối Dầu","commune_full_name_en":"Suoi Dau Commune","commune_slug":"suoi_dau","unit_type":"Xã","unit_type_en":"Commune","admin_level":2,"province_code":"56","province_name":"Khánh Hoà","province_full_name":"Tỉnh Khánh Hoà","province_slug":"khanh_hoa","join_key":"22708","status":"active","dataset_effective_date":"2026-04-30","catalog_version":"2026-07-12","geometry_status":"not_embedded_boundary_available_by_url","boundary_source_url":"https://raw.githubusercontent.com/thanglequoc/vietnamese-provinces-database/master/json/geojson/56_khanh_hoa/wards/22708_suoi_dau.geojson","boundary_source_page":"https://github.com/thanglequoc/vietnamese-provinces-database/blob/master/json/geojson/56_khanh_hoa/wards/22708_suoi_dau.geojson","source_catalog":"https://github.com/thanglequoc/vietnamese-provinces-database"},"geometry":null},{"type":"Feature","id":"22714","properties":{"commune_code":"22714","commune_name":"Khánh Sơn","commune_name_en":"Khanh Son","commune_full_name":"Xã Khánh Sơn","commune_full_name_en":"Khanh Son Commune","commune_slug":"khanh_son","unit_type":"Xã","unit_type_en":"Commune","admin_level":2,"province_code":"56","province_name":"Khánh Hoà","province_full_name":"Tỉnh Khánh Hoà","province_slug":"khanh_hoa","join_key":"22714","status":"active","dataset_effective_date":"2026-04-30","catalog_version":"2026-07-12","geometry_status":"not_embedded_boundary_available_by_url","boundary_source_url":"https://raw.githubusercontent.com/thanglequoc/vietnamese-provinces-database/master/json/geojson/56_khanh_hoa/wards/22714_khanh_son.geojson","boundary_source_page":"https://github.com/thanglequoc/vietnamese-provinces-database/blob/master/json/geojson/56_khanh_hoa/wards/22714_khanh_son.geojson","source_catalog":"https://github.com/thanglequoc/vietnamese-provinces-database"},"geometry":null},{"type":"Feature","id":"22720","properties":{"commune_code":"22720","commune_name":"Tây Khánh Sơn","commune_name_en":"Tay Khanh Son","commune_full_name":"Xã Tây Khánh Sơn","commune_full_name_en":"Tay Khanh Son Commune","commune_slug":"tay_khanh_son","unit_type":"Xã","unit_type_en":"Commune","admin_level":2,"province_code":"56","province_name":"Khánh Hoà","province_full_name":"Tỉnh Khánh Hoà","province_slug":"khanh_hoa","join_key":"22720","status":"active","dataset_effective_date":"2026-04-30","catalog_version":"2026-07-12","geometry_status":"not_embedded_boundary_available_by_url","boundary_source_url":"https://raw.githubusercontent.com/thanglequoc/vietnamese-provinces-database/master/json/geojson/56_khanh_hoa/wards/22720_tay_khanh_son.geojson","boundary_source_page":"https://github.com/thanglequoc/vietnamese-provinces-database/blob/master/json/geojson/56_khanh_hoa/wards/22720_tay_khanh_son.geojson","source_catalog":"https://github.com/thanglequoc/vietnamese-provinces-database"},"geometry":null},{"type":"Feature","id":"22732","properties":{"commune_code":"22732","commune_name":"Đông Khánh Sơn","commune_name_en":"Dong Khanh Son","commune_full_name":"Xã Đông Khánh Sơn","commune_full_name_en":"Dong Khanh Son Commune","commune_slug":"dong_khanh_son","unit_type":"Xã","unit_type_en":"Commune","admin_level":2,"province_code":"56","province_name":"Khánh Hoà","province_full_name":"Tỉnh Khánh Hoà","province_slug":"khanh_hoa","join_key":"22732","status":"active","dataset_effective_date":"2026-04-30","catalog_version":"2026-07-12","geometry_status":"not_embedded_boundary_available_by_url","boundary_source_url":"https://raw.githubusercontent.com/thanglequoc/vietnamese-provinces-database/master/json/geojson/56_khanh_hoa/wards/22732_dong_khanh_son.geojson","boundary_source_page":"https://github.com/thanglequoc/vietnamese-provinces-database/blob/master/json/geojson/56_khanh_hoa/wards/22732_dong_khanh_son.geojson","source_catalog":"https://github.com/thanglequoc/vietnamese-provinces-database"},"geometry":null},{"type":"Feature","id":"22736","properties":{"commune_code":"22736","commune_name":"Trường Sa","commune_name_en":"Spratly","commune_full_name":"Đặc khu Trường Sa","commune_full_name_en":"Spratly Special administrative region","commune_slug":"truong_sa","unit_type":"Đặc khu","unit_type_en":"Special administrative region","admin_level":2,"province_code":"56","province_name":"Khánh Hoà","province_full_name":"Tỉnh Khánh Hoà","province_slug":"khanh_hoa","join_key":"22736","status":"active","dataset_effective_date":"2026-04-30","catalog_version":"2026-07-12","geometry_status":"not_embedded_boundary_available_by_url","boundary_source_url":"https://raw.githubusercontent.com/thanglequoc/vietnamese-provinces-database/master/json/geojson/56_khanh_hoa/wards/22736_truong_sa.geojson","boundary_source_page":"https://github.com/thanglequoc/vietnamese-provinces-database/blob/master/json/geojson/56_khanh_hoa/wards/22736_truong_sa.geojson","source_catalog":"https://github.com/thanglequoc/vietnamese-provinces-database"},"geometry":null},{"type":"Feature","id":"22738","properties":{"commune_code":"22738","commune_name":"Đô Vinh","commune_name_en":"Do Vinh","commune_full_name":"Phường Đô Vinh","commune_full_name_en":"Do Vinh Ward","commune_slug":"do_vinh","unit_type":"Phường","unit_type_en":"Ward","admin_level":2,"province_code":"56","province_name":"Khánh Hoà","province_full_name":"Tỉnh Khánh Hoà","province_slug":"khanh_hoa","join_key":"22738","status":"active","dataset_effective_date":"2026-04-30","catalog_version":"2026-07-12","geometry_status":"not_embedded_boundary_available_by_url","boundary_source_url":"https://raw.githubusercontent.com/thanglequoc/vietnamese-provinces-database/master/json/geojson/56_khanh_hoa/wards/22738_do_vinh.geojson","boundary_source_page":"https://github.com/thanglequoc/vietnamese-provinces-database/blob/master/json/geojson/56_khanh_hoa/wards/22738_do_vinh.geojson","source_catalog":"https://github.com/thanglequoc/vietnamese-provinces-database"},"geometry":null},{"type":"Feature","id":"22741","properties":{"commune_code":"22741","commune_name":"Bảo An","commune_name_en":"Bao An","commune_full_name":"Phường Bảo An","commune_full_name_en":"Bao An Ward","commune_slug":"bao_an","unit_type":"Phường","unit_type_en":"Ward","admin_level":2,"province_code":"56","province_name":"Khánh Hoà","province_full_name":"Tỉnh Khánh Hoà","province_slug":"khanh_hoa","join_key":"22741","status":"active","dataset_effective_date":"2026-04-30","catalog_version":"2026-07-12","geometry_status":"not_embedded_boundary_available_by_url","boundary_source_url":"https://raw.githubusercontent.com/thanglequoc/vietnamese-provinces-database/master/json/geojson/56_khanh_hoa/wards/22741_bao_an.geojson","boundary_source_page":"https://github.com/thanglequoc/vietnamese-provinces-database/blob/master/json/geojson/56_khanh_hoa/wards/22741_bao_an.geojson","source_catalog":"https://github.com/thanglequoc/vietnamese-provinces-database"},"geometry":null},{"type":"Feature","id":"22759","properties":{"commune_code":"22759","commune_name":"Phan Rang","commune_name_en":"Phan Rang","commune_full_name":"Phường Phan Rang","commune_full_name_en":"Phan Rang Ward","commune_slug":"phan_rang","unit_type":"Phường","unit_type_en":"Ward","admin_level":2,"province_code":"56","province_name":"Khánh Hoà","province_full_name":"Tỉnh Khánh Hoà","province_slug":"khanh_hoa","join_key":"22759","status":"active","dataset_effective_date":"2026-04-30","catalog_version":"2026-07-12","geometry_status":"not_embedded_boundary_available_by_url","boundary_source_url":"https://raw.githubusercontent.com/thanglequoc/vietnamese-provinces-database/master/json/geojson/56_khanh_hoa/wards/22759_phan_rang.geojson","boundary_source_page":"https://github.com/thanglequoc/vietnamese-provinces-database/blob/master/json/geojson/56_khanh_hoa/wards/22759_phan_rang.geojson","source_catalog":"https://github.com/thanglequoc/vietnamese-provinces-database"},"geometry":null},{"type":"Feature","id":"22780","properties":{"commune_code":"22780","commune_name":"Đông Hải","commune_name_en":"Dong Hai","commune_full_name":"Phường Đông Hải","commune_full_name_en":"Dong Hai Ward","commune_slug":"dong_hai","unit_type":"Phường","unit_type_en":"Ward","admin_level":2,"province_code":"56","province_name":"Khánh Hoà","province_full_name":"Tỉnh Khánh Hoà","province_slug":"khanh_hoa","join_key":"22780","status":"active","dataset_effective_date":"2026-04-30","catalog_version":"2026-07-12","geometry_status":"not_embedded_boundary_available_by_url","boundary_source_url":"https://raw.githubusercontent.com/thanglequoc/vietnamese-provinces-database/master/json/geojson/56_khanh_hoa/wards/22780_dong_hai.geojson","boundary_source_page":"https://github.com/thanglequoc/vietnamese-provinces-database/blob/master/json/geojson/56_khanh_hoa/wards/22780_dong_hai.geojson","source_catalog":"https://github.com/thanglequoc/vietnamese-provinces-database"},"geometry":null},{"type":"Feature","id":"22786","properties":{"commune_code":"22786","commune_name":"Bác Ái Tây","commune_name_en":"Bac Ai Tay","commune_full_name":"Xã Bác Ái Tây","commune_full_name_en":"Bac Ai Tay Commune","commune_slug":"bac_ai_tay","unit_type":"Xã","unit_type_en":"Commune","admin_level":2,"province_code":"56","province_name":"Khánh Hoà","province_full_name":"Tỉnh Khánh Hoà","province_slug":"khanh_hoa","join_key":"22786","status":"active","dataset_effective_date":"2026-04-30","catalog_version":"2026-07-12","geometry_status":"not_embedded_boundary_available_by_url","boundary_source_url":"https://raw.githubusercontent.com/thanglequoc/vietnamese-provinces-database/master/json/geojson/56_khanh_hoa/wards/22786_bac_ai_tay.geojson","boundary_source_page":"https://github.com/thanglequoc/vietnamese-provinces-database/blob/master/json/geojson/56_khanh_hoa/wards/22786_bac_ai_tay.geojson","source_catalog":"https://github.com/thanglequoc/vietnamese-provinces-database"},"geometry":null},{"type":"Feature","id":"22795","properties":{"commune_code":"22795","commune_name":"Bác Ái","commune_name_en":"Bac Ai","commune_full_name":"Xã Bác Ái","commune_full_name_en":"Bac Ai Commune","commune_slug":"bac_ai","unit_type":"Xã","unit_type_en":"Commune","admin_level":2,"province_code":"56","province_name":"Khánh Hoà","province_full_name":"Tỉnh Khánh Hoà","province_slug":"khanh_hoa","join_key":"22795","status":"active","dataset_effective_date":"2026-04-30","catalog_version":"2026-07-12","geometry_status":"not_embedded_boundary_available_by_url","boundary_source_url":"https://raw.githubusercontent.com/thanglequoc/vietnamese-provinces-database/master/json/geojson/56_khanh_hoa/wards/22795_bac_ai.geojson","boundary_source_page":"https://github.com/thanglequoc/vietnamese-provinces-database/blob/master/json/geojson/56_khanh_hoa/wards/22795_bac_ai.geojson","source_catalog":"https://github.com/thanglequoc/vietnamese-provinces-database"},"geometry":null},{"type":"Feature","id":"22801","properties":{"commune_code":"22801","commune_name":"Bác Ái Đông","commune_name_en":"Bac Ai Dong","commune_full_name":"Xã Bác Ái Đông","commune_full_name_en":"Bac Ai Dong Commune","commune_slug":"bac_ai_dong","unit_type":"Xã","unit_type_en":"Commune","admin_level":2,"province_code":"56","province_name":"Khánh Hoà","province_full_name":"Tỉnh Khánh Hoà","province_slug":"khanh_hoa","join_key":"22801","status":"active","dataset_effective_date":"2026-04-30","catalog_version":"2026-07-12","geometry_status":"not_embedded_boundary_available_by_url","boundary_source_url":"https://raw.githubusercontent.com/thanglequoc/vietnamese-provinces-database/master/json/geojson/56_khanh_hoa/wards/22801_bac_ai_dong.geojson","boundary_source_page":"https://github.com/thanglequoc/vietnamese-provinces-database/blob/master/json/geojson/56_khanh_hoa/wards/22801_bac_ai_dong.geojson","source_catalog":"https://github.com/thanglequoc/vietnamese-provinces-database"},"geometry":null},{"type":"Feature","id":"22810","properties":{"commune_code":"22810","commune_name":"Ninh Sơn","commune_name_en":"Ninh Son","commune_full_name":"Xã Ninh Sơn","commune_full_name_en":"Ninh Son Commune","commune_slug":"ninh_son","unit_type":"Xã","unit_type_en":"Commune","admin_level":2,"province_code":"56","province_name":"Khánh Hoà","province_full_name":"Tỉnh Khánh Hoà","province_slug":"khanh_hoa","join_key":"22810","status":"active","dataset_effective_date":"2026-04-30","catalog_version":"2026-07-12","geometry_status":"not_embedded_boundary_available_by_url","boundary_source_url":"https://raw.githubusercontent.com/thanglequoc/vietnamese-provinces-database/master/json/geojson/56_khanh_hoa/wards/22810_ninh_son.geojson","boundary_source_page":"https://github.com/thanglequoc/vietnamese-provinces-database/blob/master/json/geojson/56_khanh_hoa/wards/22810_ninh_son.geojson","source_catalog":"https://github.com/thanglequoc/vietnamese-provinces-database"},"geometry":null},{"type":"Feature","id":"22813","properties":{"commune_code":"22813","commune_name":"Lâm Sơn","commune_name_en":"Lam Son","commune_full_name":"Xã Lâm Sơn","commune_full_name_en":"Lam Son Commune","commune_slug":"lam_son","unit_type":"Xã","unit_type_en":"Commune","admin_level":2,"province_code":"56","province_name":"Khánh Hoà","province_full_name":"Tỉnh Khánh Hoà","province_slug":"khanh_hoa","join_key":"22813","status":"active","dataset_effective_date":"2026-04-30","catalog_version":"2026-07-12","geometry_status":"not_embedded_boundary_available_by_url","boundary_source_url":"https://raw.githubusercontent.com/thanglequoc/vietnamese-provinces-database/master/json/geojson/56_khanh_hoa/wards/22813_lam_son.geojson","boundary_source_page":"https://github.com/thanglequoc/vietnamese-provinces-database/blob/master/json/geojson/56_khanh_hoa/wards/22813_lam_son.geojson","source_catalog":"https://github.com/thanglequoc/vietnamese-provinces-database"},"geometry":null},{"type":"Feature","id":"22822","properties":{"commune_code":"22822","commune_name":"Mỹ Sơn","commune_name_en":"My Son","commune_full_name":"Xã Mỹ Sơn","commune_full_name_en":"My Son Commune","commune_slug":"my_son","unit_type":"Xã","unit_type_en":"Commune","admin_level":2,"province_code":"56","province_name":"Khánh Hoà","province_full_name":"Tỉnh Khánh Hoà","province_slug":"khanh_hoa","join_key":"22822","status":"active","dataset_effective_date":"2026-04-30","catalog_version":"2026-07-12","geometry_status":"not_embedded_boundary_available_by_url","boundary_source_url":"https://raw.githubusercontent.com/thanglequoc/vietnamese-provinces-database/master/json/geojson/56_khanh_hoa/wards/22822_my_son.geojson","boundary_source_page":"https://github.com/thanglequoc/vietnamese-provinces-database/blob/master/json/geojson/56_khanh_hoa/wards/22822_my_son.geojson","source_catalog":"https://github.com/thanglequoc/vietnamese-provinces-database"},"geometry":null},{"type":"Feature","id":"22828","properties":{"commune_code":"22828","commune_name":"Anh Dũng","commune_name_en":"Anh Dung","commune_full_name":"Xã Anh Dũng","commune_full_name_en":"Anh Dung Commune","commune_slug":"anh_dung","unit_type":"Xã","unit_type_en":"Commune","admin_level":2,"province_code":"56","province_name":"Khánh Hoà","province_full_name":"Tỉnh Khánh Hoà","province_slug":"khanh_hoa","join_key":"22828","status":"active","dataset_effective_date":"2026-04-30","catalog_version":"2026-07-12","geometry_status":"not_embedded_boundary_available_by_url","boundary_source_url":"https://raw.githubusercontent.com/thanglequoc/vietnamese-provinces-database/master/json/geojson/56_khanh_hoa/wards/22828_anh_dung.geojson","boundary_source_page":"https://github.com/thanglequoc/vietnamese-provinces-database/blob/master/json/geojson/56_khanh_hoa/wards/22828_anh_dung.geojson","source_catalog":"https://github.com/thanglequoc/vietnamese-provinces-database"},"geometry":null},{"type":"Feature","id":"22834","properties":{"commune_code":"22834","commune_name":"Ninh Chử","commune_name_en":"Ninh Chu","commune_full_name":"Phường Ninh Chử","commune_full_name_en":"Ninh Chu Ward","commune_slug":"ninh_chu","unit_type":"Phường","unit_type_en":"Ward","admin_level":2,"province_code":"56","province_name":"Khánh Hoà","province_full_name":"Tỉnh Khánh Hoà","province_slug":"khanh_hoa","join_key":"22834","status":"active","dataset_effective_date":"2026-04-30","catalog_version":"2026-07-12","geometry_status":"not_embedded_boundary_available_by_url","boundary_source_url":"https://raw.githubusercontent.com/thanglequoc/vietnamese-provinces-database/master/json/geojson/56_khanh_hoa/wards/22834_ninh_chu.geojson","boundary_source_page":"https://github.com/thanglequoc/vietnamese-provinces-database/blob/master/json/geojson/56_khanh_hoa/wards/22834_ninh_chu.geojson","source_catalog":"https://github.com/thanglequoc/vietnamese-provinces-database"},"geometry":null},{"type":"Feature","id":"22840","properties":{"commune_code":"22840","commune_name":"Công Hải","commune_name_en":"Cong Hai","commune_full_name":"Xã Công Hải","commune_full_name_en":"Cong Hai Commune","commune_slug":"cong_hai","unit_type":"Xã","unit_type_en":"Commune","admin_level":2,"province_code":"56","province_name":"Khánh Hoà","province_full_name":"Tỉnh Khánh Hoà","province_slug":"khanh_hoa","join_key":"22840","status":"active","dataset_effective_date":"2026-04-30","catalog_version":"2026-07-12","geometry_status":"not_embedded_boundary_available_by_url","boundary_source_url":"https://raw.githubusercontent.com/thanglequoc/vietnamese-provinces-database/master/json/geojson/56_khanh_hoa/wards/22840_cong_hai.geojson","boundary_source_page":"https://github.com/thanglequoc/vietnamese-provinces-database/blob/master/json/geojson/56_khanh_hoa/wards/22840_cong_hai.geojson","source_catalog":"https://github.com/thanglequoc/vietnamese-provinces-database"},"geometry":null},{"type":"Feature","id":"22846","properties":{"commune_code":"22846","commune_name":"Vĩnh Hải","commune_name_en":"Vinh Hai","commune_full_name":"Xã Vĩnh Hải","commune_full_name_en":"Vinh Hai Commune","commune_slug":"vinh_hai","unit_type":"Xã","unit_type_en":"Commune","admin_level":2,"province_code":"56","province_name":"Khánh Hoà","province_full_name":"Tỉnh Khánh Hoà","province_slug":"khanh_hoa","join_key":"22846","status":"active","dataset_effective_date":"2026-04-30","catalog_version":"2026-07-12","geometry_status":"not_embedded_boundary_available_by_url","boundary_source_url":"https://raw.githubusercontent.com/thanglequoc/vietnamese-provinces-database/master/json/geojson/56_khanh_hoa/wards/22846_vinh_hai.geojson","boundary_source_page":"https://github.com/thanglequoc/vietnamese-provinces-database/blob/master/json/geojson/56_khanh_hoa/wards/22846_vinh_hai.geojson","source_catalog":"https://github.com/thanglequoc/vietnamese-provinces-database"},"geometry":null},{"type":"Feature","id":"22849","properties":{"commune_code":"22849","commune_name":"Thuận Bắc","commune_name_en":"Thuan Bac","commune_full_name":"Xã Thuận Bắc","commune_full_name_en":"Thuan Bac Commune","commune_slug":"thuan_bac","unit_type":"Xã","unit_type_en":"Commune","admin_level":2,"province_code":"56","province_name":"Khánh Hoà","province_full_name":"Tỉnh Khánh Hoà","province_slug":"khanh_hoa","join_key":"22849","status":"active","dataset_effective_date":"2026-04-30","catalog_version":"2026-07-12","geometry_status":"not_embedded_boundary_available_by_url","boundary_source_url":"https://raw.githubusercontent.com/thanglequoc/vietnamese-provinces-database/master/json/geojson/56_khanh_hoa/wards/22849_thuan_bac.geojson","boundary_source_page":"https://github.com/thanglequoc/vietnamese-provinces-database/blob/master/json/geojson/56_khanh_hoa/wards/22849_thuan_bac.geojson","source_catalog":"https://github.com/thanglequoc/vietnamese-provinces-database"},"geometry":null},{"type":"Feature","id":"22852","properties":{"commune_code":"22852","commune_name":"Ninh Hải","commune_name_en":"Ninh Hai","commune_full_name":"Xã Ninh Hải","commune_full_name_en":"Ninh Hai Commune","commune_slug":"ninh_hai","unit_type":"Xã","unit_type_en":"Commune","admin_level":2,"province_code":"56","province_name":"Khánh Hoà","province_full_name":"Tỉnh Khánh Hoà","province_slug":"khanh_hoa","join_key":"22852","status":"active","dataset_effective_date":"2026-04-30","catalog_version":"2026-07-12","geometry_status":"not_embedded_boundary_available_by_url","boundary_source_url":"https://raw.githubusercontent.com/thanglequoc/vietnamese-provinces-database/master/json/geojson/56_khanh_hoa/wards/22852_ninh_hai.geojson","boundary_source_page":"https://github.com/thanglequoc/vietnamese-provinces-database/blob/master/json/geojson/56_khanh_hoa/wards/22852_ninh_hai.geojson","source_catalog":"https://github.com/thanglequoc/vietnamese-provinces-database"},"geometry":null},{"type":"Feature","id":"22861","properties":{"commune_code":"22861","commune_name":"Xuân Hải","commune_name_en":"Xuan Hai","commune_full_name":"Xã Xuân Hải","commune_full_name_en":"Xuan Hai Commune","commune_slug":"xuan_hai","unit_type":"Xã","unit_type_en":"Commune","admin_level":2,"province_code":"56","province_name":"Khánh Hoà","province_full_name":"Tỉnh Khánh Hoà","province_slug":"khanh_hoa","join_key":"22861","status":"active","dataset_effective_date":"2026-04-30","catalog_version":"2026-07-12","geometry_status":"not_embedded_boundary_available_by_url","boundary_source_url":"https://raw.githubusercontent.com/thanglequoc/vietnamese-provinces-database/master/json/geojson/56_khanh_hoa/wards/22861_xuan_hai.geojson","boundary_source_page":"https://github.com/thanglequoc/vietnamese-provinces-database/blob/master/json/geojson/56_khanh_hoa/wards/22861_xuan_hai.geojson","source_catalog":"https://github.com/thanglequoc/vietnamese-provinces-database"},"geometry":null},{"type":"Feature","id":"22870","properties":{"commune_code":"22870","commune_name":"Ninh Phước","commune_name_en":"Ninh Phuoc","commune_full_name":"Xã Ninh Phước","commune_full_name_en":"Ninh Phuoc Commune","commune_slug":"ninh_phuoc","unit_type":"Xã","unit_type_en":"Commune","admin_level":2,"province_code":"56","province_name":"Khánh Hoà","province_full_name":"Tỉnh Khánh Hoà","province_slug":"khanh_hoa","join_key":"22870","status":"active","dataset_effective_date":"2026-04-30","catalog_version":"2026-07-12","geometry_status":"not_embedded_boundary_available_by_url","boundary_source_url":"https://raw.githubusercontent.com/thanglequoc/vietnamese-provinces-database/master/json/geojson/56_khanh_hoa/wards/22870_ninh_phuoc.geojson","boundary_source_page":"https://github.com/thanglequoc/vietnamese-provinces-database/blob/master/json/geojson/56_khanh_hoa/wards/22870_ninh_phuoc.geojson","source_catalog":"https://github.com/thanglequoc/vietnamese-provinces-database"},"geometry":null},{"type":"Feature","id":"22873","properties":{"commune_code":"22873","commune_name":"Phước Hậu","commune_name_en":"Phuoc Hau","commune_full_name":"Xã Phước Hậu","commune_full_name_en":"Phuoc Hau Commune","commune_slug":"phuoc_hau","unit_type":"Xã","unit_type_en":"Commune","admin_level":2,"province_code":"56","province_name":"Khánh Hoà","province_full_name":"Tỉnh Khánh Hoà","province_slug":"khanh_hoa","join_key":"22873","status":"active","dataset_effective_date":"2026-04-30","catalog_version":"2026-07-12","geometry_status":"not_embedded_boundary_available_by_url","boundary_source_url":"https://raw.githubusercontent.com/thanglequoc/vietnamese-provinces-database/master/json/geojson/56_khanh_hoa/wards/22873_phuoc_hau.geojson","boundary_source_page":"https://github.com/thanglequoc/vietnamese-provinces-database/blob/master/json/geojson/56_khanh_hoa/wards/22873_phuoc_hau.geojson","source_catalog":"https://github.com/thanglequoc/vietnamese-provinces-database"},"geometry":null},{"type":"Feature","id":"22888","properties":{"commune_code":"22888","commune_name":"Phước Dinh","commune_name_en":"Phuoc Dinh","commune_full_name":"Xã Phước Dinh","commune_full_name_en":"Phuoc Dinh Commune","commune_slug":"phuoc_dinh","unit_type":"Xã","unit_type_en":"Commune","admin_level":2,"province_code":"56","province_name":"Khánh Hoà","province_full_name":"Tỉnh Khánh Hoà","province_slug":"khanh_hoa","join_key":"22888","status":"active","dataset_effective_date":"2026-04-30","catalog_version":"2026-07-12","geometry_status":"not_embedded_boundary_available_by_url","boundary_source_url":"https://raw.githubusercontent.com/thanglequoc/vietnamese-provinces-database/master/json/geojson/56_khanh_hoa/wards/22888_phuoc_dinh.geojson","boundary_source_page":"https://github.com/thanglequoc/vietnamese-provinces-database/blob/master/json/geojson/56_khanh_hoa/wards/22888_phuoc_dinh.geojson","source_catalog":"https://github.com/thanglequoc/vietnamese-provinces-database"},"geometry":null},{"type":"Feature","id":"22891","properties":{"commune_code":"22891","commune_name":"Phước Hữu","commune_name_en":"Phuoc Huu","commune_full_name":"Xã Phước Hữu","commune_full_name_en":"Phuoc Huu Commune","commune_slug":"phuoc_huu","unit_type":"Xã","unit_type_en":"Commune","admin_level":2,"province_code":"56","province_name":"Khánh Hoà","province_full_name":"Tỉnh Khánh Hoà","province_slug":"khanh_hoa","join_key":"22891","status":"active","dataset_effective_date":"2026-04-30","catalog_version":"2026-07-12","geometry_status":"not_embedded_boundary_available_by_url","boundary_source_url":"https://raw.githubusercontent.com/thanglequoc/vietnamese-provinces-database/master/json/geojson/56_khanh_hoa/wards/22891_phuoc_huu.geojson","boundary_source_page":"https://github.com/thanglequoc/vietnamese-provinces-database/blob/master/json/geojson/56_khanh_hoa/wards/22891_phuoc_huu.geojson","source_catalog":"https://github.com/thanglequoc/vietnamese-provinces-database"},"geometry":null},{"type":"Feature","id":"22897","properties":{"commune_code":"22897","commune_name":"Thuận Nam","commune_name_en":"Thuan Nam","commune_full_name":"Xã Thuận Nam","commune_full_name_en":"Thuan Nam Commune","commune_slug":"thuan_nam","unit_type":"Xã","unit_type_en":"Commune","admin_level":2,"province_code":"56","province_name":"Khánh Hoà","province_full_name":"Tỉnh Khánh Hoà","province_slug":"khanh_hoa","join_key":"22897","status":"active","dataset_effective_date":"2026-04-30","catalog_version":"2026-07-12","geometry_status":"not_embedded_boundary_available_by_url","boundary_source_url":"https://raw.githubusercontent.com/thanglequoc/vietnamese-provinces-database/master/json/geojson/56_khanh_hoa/wards/22897_thuan_nam.geojson","boundary_source_page":"https://github.com/thanglequoc/vietnamese-provinces-database/blob/master/json/geojson/56_khanh_hoa/wards/22897_thuan_nam.geojson","source_catalog":"https://github.com/thanglequoc/vietnamese-provinces-database"},"geometry":null},{"type":"Feature","id":"22900","properties":{"commune_code":"22900","commune_name":"Phước Hà","commune_name_en":"Phuoc Ha","commune_full_name":"Xã Phước Hà","commune_full_name_en":"Phuoc Ha Commune","commune_slug":"phuoc_ha","unit_type":"Xã","unit_type_en":"Commune","admin_level":2,"province_code":"56","province_name":"Khánh Hoà","province_full_name":"Tỉnh Khánh Hoà","province_slug":"khanh_hoa","join_key":"22900","status":"active","dataset_effective_date":"2026-04-30","catalog_version":"2026-07-12","geometry_status":"not_embedded_boundary_available_by_url","boundary_source_url":"https://raw.githubusercontent.com/thanglequoc/vietnamese-provinces-database/master/json/geojson/56_khanh_hoa/wards/22900_phuoc_ha.geojson","boundary_source_page":"https://github.com/thanglequoc/vietnamese-provinces-database/blob/master/json/geojson/56_khanh_hoa/wards/22900_phuoc_ha.geojson","source_catalog":"https://github.com/thanglequoc/vietnamese-provinces-database"},"geometry":null},{"type":"Feature","id":"22909","properties":{"commune_code":"22909","commune_name":"Cà Ná","commune_name_en":"Ca Na","commune_full_name":"Xã Cà Ná","commune_full_name_en":"Ca Na Commune","commune_slug":"ca_na","unit_type":"Xã","unit_type_en":"Commune","admin_level":2,"province_code":"56","province_name":"Khánh Hoà","province_full_name":"Tỉnh Khánh Hoà","province_slug":"khanh_hoa","join_key":"22909","status":"active","dataset_effective_date":"2026-04-30","catalog_version":"2026-07-12","geometry_status":"not_embedded_boundary_available_by_url","boundary_source_url":"https://raw.githubusercontent.com/thanglequoc/vietnamese-provinces-database/master/json/geojson/56_khanh_hoa/wards/22909_ca_na.geojson","boundary_source_page":"https://github.com/thanglequoc/vietnamese-provinces-database/blob/master/json/geojson/56_khanh_hoa/wards/22909_ca_na.geojson","source_catalog":"https://github.com/thanglequoc/vietnamese-provinces-database"},"geometry":null}]}