{"type":"FeatureCollection","name":"66_dak_lak_communes_attributes","metadata":{"province_code":"66","province_name":"Đắk Lắk","feature_count":102,"geometry":null,"join_key":"commune_code"},"features":[{"type":"Feature","id":"22015","properties":{"commune_code":"22015","commune_name":"Tuy Hoà","commune_name_en":"Tuy Hoa","commune_full_name":"Phường Tuy Hoà","commune_full_name_en":"Tuy Hoa Ward","commune_slug":"tuy_hoa","unit_type":"Phường","unit_type_en":"Ward","admin_level":2,"province_code":"66","province_name":"Đắk Lắk","province_full_name":"Tỉnh Đắk Lắk","province_slug":"dak_lak","join_key":"22015","status":"active","dataset_effective_date":"2026-04-30","catalog_version":"2026-07-12","geometry_status":"not_embedded_boundary_available_by_url","boundary_source_url":"https://raw.githubusercontent.com/thanglequoc/vietnamese-provinces-database/master/json/geojson/66_dak_lak/wards/22015_tuy_hoa.geojson","boundary_source_page":"https://github.com/thanglequoc/vietnamese-provinces-database/blob/master/json/geojson/66_dak_lak/wards/22015_tuy_hoa.geojson","source_catalog":"https://github.com/thanglequoc/vietnamese-provinces-database"},"geometry":null},{"type":"Feature","id":"22045","properties":{"commune_code":"22045","commune_name":"Bình Kiến","commune_name_en":"Binh Kien","commune_full_name":"Phường Bình Kiến","commune_full_name_en":"Binh Kien Ward","commune_slug":"binh_kien","unit_type":"Phường","unit_type_en":"Ward","admin_level":2,"province_code":"66","province_name":"Đắk Lắk","province_full_name":"Tỉnh Đắk Lắk","province_slug":"dak_lak","join_key":"22045","status":"active","dataset_effective_date":"2026-04-30","catalog_version":"2026-07-12","geometry_status":"not_embedded_boundary_available_by_url","boundary_source_url":"https://raw.githubusercontent.com/thanglequoc/vietnamese-provinces-database/master/json/geojson/66_dak_lak/wards/22045_binh_kien.geojson","boundary_source_page":"https://github.com/thanglequoc/vietnamese-provinces-database/blob/master/json/geojson/66_dak_lak/wards/22045_binh_kien.geojson","source_catalog":"https://github.com/thanglequoc/vietnamese-provinces-database"},"geometry":null},{"type":"Feature","id":"22051","properties":{"commune_code":"22051","commune_name":"Sông Cầu","commune_name_en":"Song Cau","commune_full_name":"Phường Sông Cầu","commune_full_name_en":"Song Cau Ward","commune_slug":"song_cau","unit_type":"Phường","unit_type_en":"Ward","admin_level":2,"province_code":"66","province_name":"Đắk Lắk","province_full_name":"Tỉnh Đắk Lắk","province_slug":"dak_lak","join_key":"22051","status":"active","dataset_effective_date":"2026-04-30","catalog_version":"2026-07-12","geometry_status":"not_embedded_boundary_available_by_url","boundary_source_url":"https://raw.githubusercontent.com/thanglequoc/vietnamese-provinces-database/master/json/geojson/66_dak_lak/wards/22051_song_cau.geojson","boundary_source_page":"https://github.com/thanglequoc/vietnamese-provinces-database/blob/master/json/geojson/66_dak_lak/wards/22051_song_cau.geojson","source_catalog":"https://github.com/thanglequoc/vietnamese-provinces-database"},"geometry":null},{"type":"Feature","id":"22057","properties":{"commune_code":"22057","commune_name":"Xuân Lộc","commune_name_en":"Xuan Loc","commune_full_name":"Xã Xuân Lộc","commune_full_name_en":"Xuan Loc Commune","commune_slug":"xuan_loc","unit_type":"Xã","unit_type_en":"Commune","admin_level":2,"province_code":"66","province_name":"Đắk Lắk","province_full_name":"Tỉnh Đắk Lắk","province_slug":"dak_lak","join_key":"22057","status":"active","dataset_effective_date":"2026-04-30","catalog_version":"2026-07-12","geometry_status":"not_embedded_boundary_available_by_url","boundary_source_url":"https://raw.githubusercontent.com/thanglequoc/vietnamese-provinces-database/master/json/geojson/66_dak_lak/wards/22057_xuan_loc.geojson","boundary_source_page":"https://github.com/thanglequoc/vietnamese-provinces-database/blob/master/json/geojson/66_dak_lak/wards/22057_xuan_loc.geojson","source_catalog":"https://github.com/thanglequoc/vietnamese-provinces-database"},"geometry":null},{"type":"Feature","id":"22060","properties":{"commune_code":"22060","commune_name":"Xuân Cảnh","commune_name_en":"Xuan Canh","commune_full_name":"Xã Xuân Cảnh","commune_full_name_en":"Xuan Canh Commune","commune_slug":"xuan_canh","unit_type":"Xã","unit_type_en":"Commune","admin_level":2,"province_code":"66","province_name":"Đắk Lắk","province_full_name":"Tỉnh Đắk Lắk","province_slug":"dak_lak","join_key":"22060","status":"active","dataset_effective_date":"2026-04-30","catalog_version":"2026-07-12","geometry_status":"not_embedded_boundary_available_by_url","boundary_source_url":"https://raw.githubusercontent.com/thanglequoc/vietnamese-provinces-database/master/json/geojson/66_dak_lak/wards/22060_xuan_canh.geojson","boundary_source_page":"https://github.com/thanglequoc/vietnamese-provinces-database/blob/master/json/geojson/66_dak_lak/wards/22060_xuan_canh.geojson","source_catalog":"https://github.com/thanglequoc/vietnamese-provinces-database"},"geometry":null},{"type":"Feature","id":"22075","properties":{"commune_code":"22075","commune_name":"Xuân Thọ","commune_name_en":"Xuan Tho","commune_full_name":"Xã Xuân Thọ","commune_full_name_en":"Xuan Tho Commune","commune_slug":"xuan_tho","unit_type":"Xã","unit_type_en":"Commune","admin_level":2,"province_code":"66","province_name":"Đắk Lắk","province_full_name":"Tỉnh Đắk Lắk","province_slug":"dak_lak","join_key":"22075","status":"active","dataset_effective_date":"2026-04-30","catalog_version":"2026-07-12","geometry_status":"not_embedded_boundary_available_by_url","boundary_source_url":"https://raw.githubusercontent.com/thanglequoc/vietnamese-provinces-database/master/json/geojson/66_dak_lak/wards/22075_xuan_tho.geojson","boundary_source_page":"https://github.com/thanglequoc/vietnamese-provinces-database/blob/master/json/geojson/66_dak_lak/wards/22075_xuan_tho.geojson","source_catalog":"https://github.com/thanglequoc/vietnamese-provinces-database"},"geometry":null},{"type":"Feature","id":"22076","properties":{"commune_code":"22076","commune_name":"Xuân Đài","commune_name_en":"Xuan Dai","commune_full_name":"Phường Xuân Đài","commune_full_name_en":"Xuan Dai Ward","commune_slug":"xuan_dai","unit_type":"Phường","unit_type_en":"Ward","admin_level":2,"province_code":"66","province_name":"Đắk Lắk","province_full_name":"Tỉnh Đắk Lắk","province_slug":"dak_lak","join_key":"22076","status":"active","dataset_effective_date":"2026-04-30","catalog_version":"2026-07-12","geometry_status":"not_embedded_boundary_available_by_url","boundary_source_url":"https://raw.githubusercontent.com/thanglequoc/vietnamese-provinces-database/master/json/geojson/66_dak_lak/wards/22076_xuan_dai.geojson","boundary_source_page":"https://github.com/thanglequoc/vietnamese-provinces-database/blob/master/json/geojson/66_dak_lak/wards/22076_xuan_dai.geojson","source_catalog":"https://github.com/thanglequoc/vietnamese-provinces-database"},"geometry":null},{"type":"Feature","id":"22081","properties":{"commune_code":"22081","commune_name":"Đồng Xuân","commune_name_en":"Dong Xuan","commune_full_name":"Xã Đồng Xuân","commune_full_name_en":"Dong Xuan Commune","commune_slug":"dong_xuan","unit_type":"Xã","unit_type_en":"Commune","admin_level":2,"province_code":"66","province_name":"Đắk Lắk","province_full_name":"Tỉnh Đắk Lắk","province_slug":"dak_lak","join_key":"22081","status":"active","dataset_effective_date":"2026-04-30","catalog_version":"2026-07-12","geometry_status":"not_embedded_boundary_available_by_url","boundary_source_url":"https://raw.githubusercontent.com/thanglequoc/vietnamese-provinces-database/master/json/geojson/66_dak_lak/wards/22081_dong_xuan.geojson","boundary_source_page":"https://github.com/thanglequoc/vietnamese-provinces-database/blob/master/json/geojson/66_dak_lak/wards/22081_dong_xuan.geojson","source_catalog":"https://github.com/thanglequoc/vietnamese-provinces-database"},"geometry":null},{"type":"Feature","id":"22090","properties":{"commune_code":"22090","commune_name":"Xuân Lãnh","commune_name_en":"Xuan Lanh","commune_full_name":"Xã Xuân Lãnh","commune_full_name_en":"Xuan Lanh Commune","commune_slug":"xuan_lanh","unit_type":"Xã","unit_type_en":"Commune","admin_level":2,"province_code":"66","province_name":"Đắk Lắk","province_full_name":"Tỉnh Đắk Lắk","province_slug":"dak_lak","join_key":"22090","status":"active","dataset_effective_date":"2026-04-30","catalog_version":"2026-07-12","geometry_status":"not_embedded_boundary_available_by_url","boundary_source_url":"https://raw.githubusercontent.com/thanglequoc/vietnamese-provinces-database/master/json/geojson/66_dak_lak/wards/22090_xuan_lanh.geojson","boundary_source_page":"https://github.com/thanglequoc/vietnamese-provinces-database/blob/master/json/geojson/66_dak_lak/wards/22090_xuan_lanh.geojson","source_catalog":"https://github.com/thanglequoc/vietnamese-provinces-database"},"geometry":null},{"type":"Feature","id":"22096","properties":{"commune_code":"22096","commune_name":"Phú Mỡ","commune_name_en":"Phu Mo","commune_full_name":"Xã Phú Mỡ","commune_full_name_en":"Phu Mo Commune","commune_slug":"phu_mo","unit_type":"Xã","unit_type_en":"Commune","admin_level":2,"province_code":"66","province_name":"Đắk Lắk","province_full_name":"Tỉnh Đắk Lắk","province_slug":"dak_lak","join_key":"22096","status":"active","dataset_effective_date":"2026-04-30","catalog_version":"2026-07-12","geometry_status":"not_embedded_boundary_available_by_url","boundary_source_url":"https://raw.githubusercontent.com/thanglequoc/vietnamese-provinces-database/master/json/geojson/66_dak_lak/wards/22096_phu_mo.geojson","boundary_source_page":"https://github.com/thanglequoc/vietnamese-provinces-database/blob/master/json/geojson/66_dak_lak/wards/22096_phu_mo.geojson","source_catalog":"https://github.com/thanglequoc/vietnamese-provinces-database"},"geometry":null},{"type":"Feature","id":"22111","properties":{"commune_code":"22111","commune_name":"Xuân Phước","commune_name_en":"Xuan Phuoc","commune_full_name":"Xã Xuân Phước","commune_full_name_en":"Xuan Phuoc Commune","commune_slug":"xuan_phuoc","unit_type":"Xã","unit_type_en":"Commune","admin_level":2,"province_code":"66","province_name":"Đắk Lắk","province_full_name":"Tỉnh Đắk Lắk","province_slug":"dak_lak","join_key":"22111","status":"active","dataset_effective_date":"2026-04-30","catalog_version":"2026-07-12","geometry_status":"not_embedded_boundary_available_by_url","boundary_source_url":"https://raw.githubusercontent.com/thanglequoc/vietnamese-provinces-database/master/json/geojson/66_dak_lak/wards/22111_xuan_phuoc.geojson","boundary_source_page":"https://github.com/thanglequoc/vietnamese-provinces-database/blob/master/json/geojson/66_dak_lak/wards/22111_xuan_phuoc.geojson","source_catalog":"https://github.com/thanglequoc/vietnamese-provinces-database"},"geometry":null},{"type":"Feature","id":"22114","properties":{"commune_code":"22114","commune_name":"Tuy An Bắc","commune_name_en":"Tuy An Bac","commune_full_name":"Xã Tuy An Bắc","commune_full_name_en":"Tuy An Bac Commune","commune_slug":"tuy_an_bac","unit_type":"Xã","unit_type_en":"Commune","admin_level":2,"province_code":"66","province_name":"Đắk Lắk","province_full_name":"Tỉnh Đắk Lắk","province_slug":"dak_lak","join_key":"22114","status":"active","dataset_effective_date":"2026-04-30","catalog_version":"2026-07-12","geometry_status":"not_embedded_boundary_available_by_url","boundary_source_url":"https://raw.githubusercontent.com/thanglequoc/vietnamese-provinces-database/master/json/geojson/66_dak_lak/wards/22114_tuy_an_bac.geojson","boundary_source_page":"https://github.com/thanglequoc/vietnamese-provinces-database/blob/master/json/geojson/66_dak_lak/wards/22114_tuy_an_bac.geojson","source_catalog":"https://github.com/thanglequoc/vietnamese-provinces-database"},"geometry":null},{"type":"Feature","id":"22120","properties":{"commune_code":"22120","commune_name":"Tuy An Đông","commune_name_en":"Tuy An Dong","commune_full_name":"Xã Tuy An Đông","commune_full_name_en":"Tuy An Dong Commune","commune_slug":"tuy_an_dong","unit_type":"Xã","unit_type_en":"Commune","admin_level":2,"province_code":"66","province_name":"Đắk Lắk","province_full_name":"Tỉnh Đắk Lắk","province_slug":"dak_lak","join_key":"22120","status":"active","dataset_effective_date":"2026-04-30","catalog_version":"2026-07-12","geometry_status":"not_embedded_boundary_available_by_url","boundary_source_url":"https://raw.githubusercontent.com/thanglequoc/vietnamese-provinces-database/master/json/geojson/66_dak_lak/wards/22120_tuy_an_dong.geojson","boundary_source_page":"https://github.com/thanglequoc/vietnamese-provinces-database/blob/master/json/geojson/66_dak_lak/wards/22120_tuy_an_dong.geojson","source_catalog":"https://github.com/thanglequoc/vietnamese-provinces-database"},"geometry":null},{"type":"Feature","id":"22132","properties":{"commune_code":"22132","commune_name":"Tuy An Tây","commune_name_en":"Tuy An Tay","commune_full_name":"Xã Tuy An Tây","commune_full_name_en":"Tuy An Tay Commune","commune_slug":"tuy_an_tay","unit_type":"Xã","unit_type_en":"Commune","admin_level":2,"province_code":"66","province_name":"Đắk Lắk","province_full_name":"Tỉnh Đắk Lắk","province_slug":"dak_lak","join_key":"22132","status":"active","dataset_effective_date":"2026-04-30","catalog_version":"2026-07-12","geometry_status":"not_embedded_boundary_available_by_url","boundary_source_url":"https://raw.githubusercontent.com/thanglequoc/vietnamese-provinces-database/master/json/geojson/66_dak_lak/wards/22132_tuy_an_tay.geojson","boundary_source_page":"https://github.com/thanglequoc/vietnamese-provinces-database/blob/master/json/geojson/66_dak_lak/wards/22132_tuy_an_tay.geojson","source_catalog":"https://github.com/thanglequoc/vietnamese-provinces-database"},"geometry":null},{"type":"Feature","id":"22147","properties":{"commune_code":"22147","commune_name":"Ô Loan","commune_name_en":"O Loan","commune_full_name":"Xã Ô Loan","commune_full_name_en":"O Loan Commune","commune_slug":"o_loan","unit_type":"Xã","unit_type_en":"Commune","admin_level":2,"province_code":"66","province_name":"Đắk Lắk","province_full_name":"Tỉnh Đắk Lắk","province_slug":"dak_lak","join_key":"22147","status":"active","dataset_effective_date":"2026-04-30","catalog_version":"2026-07-12","geometry_status":"not_embedded_boundary_available_by_url","boundary_source_url":"https://raw.githubusercontent.com/thanglequoc/vietnamese-provinces-database/master/json/geojson/66_dak_lak/wards/22147_o_loan.geojson","boundary_source_page":"https://github.com/thanglequoc/vietnamese-provinces-database/blob/master/json/geojson/66_dak_lak/wards/22147_o_loan.geojson","source_catalog":"https://github.com/thanglequoc/vietnamese-provinces-database"},"geometry":null},{"type":"Feature","id":"22153","properties":{"commune_code":"22153","commune_name":"Tuy An Nam","commune_name_en":"Tuy An Nam","commune_full_name":"Xã Tuy An Nam","commune_full_name_en":"Tuy An Nam Commune","commune_slug":"tuy_an_nam","unit_type":"Xã","unit_type_en":"Commune","admin_level":2,"province_code":"66","province_name":"Đắk Lắk","province_full_name":"Tỉnh Đắk Lắk","province_slug":"dak_lak","join_key":"22153","status":"active","dataset_effective_date":"2026-04-30","catalog_version":"2026-07-12","geometry_status":"not_embedded_boundary_available_by_url","boundary_source_url":"https://raw.githubusercontent.com/thanglequoc/vietnamese-provinces-database/master/json/geojson/66_dak_lak/wards/22153_tuy_an_nam.geojson","boundary_source_page":"https://github.com/thanglequoc/vietnamese-provinces-database/blob/master/json/geojson/66_dak_lak/wards/22153_tuy_an_nam.geojson","source_catalog":"https://github.com/thanglequoc/vietnamese-provinces-database"},"geometry":null},{"type":"Feature","id":"22165","properties":{"commune_code":"22165","commune_name":"Sơn Hoà","commune_name_en":"Son Hoa","commune_full_name":"Xã Sơn Hoà","commune_full_name_en":"Son Hoa Commune","commune_slug":"son_hoa","unit_type":"Xã","unit_type_en":"Commune","admin_level":2,"province_code":"66","province_name":"Đắk Lắk","province_full_name":"Tỉnh Đắk Lắk","province_slug":"dak_lak","join_key":"22165","status":"active","dataset_effective_date":"2026-04-30","catalog_version":"2026-07-12","geometry_status":"not_embedded_boundary_available_by_url","boundary_source_url":"https://raw.githubusercontent.com/thanglequoc/vietnamese-provinces-database/master/json/geojson/66_dak_lak/wards/22165_son_hoa.geojson","boundary_source_page":"https://github.com/thanglequoc/vietnamese-provinces-database/blob/master/json/geojson/66_dak_lak/wards/22165_son_hoa.geojson","source_catalog":"https://github.com/thanglequoc/vietnamese-provinces-database"},"geometry":null},{"type":"Feature","id":"22171","properties":{"commune_code":"22171","commune_name":"Tây Sơn","commune_name_en":"Tay Son","commune_full_name":"Xã Tây Sơn","commune_full_name_en":"Tay Son Commune","commune_slug":"tay_son","unit_type":"Xã","unit_type_en":"Commune","admin_level":2,"province_code":"66","province_name":"Đắk Lắk","province_full_name":"Tỉnh Đắk Lắk","province_slug":"dak_lak","join_key":"22171","status":"active","dataset_effective_date":"2026-04-30","catalog_version":"2026-07-12","geometry_status":"not_embedded_boundary_available_by_url","boundary_source_url":"https://raw.githubusercontent.com/thanglequoc/vietnamese-provinces-database/master/json/geojson/66_dak_lak/wards/22171_tay_son.geojson","boundary_source_page":"https://github.com/thanglequoc/vietnamese-provinces-database/blob/master/json/geojson/66_dak_lak/wards/22171_tay_son.geojson","source_catalog":"https://github.com/thanglequoc/vietnamese-provinces-database"},"geometry":null},{"type":"Feature","id":"22177","properties":{"commune_code":"22177","commune_name":"Vân Hoà","commune_name_en":"Van Hoa","commune_full_name":"Xã Vân Hoà","commune_full_name_en":"Van Hoa Commune","commune_slug":"van_hoa","unit_type":"Xã","unit_type_en":"Commune","admin_level":2,"province_code":"66","province_name":"Đắk Lắk","province_full_name":"Tỉnh Đắk Lắk","province_slug":"dak_lak","join_key":"22177","status":"active","dataset_effective_date":"2026-04-30","catalog_version":"2026-07-12","geometry_status":"not_embedded_boundary_available_by_url","boundary_source_url":"https://raw.githubusercontent.com/thanglequoc/vietnamese-provinces-database/master/json/geojson/66_dak_lak/wards/22177_van_hoa.geojson","boundary_source_page":"https://github.com/thanglequoc/vietnamese-provinces-database/blob/master/json/geojson/66_dak_lak/wards/22177_van_hoa.geojson","source_catalog":"https://github.com/thanglequoc/vietnamese-provinces-database"},"geometry":null},{"type":"Feature","id":"22192","properties":{"commune_code":"22192","commune_name":"Suối Trai","commune_name_en":"Suoi Trai","commune_full_name":"Xã Suối Trai","commune_full_name_en":"Suoi Trai Commune","commune_slug":"suoi_trai","unit_type":"Xã","unit_type_en":"Commune","admin_level":2,"province_code":"66","province_name":"Đắk Lắk","province_full_name":"Tỉnh Đắk Lắk","province_slug":"dak_lak","join_key":"22192","status":"active","dataset_effective_date":"2026-04-30","catalog_version":"2026-07-12","geometry_status":"not_embedded_boundary_available_by_url","boundary_source_url":"https://raw.githubusercontent.com/thanglequoc/vietnamese-provinces-database/master/json/geojson/66_dak_lak/wards/22192_suoi_trai.geojson","boundary_source_page":"https://github.com/thanglequoc/vietnamese-provinces-database/blob/master/json/geojson/66_dak_lak/wards/22192_suoi_trai.geojson","source_catalog":"https://github.com/thanglequoc/vietnamese-provinces-database"},"geometry":null},{"type":"Feature","id":"22207","properties":{"commune_code":"22207","commune_name":"Sông Hinh","commune_name_en":"Song Hinh","commune_full_name":"Xã Sông Hinh","commune_full_name_en":"Song Hinh Commune","commune_slug":"song_hinh","unit_type":"Xã","unit_type_en":"Commune","admin_level":2,"province_code":"66","province_name":"Đắk Lắk","province_full_name":"Tỉnh Đắk Lắk","province_slug":"dak_lak","join_key":"22207","status":"active","dataset_effective_date":"2026-04-30","catalog_version":"2026-07-12","geometry_status":"not_embedded_boundary_available_by_url","boundary_source_url":"https://raw.githubusercontent.com/thanglequoc/vietnamese-provinces-database/master/json/geojson/66_dak_lak/wards/22207_song_hinh.geojson","boundary_source_page":"https://github.com/thanglequoc/vietnamese-provinces-database/blob/master/json/geojson/66_dak_lak/wards/22207_song_hinh.geojson","source_catalog":"https://github.com/thanglequoc/vietnamese-provinces-database"},"geometry":null},{"type":"Feature","id":"22222","properties":{"commune_code":"22222","commune_name":"Đức Bình","commune_name_en":"Duc Binh","commune_full_name":"Xã Đức Bình","commune_full_name_en":"Duc Binh Commune","commune_slug":"duc_binh","unit_type":"Xã","unit_type_en":"Commune","admin_level":2,"province_code":"66","province_name":"Đắk Lắk","province_full_name":"Tỉnh Đắk Lắk","province_slug":"dak_lak","join_key":"22222","status":"active","dataset_effective_date":"2026-04-30","catalog_version":"2026-07-12","geometry_status":"not_embedded_boundary_available_by_url","boundary_source_url":"https://raw.githubusercontent.com/thanglequoc/vietnamese-provinces-database/master/json/geojson/66_dak_lak/wards/22222_duc_binh.geojson","boundary_source_page":"https://github.com/thanglequoc/vietnamese-provinces-database/blob/master/json/geojson/66_dak_lak/wards/22222_duc_binh.geojson","source_catalog":"https://github.com/thanglequoc/vietnamese-provinces-database"},"geometry":null},{"type":"Feature","id":"22225","properties":{"commune_code":"22225","commune_name":"Ea Bá","commune_name_en":"Ea Ba","commune_full_name":"Xã Ea Bá","commune_full_name_en":"Ea Ba Commune","commune_slug":"ea_ba","unit_type":"Xã","unit_type_en":"Commune","admin_level":2,"province_code":"66","province_name":"Đắk Lắk","province_full_name":"Tỉnh Đắk Lắk","province_slug":"dak_lak","join_key":"22225","status":"active","dataset_effective_date":"2026-04-30","catalog_version":"2026-07-12","geometry_status":"not_embedded_boundary_available_by_url","boundary_source_url":"https://raw.githubusercontent.com/thanglequoc/vietnamese-provinces-database/master/json/geojson/66_dak_lak/wards/22225_ea_ba.geojson","boundary_source_page":"https://github.com/thanglequoc/vietnamese-provinces-database/blob/master/json/geojson/66_dak_lak/wards/22225_ea_ba.geojson","source_catalog":"https://github.com/thanglequoc/vietnamese-provinces-database"},"geometry":null},{"type":"Feature","id":"22237","properties":{"commune_code":"22237","commune_name":"Ea Ly","commune_name_en":"Ea Ly","commune_full_name":"Xã Ea Ly","commune_full_name_en":"Ea Ly Commune","commune_slug":"ea_ly","unit_type":"Xã","unit_type_en":"Commune","admin_level":2,"province_code":"66","province_name":"Đắk Lắk","province_full_name":"Tỉnh Đắk Lắk","province_slug":"dak_lak","join_key":"22237","status":"active","dataset_effective_date":"2026-04-30","catalog_version":"2026-07-12","geometry_status":"not_embedded_boundary_available_by_url","boundary_source_url":"https://raw.githubusercontent.com/thanglequoc/vietnamese-provinces-database/master/json/geojson/66_dak_lak/wards/22237_ea_ly.geojson","boundary_source_page":"https://github.com/thanglequoc/vietnamese-provinces-database/blob/master/json/geojson/66_dak_lak/wards/22237_ea_ly.geojson","source_catalog":"https://github.com/thanglequoc/vietnamese-provinces-database"},"geometry":null},{"type":"Feature","id":"22240","properties":{"commune_code":"22240","commune_name":"Phú Yên","commune_name_en":"Phu Yen","commune_full_name":"Phường Phú Yên","commune_full_name_en":"Phu Yen Ward","commune_slug":"phu_yen","unit_type":"Phường","unit_type_en":"Ward","admin_level":2,"province_code":"66","province_name":"Đắk Lắk","province_full_name":"Tỉnh Đắk Lắk","province_slug":"dak_lak","join_key":"22240","status":"active","dataset_effective_date":"2026-04-30","catalog_version":"2026-07-12","geometry_status":"not_embedded_boundary_available_by_url","boundary_source_url":"https://raw.githubusercontent.com/thanglequoc/vietnamese-provinces-database/master/json/geojson/66_dak_lak/wards/22240_phu_yen.geojson","boundary_source_page":"https://github.com/thanglequoc/vietnamese-provinces-database/blob/master/json/geojson/66_dak_lak/wards/22240_phu_yen.geojson","source_catalog":"https://github.com/thanglequoc/vietnamese-provinces-database"},"geometry":null},{"type":"Feature","id":"22250","properties":{"commune_code":"22250","commune_name":"Sơn Thành","commune_name_en":"Son Thanh","commune_full_name":"Xã Sơn Thành","commune_full_name_en":"Son Thanh Commune","commune_slug":"son_thanh","unit_type":"Xã","unit_type_en":"Commune","admin_level":2,"province_code":"66","province_name":"Đắk Lắk","province_full_name":"Tỉnh Đắk Lắk","province_slug":"dak_lak","join_key":"22250","status":"active","dataset_effective_date":"2026-04-30","catalog_version":"2026-07-12","geometry_status":"not_embedded_boundary_available_by_url","boundary_source_url":"https://raw.githubusercontent.com/thanglequoc/vietnamese-provinces-database/master/json/geojson/66_dak_lak/wards/22250_son_thanh.geojson","boundary_source_page":"https://github.com/thanglequoc/vietnamese-provinces-database/blob/master/json/geojson/66_dak_lak/wards/22250_son_thanh.geojson","source_catalog":"https://github.com/thanglequoc/vietnamese-provinces-database"},"geometry":null},{"type":"Feature","id":"22255","properties":{"commune_code":"22255","commune_name":"Tây Hoà","commune_name_en":"Tay Hoa","commune_full_name":"Xã Tây Hoà","commune_full_name_en":"Tay Hoa Commune","commune_slug":"tay_hoa","unit_type":"Xã","unit_type_en":"Commune","admin_level":2,"province_code":"66","province_name":"Đắk Lắk","province_full_name":"Tỉnh Đắk Lắk","province_slug":"dak_lak","join_key":"22255","status":"active","dataset_effective_date":"2026-04-30","catalog_version":"2026-07-12","geometry_status":"not_embedded_boundary_available_by_url","boundary_source_url":"https://raw.githubusercontent.com/thanglequoc/vietnamese-provinces-database/master/json/geojson/66_dak_lak/wards/22255_tay_hoa.geojson","boundary_source_page":"https://github.com/thanglequoc/vietnamese-provinces-database/blob/master/json/geojson/66_dak_lak/wards/22255_tay_hoa.geojson","source_catalog":"https://github.com/thanglequoc/vietnamese-provinces-database"},"geometry":null},{"type":"Feature","id":"22258","properties":{"commune_code":"22258","commune_name":"Đông Hoà","commune_name_en":"Dong Hoa","commune_full_name":"Phường Đông Hoà","commune_full_name_en":"Dong Hoa Ward","commune_slug":"dong_hoa","unit_type":"Phường","unit_type_en":"Ward","admin_level":2,"province_code":"66","province_name":"Đắk Lắk","province_full_name":"Tỉnh Đắk Lắk","province_slug":"dak_lak","join_key":"22258","status":"active","dataset_effective_date":"2026-04-30","catalog_version":"2026-07-12","geometry_status":"not_embedded_boundary_available_by_url","boundary_source_url":"https://raw.githubusercontent.com/thanglequoc/vietnamese-provinces-database/master/json/geojson/66_dak_lak/wards/22258_dong_hoa.geojson","boundary_source_page":"https://github.com/thanglequoc/vietnamese-provinces-database/blob/master/json/geojson/66_dak_lak/wards/22258_dong_hoa.geojson","source_catalog":"https://github.com/thanglequoc/vietnamese-provinces-database"},"geometry":null},{"type":"Feature","id":"22261","properties":{"commune_code":"22261","commune_name":"Hoà Hiệp","commune_name_en":"Hoa Hiep","commune_full_name":"Phường Hoà Hiệp","commune_full_name_en":"Hoa Hiep Ward","commune_slug":"hoa_hiep","unit_type":"Phường","unit_type_en":"Ward","admin_level":2,"province_code":"66","province_name":"Đắk Lắk","province_full_name":"Tỉnh Đắk Lắk","province_slug":"dak_lak","join_key":"22261","status":"active","dataset_effective_date":"2026-04-30","catalog_version":"2026-07-12","geometry_status":"not_embedded_boundary_available_by_url","boundary_source_url":"https://raw.githubusercontent.com/thanglequoc/vietnamese-provinces-database/master/json/geojson/66_dak_lak/wards/22261_hoa_hiep.geojson","boundary_source_page":"https://github.com/thanglequoc/vietnamese-provinces-database/blob/master/json/geojson/66_dak_lak/wards/22261_hoa_hiep.geojson","source_catalog":"https://github.com/thanglequoc/vietnamese-provinces-database"},"geometry":null},{"type":"Feature","id":"22276","properties":{"commune_code":"22276","commune_name":"Hoà Thịnh","commune_name_en":"Hoa Thinh","commune_full_name":"Xã Hoà Thịnh","commune_full_name_en":"Hoa Thinh Commune","commune_slug":"hoa_thinh","unit_type":"Xã","unit_type_en":"Commune","admin_level":2,"province_code":"66","province_name":"Đắk Lắk","province_full_name":"Tỉnh Đắk Lắk","province_slug":"dak_lak","join_key":"22276","status":"active","dataset_effective_date":"2026-04-30","catalog_version":"2026-07-12","geometry_status":"not_embedded_boundary_available_by_url","boundary_source_url":"https://raw.githubusercontent.com/thanglequoc/vietnamese-provinces-database/master/json/geojson/66_dak_lak/wards/22276_hoa_thinh.geojson","boundary_source_page":"https://github.com/thanglequoc/vietnamese-provinces-database/blob/master/json/geojson/66_dak_lak/wards/22276_hoa_thinh.geojson","source_catalog":"https://github.com/thanglequoc/vietnamese-provinces-database"},"geometry":null},{"type":"Feature","id":"22285","properties":{"commune_code":"22285","commune_name":"Hoà Mỹ","commune_name_en":"Hoa My","commune_full_name":"Xã Hoà Mỹ","commune_full_name_en":"Hoa My Commune","commune_slug":"hoa_my","unit_type":"Xã","unit_type_en":"Commune","admin_level":2,"province_code":"66","province_name":"Đắk Lắk","province_full_name":"Tỉnh Đắk Lắk","province_slug":"dak_lak","join_key":"22285","status":"active","dataset_effective_date":"2026-04-30","catalog_version":"2026-07-12","geometry_status":"not_embedded_boundary_available_by_url","boundary_source_url":"https://raw.githubusercontent.com/thanglequoc/vietnamese-provinces-database/master/json/geojson/66_dak_lak/wards/22285_hoa_my.geojson","boundary_source_page":"https://github.com/thanglequoc/vietnamese-provinces-database/blob/master/json/geojson/66_dak_lak/wards/22285_hoa_my.geojson","source_catalog":"https://github.com/thanglequoc/vietnamese-provinces-database"},"geometry":null},{"type":"Feature","id":"22291","properties":{"commune_code":"22291","commune_name":"Hoà Xuân","commune_name_en":"Hoa Xuan","commune_full_name":"Xã Hoà Xuân","commune_full_name_en":"Hoa Xuan Commune","commune_slug":"hoa_xuan","unit_type":"Xã","unit_type_en":"Commune","admin_level":2,"province_code":"66","province_name":"Đắk Lắk","province_full_name":"Tỉnh Đắk Lắk","province_slug":"dak_lak","join_key":"22291","status":"active","dataset_effective_date":"2026-04-30","catalog_version":"2026-07-12","geometry_status":"not_embedded_boundary_available_by_url","boundary_source_url":"https://raw.githubusercontent.com/thanglequoc/vietnamese-provinces-database/master/json/geojson/66_dak_lak/wards/22291_hoa_xuan.geojson","boundary_source_page":"https://github.com/thanglequoc/vietnamese-provinces-database/blob/master/json/geojson/66_dak_lak/wards/22291_hoa_xuan.geojson","source_catalog":"https://github.com/thanglequoc/vietnamese-provinces-database"},"geometry":null},{"type":"Feature","id":"22303","properties":{"commune_code":"22303","commune_name":"Phú Hoà 2","commune_name_en":"Phu Hoa 2","commune_full_name":"Xã Phú Hoà 2","commune_full_name_en":"Commune Phu Hoa 2","commune_slug":"phu_hoa_2","unit_type":"Xã","unit_type_en":"Commune","admin_level":2,"province_code":"66","province_name":"Đắk Lắk","province_full_name":"Tỉnh Đắk Lắk","province_slug":"dak_lak","join_key":"22303","status":"active","dataset_effective_date":"2026-04-30","catalog_version":"2026-07-12","geometry_status":"not_embedded_boundary_available_by_url","boundary_source_url":"https://raw.githubusercontent.com/thanglequoc/vietnamese-provinces-database/master/json/geojson/66_dak_lak/wards/22303_phu_hoa_2.geojson","boundary_source_page":"https://github.com/thanglequoc/vietnamese-provinces-database/blob/master/json/geojson/66_dak_lak/wards/22303_phu_hoa_2.geojson","source_catalog":"https://github.com/thanglequoc/vietnamese-provinces-database"},"geometry":null},{"type":"Feature","id":"22319","properties":{"commune_code":"22319","commune_name":"Phú Hoà 1","commune_name_en":"Phu Hoa 1","commune_full_name":"Xã Phú Hoà 1","commune_full_name_en":"Commune Phu Hoa 1","commune_slug":"phu_hoa_1","unit_type":"Xã","unit_type_en":"Commune","admin_level":2,"province_code":"66","province_name":"Đắk Lắk","province_full_name":"Tỉnh Đắk Lắk","province_slug":"dak_lak","join_key":"22319","status":"active","dataset_effective_date":"2026-04-30","catalog_version":"2026-07-12","geometry_status":"not_embedded_boundary_available_by_url","boundary_source_url":"https://raw.githubusercontent.com/thanglequoc/vietnamese-provinces-database/master/json/geojson/66_dak_lak/wards/22319_phu_hoa_1.geojson","boundary_source_page":"https://github.com/thanglequoc/vietnamese-provinces-database/blob/master/json/geojson/66_dak_lak/wards/22319_phu_hoa_1.geojson","source_catalog":"https://github.com/thanglequoc/vietnamese-provinces-database"},"geometry":null},{"type":"Feature","id":"24121","properties":{"commune_code":"24121","commune_name":"Tân Lập","commune_name_en":"Tan Lap","commune_full_name":"Phường Tân Lập","commune_full_name_en":"Tan Lap Ward","commune_slug":"tan_lap","unit_type":"Phường","unit_type_en":"Ward","admin_level":2,"province_code":"66","province_name":"Đắk Lắk","province_full_name":"Tỉnh Đắk Lắk","province_slug":"dak_lak","join_key":"24121","status":"active","dataset_effective_date":"2026-04-30","catalog_version":"2026-07-12","geometry_status":"not_embedded_boundary_available_by_url","boundary_source_url":"https://raw.githubusercontent.com/thanglequoc/vietnamese-provinces-database/master/json/geojson/66_dak_lak/wards/24121_tan_lap.geojson","boundary_source_page":"https://github.com/thanglequoc/vietnamese-provinces-database/blob/master/json/geojson/66_dak_lak/wards/24121_tan_lap.geojson","source_catalog":"https://github.com/thanglequoc/vietnamese-provinces-database"},"geometry":null},{"type":"Feature","id":"24133","properties":{"commune_code":"24133","commune_name":"Buôn Ma Thuột","commune_name_en":"Buon Ma Thuot","commune_full_name":"Phường Buôn Ma Thuột","commune_full_name_en":"Buon Ma Thuot Ward","commune_slug":"buon_ma_thuot","unit_type":"Phường","unit_type_en":"Ward","admin_level":2,"province_code":"66","province_name":"Đắk Lắk","province_full_name":"Tỉnh Đắk Lắk","province_slug":"dak_lak","join_key":"24133","status":"active","dataset_effective_date":"2026-04-30","catalog_version":"2026-07-12","geometry_status":"not_embedded_boundary_available_by_url","boundary_source_url":"https://raw.githubusercontent.com/thanglequoc/vietnamese-provinces-database/master/json/geojson/66_dak_lak/wards/24133_buon_ma_thuot.geojson","boundary_source_page":"https://github.com/thanglequoc/vietnamese-provinces-database/blob/master/json/geojson/66_dak_lak/wards/24133_buon_ma_thuot.geojson","source_catalog":"https://github.com/thanglequoc/vietnamese-provinces-database"},"geometry":null},{"type":"Feature","id":"24154","properties":{"commune_code":"24154","commune_name":"Thành Nhất","commune_name_en":"Thanh Nhat","commune_full_name":"Phường Thành Nhất","commune_full_name_en":"Thanh Nhat Ward","commune_slug":"thanh_nhat","unit_type":"Phường","unit_type_en":"Ward","admin_level":2,"province_code":"66","province_name":"Đắk Lắk","province_full_name":"Tỉnh Đắk Lắk","province_slug":"dak_lak","join_key":"24154","status":"active","dataset_effective_date":"2026-04-30","catalog_version":"2026-07-12","geometry_status":"not_embedded_boundary_available_by_url","boundary_source_url":"https://raw.githubusercontent.com/thanglequoc/vietnamese-provinces-database/master/json/geojson/66_dak_lak/wards/24154_thanh_nhat.geojson","boundary_source_page":"https://github.com/thanglequoc/vietnamese-provinces-database/blob/master/json/geojson/66_dak_lak/wards/24154_thanh_nhat.geojson","source_catalog":"https://github.com/thanglequoc/vietnamese-provinces-database"},"geometry":null},{"type":"Feature","id":"24163","properties":{"commune_code":"24163","commune_name":"Tân An","commune_name_en":"Tan An","commune_full_name":"Phường Tân An","commune_full_name_en":"Tan An Ward","commune_slug":"tan_an","unit_type":"Phường","unit_type_en":"Ward","admin_level":2,"province_code":"66","province_name":"Đắk Lắk","province_full_name":"Tỉnh Đắk Lắk","province_slug":"dak_lak","join_key":"24163","status":"active","dataset_effective_date":"2026-04-30","catalog_version":"2026-07-12","geometry_status":"not_embedded_boundary_available_by_url","boundary_source_url":"https://raw.githubusercontent.com/thanglequoc/vietnamese-provinces-database/master/json/geojson/66_dak_lak/wards/24163_tan_an.geojson","boundary_source_page":"https://github.com/thanglequoc/vietnamese-provinces-database/blob/master/json/geojson/66_dak_lak/wards/24163_tan_an.geojson","source_catalog":"https://github.com/thanglequoc/vietnamese-provinces-database"},"geometry":null},{"type":"Feature","id":"24169","properties":{"commune_code":"24169","commune_name":"Ea Kao","commune_name_en":"Ea Kao","commune_full_name":"Phường Ea Kao","commune_full_name_en":"Ea Kao Ward","commune_slug":"ea_kao","unit_type":"Phường","unit_type_en":"Ward","admin_level":2,"province_code":"66","province_name":"Đắk Lắk","province_full_name":"Tỉnh Đắk Lắk","province_slug":"dak_lak","join_key":"24169","status":"active","dataset_effective_date":"2026-04-30","catalog_version":"2026-07-12","geometry_status":"not_embedded_boundary_available_by_url","boundary_source_url":"https://raw.githubusercontent.com/thanglequoc/vietnamese-provinces-database/master/json/geojson/66_dak_lak/wards/24169_ea_kao.geojson","boundary_source_page":"https://github.com/thanglequoc/vietnamese-provinces-database/blob/master/json/geojson/66_dak_lak/wards/24169_ea_kao.geojson","source_catalog":"https://github.com/thanglequoc/vietnamese-provinces-database"},"geometry":null},{"type":"Feature","id":"24175","properties":{"commune_code":"24175","commune_name":"Hoà Phú","commune_name_en":"Hoa Phu","commune_full_name":"Xã Hoà Phú","commune_full_name_en":"Hoa Phu Commune","commune_slug":"hoa_phu","unit_type":"Xã","unit_type_en":"Commune","admin_level":2,"province_code":"66","province_name":"Đắk Lắk","province_full_name":"Tỉnh Đắk Lắk","province_slug":"dak_lak","join_key":"24175","status":"active","dataset_effective_date":"2026-04-30","catalog_version":"2026-07-12","geometry_status":"not_embedded_boundary_available_by_url","boundary_source_url":"https://raw.githubusercontent.com/thanglequoc/vietnamese-provinces-database/master/json/geojson/66_dak_lak/wards/24175_hoa_phu.geojson","boundary_source_page":"https://github.com/thanglequoc/vietnamese-provinces-database/blob/master/json/geojson/66_dak_lak/wards/24175_hoa_phu.geojson","source_catalog":"https://github.com/thanglequoc/vietnamese-provinces-database"},"geometry":null},{"type":"Feature","id":"24181","properties":{"commune_code":"24181","commune_name":"Ea Drăng","commune_name_en":"Ea Drang","commune_full_name":"Xã Ea Drăng","commune_full_name_en":"Ea Drang Commune","commune_slug":"ea_drang","unit_type":"Xã","unit_type_en":"Commune","admin_level":2,"province_code":"66","province_name":"Đắk Lắk","province_full_name":"Tỉnh Đắk Lắk","province_slug":"dak_lak","join_key":"24181","status":"active","dataset_effective_date":"2026-04-30","catalog_version":"2026-07-12","geometry_status":"not_embedded_boundary_available_by_url","boundary_source_url":"https://raw.githubusercontent.com/thanglequoc/vietnamese-provinces-database/master/json/geojson/66_dak_lak/wards/24181_ea_drang.geojson","boundary_source_page":"https://github.com/thanglequoc/vietnamese-provinces-database/blob/master/json/geojson/66_dak_lak/wards/24181_ea_drang.geojson","source_catalog":"https://github.com/thanglequoc/vietnamese-provinces-database"},"geometry":null},{"type":"Feature","id":"24184","properties":{"commune_code":"24184","commune_name":"Ea H'Leo","commune_name_en":"Ea H'Leo","commune_full_name":"Xã Ea H'Leo","commune_full_name_en":"Ea H'Leo Commune","commune_slug":"ea_hleo","unit_type":"Xã","unit_type_en":"Commune","admin_level":2,"province_code":"66","province_name":"Đắk Lắk","province_full_name":"Tỉnh Đắk Lắk","province_slug":"dak_lak","join_key":"24184","status":"active","dataset_effective_date":"2026-04-30","catalog_version":"2026-07-12","geometry_status":"not_embedded_boundary_available_by_url","boundary_source_url":"https://raw.githubusercontent.com/thanglequoc/vietnamese-provinces-database/master/json/geojson/66_dak_lak/wards/24184_ea_hleo.geojson","boundary_source_page":"https://github.com/thanglequoc/vietnamese-provinces-database/blob/master/json/geojson/66_dak_lak/wards/24184_ea_hleo.geojson","source_catalog":"https://github.com/thanglequoc/vietnamese-provinces-database"},"geometry":null},{"type":"Feature","id":"24187","properties":{"commune_code":"24187","commune_name":"Ea Hiao","commune_name_en":"Ea Hiao","commune_full_name":"Xã Ea Hiao","commune_full_name_en":"Ea Hiao Commune","commune_slug":"ea_hiao","unit_type":"Xã","unit_type_en":"Commune","admin_level":2,"province_code":"66","province_name":"Đắk Lắk","province_full_name":"Tỉnh Đắk Lắk","province_slug":"dak_lak","join_key":"24187","status":"active","dataset_effective_date":"2026-04-30","catalog_version":"2026-07-12","geometry_status":"not_embedded_boundary_available_by_url","boundary_source_url":"https://raw.githubusercontent.com/thanglequoc/vietnamese-provinces-database/master/json/geojson/66_dak_lak/wards/24187_ea_hiao.geojson","boundary_source_page":"https://github.com/thanglequoc/vietnamese-provinces-database/blob/master/json/geojson/66_dak_lak/wards/24187_ea_hiao.geojson","source_catalog":"https://github.com/thanglequoc/vietnamese-provinces-database"},"geometry":null},{"type":"Feature","id":"24193","properties":{"commune_code":"24193","commune_name":"Ea Wy","commune_name_en":"Ea Wy","commune_full_name":"Xã Ea Wy","commune_full_name_en":"Ea Wy Commune","commune_slug":"ea_wy","unit_type":"Xã","unit_type_en":"Commune","admin_level":2,"province_code":"66","province_name":"Đắk Lắk","province_full_name":"Tỉnh Đắk Lắk","province_slug":"dak_lak","join_key":"24193","status":"active","dataset_effective_date":"2026-04-30","catalog_version":"2026-07-12","geometry_status":"not_embedded_boundary_available_by_url","boundary_source_url":"https://raw.githubusercontent.com/thanglequoc/vietnamese-provinces-database/master/json/geojson/66_dak_lak/wards/24193_ea_wy.geojson","boundary_source_page":"https://github.com/thanglequoc/vietnamese-provinces-database/blob/master/json/geojson/66_dak_lak/wards/24193_ea_wy.geojson","source_catalog":"https://github.com/thanglequoc/vietnamese-provinces-database"},"geometry":null},{"type":"Feature","id":"24208","properties":{"commune_code":"24208","commune_name":"Ea Khăl","commune_name_en":"Ea Khal","commune_full_name":"Xã Ea Khăl","commune_full_name_en":"Ea Khal Commune","commune_slug":"ea_khal","unit_type":"Xã","unit_type_en":"Commune","admin_level":2,"province_code":"66","province_name":"Đắk Lắk","province_full_name":"Tỉnh Đắk Lắk","province_slug":"dak_lak","join_key":"24208","status":"active","dataset_effective_date":"2026-04-30","catalog_version":"2026-07-12","geometry_status":"not_embedded_boundary_available_by_url","boundary_source_url":"https://raw.githubusercontent.com/thanglequoc/vietnamese-provinces-database/master/json/geojson/66_dak_lak/wards/24208_ea_khal.geojson","boundary_source_page":"https://github.com/thanglequoc/vietnamese-provinces-database/blob/master/json/geojson/66_dak_lak/wards/24208_ea_khal.geojson","source_catalog":"https://github.com/thanglequoc/vietnamese-provinces-database"},"geometry":null},{"type":"Feature","id":"24211","properties":{"commune_code":"24211","commune_name":"Ea Súp","commune_name_en":"Ea Sup","commune_full_name":"Xã Ea Súp","commune_full_name_en":"Ea Sup Commune","commune_slug":"ea_sup","unit_type":"Xã","unit_type_en":"Commune","admin_level":2,"province_code":"66","province_name":"Đắk Lắk","province_full_name":"Tỉnh Đắk Lắk","province_slug":"dak_lak","join_key":"24211","status":"active","dataset_effective_date":"2026-04-30","catalog_version":"2026-07-12","geometry_status":"not_embedded_boundary_available_by_url","boundary_source_url":"https://raw.githubusercontent.com/thanglequoc/vietnamese-provinces-database/master/json/geojson/66_dak_lak/wards/24211_ea_sup.geojson","boundary_source_page":"https://github.com/thanglequoc/vietnamese-provinces-database/blob/master/json/geojson/66_dak_lak/wards/24211_ea_sup.geojson","source_catalog":"https://github.com/thanglequoc/vietnamese-provinces-database"},"geometry":null},{"type":"Feature","id":"24214","properties":{"commune_code":"24214","commune_name":"Ia Lốp","commune_name_en":"Ia Lop","commune_full_name":"Xã Ia Lốp","commune_full_name_en":"Ia Lop Commune","commune_slug":"ia_lop","unit_type":"Xã","unit_type_en":"Commune","admin_level":2,"province_code":"66","province_name":"Đắk Lắk","province_full_name":"Tỉnh Đắk Lắk","province_slug":"dak_lak","join_key":"24214","status":"active","dataset_effective_date":"2026-04-30","catalog_version":"2026-07-12","geometry_status":"not_embedded_boundary_available_by_url","boundary_source_url":"https://raw.githubusercontent.com/thanglequoc/vietnamese-provinces-database/master/json/geojson/66_dak_lak/wards/24214_ia_lop.geojson","boundary_source_page":"https://github.com/thanglequoc/vietnamese-provinces-database/blob/master/json/geojson/66_dak_lak/wards/24214_ia_lop.geojson","source_catalog":"https://github.com/thanglequoc/vietnamese-provinces-database"},"geometry":null},{"type":"Feature","id":"24217","properties":{"commune_code":"24217","commune_name":"Ea Rốk","commune_name_en":"Ea Rok","commune_full_name":"Xã Ea Rốk","commune_full_name_en":"Ea Rok Commune","commune_slug":"ea_rok","unit_type":"Xã","unit_type_en":"Commune","admin_level":2,"province_code":"66","province_name":"Đắk Lắk","province_full_name":"Tỉnh Đắk Lắk","province_slug":"dak_lak","join_key":"24217","status":"active","dataset_effective_date":"2026-04-30","catalog_version":"2026-07-12","geometry_status":"not_embedded_boundary_available_by_url","boundary_source_url":"https://raw.githubusercontent.com/thanglequoc/vietnamese-provinces-database/master/json/geojson/66_dak_lak/wards/24217_ea_rok.geojson","boundary_source_page":"https://github.com/thanglequoc/vietnamese-provinces-database/blob/master/json/geojson/66_dak_lak/wards/24217_ea_rok.geojson","source_catalog":"https://github.com/thanglequoc/vietnamese-provinces-database"},"geometry":null},{"type":"Feature","id":"24221","properties":{"commune_code":"24221","commune_name":"Ia Rvê","commune_name_en":"Ia Rve","commune_full_name":"Xã Ia Rvê","commune_full_name_en":"Ia Rve Commune","commune_slug":"ia_rve","unit_type":"Xã","unit_type_en":"Commune","admin_level":2,"province_code":"66","province_name":"Đắk Lắk","province_full_name":"Tỉnh Đắk Lắk","province_slug":"dak_lak","join_key":"24221","status":"active","dataset_effective_date":"2026-04-30","catalog_version":"2026-07-12","geometry_status":"not_embedded_boundary_available_by_url","boundary_source_url":"https://raw.githubusercontent.com/thanglequoc/vietnamese-provinces-database/master/json/geojson/66_dak_lak/wards/24221_ia_rve.geojson","boundary_source_page":"https://github.com/thanglequoc/vietnamese-provinces-database/blob/master/json/geojson/66_dak_lak/wards/24221_ia_rve.geojson","source_catalog":"https://github.com/thanglequoc/vietnamese-provinces-database"},"geometry":null},{"type":"Feature","id":"24229","properties":{"commune_code":"24229","commune_name":"Ea Bung","commune_name_en":"Ea Bung","commune_full_name":"Xã Ea Bung","commune_full_name_en":"Ea Bung Commune","commune_slug":"ea_bung","unit_type":"Xã","unit_type_en":"Commune","admin_level":2,"province_code":"66","province_name":"Đắk Lắk","province_full_name":"Tỉnh Đắk Lắk","province_slug":"dak_lak","join_key":"24229","status":"active","dataset_effective_date":"2026-04-30","catalog_version":"2026-07-12","geometry_status":"not_embedded_boundary_available_by_url","boundary_source_url":"https://raw.githubusercontent.com/thanglequoc/vietnamese-provinces-database/master/json/geojson/66_dak_lak/wards/24229_ea_bung.geojson","boundary_source_page":"https://github.com/thanglequoc/vietnamese-provinces-database/blob/master/json/geojson/66_dak_lak/wards/24229_ea_bung.geojson","source_catalog":"https://github.com/thanglequoc/vietnamese-provinces-database"},"geometry":null},{"type":"Feature","id":"24235","properties":{"commune_code":"24235","commune_name":"Buôn Đôn","commune_name_en":"Buon Don","commune_full_name":"Xã Buôn Đôn","commune_full_name_en":"Buon Don Commune","commune_slug":"buon_don","unit_type":"Xã","unit_type_en":"Commune","admin_level":2,"province_code":"66","province_name":"Đắk Lắk","province_full_name":"Tỉnh Đắk Lắk","province_slug":"dak_lak","join_key":"24235","status":"active","dataset_effective_date":"2026-04-30","catalog_version":"2026-07-12","geometry_status":"not_embedded_boundary_available_by_url","boundary_source_url":"https://raw.githubusercontent.com/thanglequoc/vietnamese-provinces-database/master/json/geojson/66_dak_lak/wards/24235_buon_don.geojson","boundary_source_page":"https://github.com/thanglequoc/vietnamese-provinces-database/blob/master/json/geojson/66_dak_lak/wards/24235_buon_don.geojson","source_catalog":"https://github.com/thanglequoc/vietnamese-provinces-database"},"geometry":null},{"type":"Feature","id":"24241","properties":{"commune_code":"24241","commune_name":"Ea Wer","commune_name_en":"Ea Wer","commune_full_name":"Xã Ea Wer","commune_full_name_en":"Ea Wer Commune","commune_slug":"ea_wer","unit_type":"Xã","unit_type_en":"Commune","admin_level":2,"province_code":"66","province_name":"Đắk Lắk","province_full_name":"Tỉnh Đắk Lắk","province_slug":"dak_lak","join_key":"24241","status":"active","dataset_effective_date":"2026-04-30","catalog_version":"2026-07-12","geometry_status":"not_embedded_boundary_available_by_url","boundary_source_url":"https://raw.githubusercontent.com/thanglequoc/vietnamese-provinces-database/master/json/geojson/66_dak_lak/wards/24241_ea_wer.geojson","boundary_source_page":"https://github.com/thanglequoc/vietnamese-provinces-database/blob/master/json/geojson/66_dak_lak/wards/24241_ea_wer.geojson","source_catalog":"https://github.com/thanglequoc/vietnamese-provinces-database"},"geometry":null},{"type":"Feature","id":"24250","properties":{"commune_code":"24250","commune_name":"Ea Nuôl","commune_name_en":"Ea Nuol","commune_full_name":"Xã Ea Nuôl","commune_full_name_en":"Ea Nuol Commune","commune_slug":"ea_nuol","unit_type":"Xã","unit_type_en":"Commune","admin_level":2,"province_code":"66","province_name":"Đắk Lắk","province_full_name":"Tỉnh Đắk Lắk","province_slug":"dak_lak","join_key":"24250","status":"active","dataset_effective_date":"2026-04-30","catalog_version":"2026-07-12","geometry_status":"not_embedded_boundary_available_by_url","boundary_source_url":"https://raw.githubusercontent.com/thanglequoc/vietnamese-provinces-database/master/json/geojson/66_dak_lak/wards/24250_ea_nuol.geojson","boundary_source_page":"https://github.com/thanglequoc/vietnamese-provinces-database/blob/master/json/geojson/66_dak_lak/wards/24250_ea_nuol.geojson","source_catalog":"https://github.com/thanglequoc/vietnamese-provinces-database"},"geometry":null},{"type":"Feature","id":"24259","properties":{"commune_code":"24259","commune_name":"Quảng Phú","commune_name_en":"Quang Phu","commune_full_name":"Xã Quảng Phú","commune_full_name_en":"Quang Phu Commune","commune_slug":"quang_phu","unit_type":"Xã","unit_type_en":"Commune","admin_level":2,"province_code":"66","province_name":"Đắk Lắk","province_full_name":"Tỉnh Đắk Lắk","province_slug":"dak_lak","join_key":"24259","status":"active","dataset_effective_date":"2026-04-30","catalog_version":"2026-07-12","geometry_status":"not_embedded_boundary_available_by_url","boundary_source_url":"https://raw.githubusercontent.com/thanglequoc/vietnamese-provinces-database/master/json/geojson/66_dak_lak/wards/24259_quang_phu.geojson","boundary_source_page":"https://github.com/thanglequoc/vietnamese-provinces-database/blob/master/json/geojson/66_dak_lak/wards/24259_quang_phu.geojson","source_catalog":"https://github.com/thanglequoc/vietnamese-provinces-database"},"geometry":null},{"type":"Feature","id":"24265","properties":{"commune_code":"24265","commune_name":"Ea Kiết","commune_name_en":"Ea Kiet","commune_full_name":"Xã Ea Kiết","commune_full_name_en":"Ea Kiet Commune","commune_slug":"ea_kiet","unit_type":"Xã","unit_type_en":"Commune","admin_level":2,"province_code":"66","province_name":"Đắk Lắk","province_full_name":"Tỉnh Đắk Lắk","province_slug":"dak_lak","join_key":"24265","status":"active","dataset_effective_date":"2026-04-30","catalog_version":"2026-07-12","geometry_status":"not_embedded_boundary_available_by_url","boundary_source_url":"https://raw.githubusercontent.com/thanglequoc/vietnamese-provinces-database/master/json/geojson/66_dak_lak/wards/24265_ea_kiet.geojson","boundary_source_page":"https://github.com/thanglequoc/vietnamese-provinces-database/blob/master/json/geojson/66_dak_lak/wards/24265_ea_kiet.geojson","source_catalog":"https://github.com/thanglequoc/vietnamese-provinces-database"},"geometry":null},{"type":"Feature","id":"24277","properties":{"commune_code":"24277","commune_name":"Ea Tul","commune_name_en":"Ea Tul","commune_full_name":"Xã Ea Tul","commune_full_name_en":"Ea Tul Commune","commune_slug":"ea_tul","unit_type":"Xã","unit_type_en":"Commune","admin_level":2,"province_code":"66","province_name":"Đắk Lắk","province_full_name":"Tỉnh Đắk Lắk","province_slug":"dak_lak","join_key":"24277","status":"active","dataset_effective_date":"2026-04-30","catalog_version":"2026-07-12","geometry_status":"not_embedded_boundary_available_by_url","boundary_source_url":"https://raw.githubusercontent.com/thanglequoc/vietnamese-provinces-database/master/json/geojson/66_dak_lak/wards/24277_ea_tul.geojson","boundary_source_page":"https://github.com/thanglequoc/vietnamese-provinces-database/blob/master/json/geojson/66_dak_lak/wards/24277_ea_tul.geojson","source_catalog":"https://github.com/thanglequoc/vietnamese-provinces-database"},"geometry":null},{"type":"Feature","id":"24280","properties":{"commune_code":"24280","commune_name":"Cư M'gar","commune_name_en":"Cu M'gar","commune_full_name":"Xã Cư M'gar","commune_full_name_en":"Cu M'gar Commune","commune_slug":"cu_mgar","unit_type":"Xã","unit_type_en":"Commune","admin_level":2,"province_code":"66","province_name":"Đắk Lắk","province_full_name":"Tỉnh Đắk Lắk","province_slug":"dak_lak","join_key":"24280","status":"active","dataset_effective_date":"2026-04-30","catalog_version":"2026-07-12","geometry_status":"not_embedded_boundary_available_by_url","boundary_source_url":"https://raw.githubusercontent.com/thanglequoc/vietnamese-provinces-database/master/json/geojson/66_dak_lak/wards/24280_cu_mgar.geojson","boundary_source_page":"https://github.com/thanglequoc/vietnamese-provinces-database/blob/master/json/geojson/66_dak_lak/wards/24280_cu_mgar.geojson","source_catalog":"https://github.com/thanglequoc/vietnamese-provinces-database"},"geometry":null},{"type":"Feature","id":"24286","properties":{"commune_code":"24286","commune_name":"Ea M'Droh","commune_name_en":"Ea M'Droh","commune_full_name":"Xã Ea M'Droh","commune_full_name_en":"Ea M'Droh Commune","commune_slug":"ea_mdroh","unit_type":"Xã","unit_type_en":"Commune","admin_level":2,"province_code":"66","province_name":"Đắk Lắk","province_full_name":"Tỉnh Đắk Lắk","province_slug":"dak_lak","join_key":"24286","status":"active","dataset_effective_date":"2026-04-30","catalog_version":"2026-07-12","geometry_status":"not_embedded_boundary_available_by_url","boundary_source_url":"https://raw.githubusercontent.com/thanglequoc/vietnamese-provinces-database/master/json/geojson/66_dak_lak/wards/24286_ea_mdroh.geojson","boundary_source_page":"https://github.com/thanglequoc/vietnamese-provinces-database/blob/master/json/geojson/66_dak_lak/wards/24286_ea_mdroh.geojson","source_catalog":"https://github.com/thanglequoc/vietnamese-provinces-database"},"geometry":null},{"type":"Feature","id":"24301","properties":{"commune_code":"24301","commune_name":"Cuôr Đăng","commune_name_en":"Cuor Dang","commune_full_name":"Xã Cuôr Đăng","commune_full_name_en":"Cuor Dang Commune","commune_slug":"cuor_dang","unit_type":"Xã","unit_type_en":"Commune","admin_level":2,"province_code":"66","province_name":"Đắk Lắk","province_full_name":"Tỉnh Đắk Lắk","province_slug":"dak_lak","join_key":"24301","status":"active","dataset_effective_date":"2026-04-30","catalog_version":"2026-07-12","geometry_status":"not_embedded_boundary_available_by_url","boundary_source_url":"https://raw.githubusercontent.com/thanglequoc/vietnamese-provinces-database/master/json/geojson/66_dak_lak/wards/24301_cuor_dang.geojson","boundary_source_page":"https://github.com/thanglequoc/vietnamese-provinces-database/blob/master/json/geojson/66_dak_lak/wards/24301_cuor_dang.geojson","source_catalog":"https://github.com/thanglequoc/vietnamese-provinces-database"},"geometry":null},{"type":"Feature","id":"24305","properties":{"commune_code":"24305","commune_name":"Buôn Hồ","commune_name_en":"Buon Ho","commune_full_name":"Phường Buôn Hồ","commune_full_name_en":"Buon Ho Ward","commune_slug":"buon_ho","unit_type":"Phường","unit_type_en":"Ward","admin_level":2,"province_code":"66","province_name":"Đắk Lắk","province_full_name":"Tỉnh Đắk Lắk","province_slug":"dak_lak","join_key":"24305","status":"active","dataset_effective_date":"2026-04-30","catalog_version":"2026-07-12","geometry_status":"not_embedded_boundary_available_by_url","boundary_source_url":"https://raw.githubusercontent.com/thanglequoc/vietnamese-provinces-database/master/json/geojson/66_dak_lak/wards/24305_buon_ho.geojson","boundary_source_page":"https://github.com/thanglequoc/vietnamese-provinces-database/blob/master/json/geojson/66_dak_lak/wards/24305_buon_ho.geojson","source_catalog":"https://github.com/thanglequoc/vietnamese-provinces-database"},"geometry":null},{"type":"Feature","id":"24310","properties":{"commune_code":"24310","commune_name":"Krông Búk","commune_name_en":"Krong Buk","commune_full_name":"Xã Krông Búk","commune_full_name_en":"Krong Buk Commune","commune_slug":"krong_buk","unit_type":"Xã","unit_type_en":"Commune","admin_level":2,"province_code":"66","province_name":"Đắk Lắk","province_full_name":"Tỉnh Đắk Lắk","province_slug":"dak_lak","join_key":"24310","status":"active","dataset_effective_date":"2026-04-30","catalog_version":"2026-07-12","geometry_status":"not_embedded_boundary_available_by_url","boundary_source_url":"https://raw.githubusercontent.com/thanglequoc/vietnamese-provinces-database/master/json/geojson/66_dak_lak/wards/24310_krong_buk.geojson","boundary_source_page":"https://github.com/thanglequoc/vietnamese-provinces-database/blob/master/json/geojson/66_dak_lak/wards/24310_krong_buk.geojson","source_catalog":"https://github.com/thanglequoc/vietnamese-provinces-database"},"geometry":null},{"type":"Feature","id":"24313","properties":{"commune_code":"24313","commune_name":"Cư Pơng","commune_name_en":"Cu Pong","commune_full_name":"Xã Cư Pơng","commune_full_name_en":"Cu Pong Commune","commune_slug":"cu_pong","unit_type":"Xã","unit_type_en":"Commune","admin_level":2,"province_code":"66","province_name":"Đắk Lắk","province_full_name":"Tỉnh Đắk Lắk","province_slug":"dak_lak","join_key":"24313","status":"active","dataset_effective_date":"2026-04-30","catalog_version":"2026-07-12","geometry_status":"not_embedded_boundary_available_by_url","boundary_source_url":"https://raw.githubusercontent.com/thanglequoc/vietnamese-provinces-database/master/json/geojson/66_dak_lak/wards/24313_cu_pong.geojson","boundary_source_page":"https://github.com/thanglequoc/vietnamese-provinces-database/blob/master/json/geojson/66_dak_lak/wards/24313_cu_pong.geojson","source_catalog":"https://github.com/thanglequoc/vietnamese-provinces-database"},"geometry":null},{"type":"Feature","id":"24316","properties":{"commune_code":"24316","commune_name":"Pơng Drang","commune_name_en":"Pong Drang","commune_full_name":"Xã Pơng Drang","commune_full_name_en":"Pong Drang Commune","commune_slug":"pong_drang","unit_type":"Xã","unit_type_en":"Commune","admin_level":2,"province_code":"66","province_name":"Đắk Lắk","province_full_name":"Tỉnh Đắk Lắk","province_slug":"dak_lak","join_key":"24316","status":"active","dataset_effective_date":"2026-04-30","catalog_version":"2026-07-12","geometry_status":"not_embedded_boundary_available_by_url","boundary_source_url":"https://raw.githubusercontent.com/thanglequoc/vietnamese-provinces-database/master/json/geojson/66_dak_lak/wards/24316_pong_drang.geojson","boundary_source_page":"https://github.com/thanglequoc/vietnamese-provinces-database/blob/master/json/geojson/66_dak_lak/wards/24316_pong_drang.geojson","source_catalog":"https://github.com/thanglequoc/vietnamese-provinces-database"},"geometry":null},{"type":"Feature","id":"24328","properties":{"commune_code":"24328","commune_name":"Ea Drông","commune_name_en":"Ea Drong","commune_full_name":"Xã Ea Drông","commune_full_name_en":"Ea Drong Commune","commune_slug":"ea_drong","unit_type":"Xã","unit_type_en":"Commune","admin_level":2,"province_code":"66","province_name":"Đắk Lắk","province_full_name":"Tỉnh Đắk Lắk","province_slug":"dak_lak","join_key":"24328","status":"active","dataset_effective_date":"2026-04-30","catalog_version":"2026-07-12","geometry_status":"not_embedded_boundary_available_by_url","boundary_source_url":"https://raw.githubusercontent.com/thanglequoc/vietnamese-provinces-database/master/json/geojson/66_dak_lak/wards/24328_ea_drong.geojson","boundary_source_page":"https://github.com/thanglequoc/vietnamese-provinces-database/blob/master/json/geojson/66_dak_lak/wards/24328_ea_drong.geojson","source_catalog":"https://github.com/thanglequoc/vietnamese-provinces-database"},"geometry":null},{"type":"Feature","id":"24340","properties":{"commune_code":"24340","commune_name":"Cư Bao","commune_name_en":"Cu Bao","commune_full_name":"Phường Cư Bao","commune_full_name_en":"Cu Bao Ward","commune_slug":"cu_bao","unit_type":"Phường","unit_type_en":"Ward","admin_level":2,"province_code":"66","province_name":"Đắk Lắk","province_full_name":"Tỉnh Đắk Lắk","province_slug":"dak_lak","join_key":"24340","status":"active","dataset_effective_date":"2026-04-30","catalog_version":"2026-07-12","geometry_status":"not_embedded_boundary_available_by_url","boundary_source_url":"https://raw.githubusercontent.com/thanglequoc/vietnamese-provinces-database/master/json/geojson/66_dak_lak/wards/24340_cu_bao.geojson","boundary_source_page":"https://github.com/thanglequoc/vietnamese-provinces-database/blob/master/json/geojson/66_dak_lak/wards/24340_cu_bao.geojson","source_catalog":"https://github.com/thanglequoc/vietnamese-provinces-database"},"geometry":null},{"type":"Feature","id":"24343","properties":{"commune_code":"24343","commune_name":"Krông Năng","commune_name_en":"Krong Nang","commune_full_name":"Xã Krông Năng","commune_full_name_en":"Krong Nang Commune","commune_slug":"krong_nang","unit_type":"Xã","unit_type_en":"Commune","admin_level":2,"province_code":"66","province_name":"Đắk Lắk","province_full_name":"Tỉnh Đắk Lắk","province_slug":"dak_lak","join_key":"24343","status":"active","dataset_effective_date":"2026-04-30","catalog_version":"2026-07-12","geometry_status":"not_embedded_boundary_available_by_url","boundary_source_url":"https://raw.githubusercontent.com/thanglequoc/vietnamese-provinces-database/master/json/geojson/66_dak_lak/wards/24343_krong_nang.geojson","boundary_source_page":"https://github.com/thanglequoc/vietnamese-provinces-database/blob/master/json/geojson/66_dak_lak/wards/24343_krong_nang.geojson","source_catalog":"https://github.com/thanglequoc/vietnamese-provinces-database"},"geometry":null},{"type":"Feature","id":"24346","properties":{"commune_code":"24346","commune_name":"Dliê Ya","commune_name_en":"Dlie Ya","commune_full_name":"Xã Dliê Ya","commune_full_name_en":"Dlie Ya Commune","commune_slug":"dlie_ya","unit_type":"Xã","unit_type_en":"Commune","admin_level":2,"province_code":"66","province_name":"Đắk Lắk","province_full_name":"Tỉnh Đắk Lắk","province_slug":"dak_lak","join_key":"24346","status":"active","dataset_effective_date":"2026-04-30","catalog_version":"2026-07-12","geometry_status":"not_embedded_boundary_available_by_url","boundary_source_url":"https://raw.githubusercontent.com/thanglequoc/vietnamese-provinces-database/master/json/geojson/66_dak_lak/wards/24346_dlie_ya.geojson","boundary_source_page":"https://github.com/thanglequoc/vietnamese-provinces-database/blob/master/json/geojson/66_dak_lak/wards/24346_dlie_ya.geojson","source_catalog":"https://github.com/thanglequoc/vietnamese-provinces-database"},"geometry":null},{"type":"Feature","id":"24352","properties":{"commune_code":"24352","commune_name":"Tam Giang","commune_name_en":"Tam Giang","commune_full_name":"Xã Tam Giang","commune_full_name_en":"Tam Giang Commune","commune_slug":"tam_giang","unit_type":"Xã","unit_type_en":"Commune","admin_level":2,"province_code":"66","province_name":"Đắk Lắk","province_full_name":"Tỉnh Đắk Lắk","province_slug":"dak_lak","join_key":"24352","status":"active","dataset_effective_date":"2026-04-30","catalog_version":"2026-07-12","geometry_status":"not_embedded_boundary_available_by_url","boundary_source_url":"https://raw.githubusercontent.com/thanglequoc/vietnamese-provinces-database/master/json/geojson/66_dak_lak/wards/24352_tam_giang.geojson","boundary_source_page":"https://github.com/thanglequoc/vietnamese-provinces-database/blob/master/json/geojson/66_dak_lak/wards/24352_tam_giang.geojson","source_catalog":"https://github.com/thanglequoc/vietnamese-provinces-database"},"geometry":null},{"type":"Feature","id":"24364","properties":{"commune_code":"24364","commune_name":"Phú Xuân","commune_name_en":"Phu Xuan","commune_full_name":"Xã Phú Xuân","commune_full_name_en":"Phu Xuan Commune","commune_slug":"phu_xuan","unit_type":"Xã","unit_type_en":"Commune","admin_level":2,"province_code":"66","province_name":"Đắk Lắk","province_full_name":"Tỉnh Đắk Lắk","province_slug":"dak_lak","join_key":"24364","status":"active","dataset_effective_date":"2026-04-30","catalog_version":"2026-07-12","geometry_status":"not_embedded_boundary_available_by_url","boundary_source_url":"https://raw.githubusercontent.com/thanglequoc/vietnamese-provinces-database/master/json/geojson/66_dak_lak/wards/24364_phu_xuan.geojson","boundary_source_page":"https://github.com/thanglequoc/vietnamese-provinces-database/blob/master/json/geojson/66_dak_lak/wards/24364_phu_xuan.geojson","source_catalog":"https://github.com/thanglequoc/vietnamese-provinces-database"},"geometry":null},{"type":"Feature","id":"24373","properties":{"commune_code":"24373","commune_name":"Ea Kar","commune_name_en":"Ea Kar","commune_full_name":"Xã Ea Kar","commune_full_name_en":"Ea Kar Commune","commune_slug":"ea_kar","unit_type":"Xã","unit_type_en":"Commune","admin_level":2,"province_code":"66","province_name":"Đắk Lắk","province_full_name":"Tỉnh Đắk Lắk","province_slug":"dak_lak","join_key":"24373","status":"active","dataset_effective_date":"2026-04-30","catalog_version":"2026-07-12","geometry_status":"not_embedded_boundary_available_by_url","boundary_source_url":"https://raw.githubusercontent.com/thanglequoc/vietnamese-provinces-database/master/json/geojson/66_dak_lak/wards/24373_ea_kar.geojson","boundary_source_page":"https://github.com/thanglequoc/vietnamese-provinces-database/blob/master/json/geojson/66_dak_lak/wards/24373_ea_kar.geojson","source_catalog":"https://github.com/thanglequoc/vietnamese-provinces-database"},"geometry":null},{"type":"Feature","id":"24376","properties":{"commune_code":"24376","commune_name":"Ea Knốp","commune_name_en":"Ea Knop","commune_full_name":"Xã Ea Knốp","commune_full_name_en":"Ea Knop Commune","commune_slug":"ea_knop","unit_type":"Xã","unit_type_en":"Commune","admin_level":2,"province_code":"66","province_name":"Đắk Lắk","province_full_name":"Tỉnh Đắk Lắk","province_slug":"dak_lak","join_key":"24376","status":"active","dataset_effective_date":"2026-04-30","catalog_version":"2026-07-12","geometry_status":"not_embedded_boundary_available_by_url","boundary_source_url":"https://raw.githubusercontent.com/thanglequoc/vietnamese-provinces-database/master/json/geojson/66_dak_lak/wards/24376_ea_knop.geojson","boundary_source_page":"https://github.com/thanglequoc/vietnamese-provinces-database/blob/master/json/geojson/66_dak_lak/wards/24376_ea_knop.geojson","source_catalog":"https://github.com/thanglequoc/vietnamese-provinces-database"},"geometry":null},{"type":"Feature","id":"24400","properties":{"commune_code":"24400","commune_name":"Ea Păl","commune_name_en":"Ea Pal","commune_full_name":"Xã Ea Păl","commune_full_name_en":"Ea Pal Commune","commune_slug":"ea_pal","unit_type":"Xã","unit_type_en":"Commune","admin_level":2,"province_code":"66","province_name":"Đắk Lắk","province_full_name":"Tỉnh Đắk Lắk","province_slug":"dak_lak","join_key":"24400","status":"active","dataset_effective_date":"2026-04-30","catalog_version":"2026-07-12","geometry_status":"not_embedded_boundary_available_by_url","boundary_source_url":"https://raw.githubusercontent.com/thanglequoc/vietnamese-provinces-database/master/json/geojson/66_dak_lak/wards/24400_ea_pal.geojson","boundary_source_page":"https://github.com/thanglequoc/vietnamese-provinces-database/blob/master/json/geojson/66_dak_lak/wards/24400_ea_pal.geojson","source_catalog":"https://github.com/thanglequoc/vietnamese-provinces-database"},"geometry":null},{"type":"Feature","id":"24403","properties":{"commune_code":"24403","commune_name":"Ea Ô","commune_name_en":"Ea O","commune_full_name":"Xã Ea Ô","commune_full_name_en":"Ea O Commune","commune_slug":"ea_o","unit_type":"Xã","unit_type_en":"Commune","admin_level":2,"province_code":"66","province_name":"Đắk Lắk","province_full_name":"Tỉnh Đắk Lắk","province_slug":"dak_lak","join_key":"24403","status":"active","dataset_effective_date":"2026-04-30","catalog_version":"2026-07-12","geometry_status":"not_embedded_boundary_available_by_url","boundary_source_url":"https://raw.githubusercontent.com/thanglequoc/vietnamese-provinces-database/master/json/geojson/66_dak_lak/wards/24403_ea_o.geojson","boundary_source_page":"https://github.com/thanglequoc/vietnamese-provinces-database/blob/master/json/geojson/66_dak_lak/wards/24403_ea_o.geojson","source_catalog":"https://github.com/thanglequoc/vietnamese-provinces-database"},"geometry":null},{"type":"Feature","id":"24406","properties":{"commune_code":"24406","commune_name":"Cư Yang","commune_name_en":"Cu Yang","commune_full_name":"Xã Cư Yang","commune_full_name_en":"Cu Yang Commune","commune_slug":"cu_yang","unit_type":"Xã","unit_type_en":"Commune","admin_level":2,"province_code":"66","province_name":"Đắk Lắk","province_full_name":"Tỉnh Đắk Lắk","province_slug":"dak_lak","join_key":"24406","status":"active","dataset_effective_date":"2026-04-30","catalog_version":"2026-07-12","geometry_status":"not_embedded_boundary_available_by_url","boundary_source_url":"https://raw.githubusercontent.com/thanglequoc/vietnamese-provinces-database/master/json/geojson/66_dak_lak/wards/24406_cu_yang.geojson","boundary_source_page":"https://github.com/thanglequoc/vietnamese-provinces-database/blob/master/json/geojson/66_dak_lak/wards/24406_cu_yang.geojson","source_catalog":"https://github.com/thanglequoc/vietnamese-provinces-database"},"geometry":null},{"type":"Feature","id":"24412","properties":{"commune_code":"24412","commune_name":"M'Drắk","commune_name_en":"M'Drak","commune_full_name":"Xã M'Drắk","commune_full_name_en":"M'Drak Commune","commune_slug":"mdrak","unit_type":"Xã","unit_type_en":"Commune","admin_level":2,"province_code":"66","province_name":"Đắk Lắk","province_full_name":"Tỉnh Đắk Lắk","province_slug":"dak_lak","join_key":"24412","status":"active","dataset_effective_date":"2026-04-30","catalog_version":"2026-07-12","geometry_status":"not_embedded_boundary_available_by_url","boundary_source_url":"https://raw.githubusercontent.com/thanglequoc/vietnamese-provinces-database/master/json/geojson/66_dak_lak/wards/24412_mdrak.geojson","boundary_source_page":"https://github.com/thanglequoc/vietnamese-provinces-database/blob/master/json/geojson/66_dak_lak/wards/24412_mdrak.geojson","source_catalog":"https://github.com/thanglequoc/vietnamese-provinces-database"},"geometry":null},{"type":"Feature","id":"24415","properties":{"commune_code":"24415","commune_name":"Cư Prao","commune_name_en":"Cu Prao","commune_full_name":"Xã Cư Prao","commune_full_name_en":"Cu Prao Commune","commune_slug":"cu_prao","unit_type":"Xã","unit_type_en":"Commune","admin_level":2,"province_code":"66","province_name":"Đắk Lắk","province_full_name":"Tỉnh Đắk Lắk","province_slug":"dak_lak","join_key":"24415","status":"active","dataset_effective_date":"2026-04-30","catalog_version":"2026-07-12","geometry_status":"not_embedded_boundary_available_by_url","boundary_source_url":"https://raw.githubusercontent.com/thanglequoc/vietnamese-provinces-database/master/json/geojson/66_dak_lak/wards/24415_cu_prao.geojson","boundary_source_page":"https://github.com/thanglequoc/vietnamese-provinces-database/blob/master/json/geojson/66_dak_lak/wards/24415_cu_prao.geojson","source_catalog":"https://github.com/thanglequoc/vietnamese-provinces-database"},"geometry":null},{"type":"Feature","id":"24433","properties":{"commune_code":"24433","commune_name":"Ea Riêng","commune_name_en":"Ea Rieng","commune_full_name":"Xã Ea Riêng","commune_full_name_en":"Ea Rieng Commune","commune_slug":"ea_rieng","unit_type":"Xã","unit_type_en":"Commune","admin_level":2,"province_code":"66","province_name":"Đắk Lắk","province_full_name":"Tỉnh Đắk Lắk","province_slug":"dak_lak","join_key":"24433","status":"active","dataset_effective_date":"2026-04-30","catalog_version":"2026-07-12","geometry_status":"not_embedded_boundary_available_by_url","boundary_source_url":"https://raw.githubusercontent.com/thanglequoc/vietnamese-provinces-database/master/json/geojson/66_dak_lak/wards/24433_ea_rieng.geojson","boundary_source_page":"https://github.com/thanglequoc/vietnamese-provinces-database/blob/master/json/geojson/66_dak_lak/wards/24433_ea_rieng.geojson","source_catalog":"https://github.com/thanglequoc/vietnamese-provinces-database"},"geometry":null},{"type":"Feature","id":"24436","properties":{"commune_code":"24436","commune_name":"Cư M'ta","commune_name_en":"Cu M'ta","commune_full_name":"Xã Cư M'ta","commune_full_name_en":"Cu M'ta Commune","commune_slug":"cu_mta","unit_type":"Xã","unit_type_en":"Commune","admin_level":2,"province_code":"66","province_name":"Đắk Lắk","province_full_name":"Tỉnh Đắk Lắk","province_slug":"dak_lak","join_key":"24436","status":"active","dataset_effective_date":"2026-04-30","catalog_version":"2026-07-12","geometry_status":"not_embedded_boundary_available_by_url","boundary_source_url":"https://raw.githubusercontent.com/thanglequoc/vietnamese-provinces-database/master/json/geojson/66_dak_lak/wards/24436_cu_mta.geojson","boundary_source_page":"https://github.com/thanglequoc/vietnamese-provinces-database/blob/master/json/geojson/66_dak_lak/wards/24436_cu_mta.geojson","source_catalog":"https://github.com/thanglequoc/vietnamese-provinces-database"},"geometry":null},{"type":"Feature","id":"24444","properties":{"commune_code":"24444","commune_name":"Krông Á","commune_name_en":"Krong A","commune_full_name":"Xã Krông Á","commune_full_name_en":"Krong A Commune","commune_slug":"krong_a","unit_type":"Xã","unit_type_en":"Commune","admin_level":2,"province_code":"66","province_name":"Đắk Lắk","province_full_name":"Tỉnh Đắk Lắk","province_slug":"dak_lak","join_key":"24444","status":"active","dataset_effective_date":"2026-04-30","catalog_version":"2026-07-12","geometry_status":"not_embedded_boundary_available_by_url","boundary_source_url":"https://raw.githubusercontent.com/thanglequoc/vietnamese-provinces-database/master/json/geojson/66_dak_lak/wards/24444_krong_a.geojson","boundary_source_page":"https://github.com/thanglequoc/vietnamese-provinces-database/blob/master/json/geojson/66_dak_lak/wards/24444_krong_a.geojson","source_catalog":"https://github.com/thanglequoc/vietnamese-provinces-database"},"geometry":null},{"type":"Feature","id":"24445","properties":{"commune_code":"24445","commune_name":"Ea Trang","commune_name_en":"Ea Trang","commune_full_name":"Xã Ea Trang","commune_full_name_en":"Ea Trang Commune","commune_slug":"ea_trang","unit_type":"Xã","unit_type_en":"Commune","admin_level":2,"province_code":"66","province_name":"Đắk Lắk","province_full_name":"Tỉnh Đắk Lắk","province_slug":"dak_lak","join_key":"24445","status":"active","dataset_effective_date":"2026-04-30","catalog_version":"2026-07-12","geometry_status":"not_embedded_boundary_available_by_url","boundary_source_url":"https://raw.githubusercontent.com/thanglequoc/vietnamese-provinces-database/master/json/geojson/66_dak_lak/wards/24445_ea_trang.geojson","boundary_source_page":"https://github.com/thanglequoc/vietnamese-provinces-database/blob/master/json/geojson/66_dak_lak/wards/24445_ea_trang.geojson","source_catalog":"https://github.com/thanglequoc/vietnamese-provinces-database"},"geometry":null},{"type":"Feature","id":"24448","properties":{"commune_code":"24448","commune_name":"Krông Bông","commune_name_en":"Krong Bong","commune_full_name":"Xã Krông Bông","commune_full_name_en":"Krong Bong Commune","commune_slug":"krong_bong","unit_type":"Xã","unit_type_en":"Commune","admin_level":2,"province_code":"66","province_name":"Đắk Lắk","province_full_name":"Tỉnh Đắk Lắk","province_slug":"dak_lak","join_key":"24448","status":"active","dataset_effective_date":"2026-04-30","catalog_version":"2026-07-12","geometry_status":"not_embedded_boundary_available_by_url","boundary_source_url":"https://raw.githubusercontent.com/thanglequoc/vietnamese-provinces-database/master/json/geojson/66_dak_lak/wards/24448_krong_bong.geojson","boundary_source_page":"https://github.com/thanglequoc/vietnamese-provinces-database/blob/master/json/geojson/66_dak_lak/wards/24448_krong_bong.geojson","source_catalog":"https://github.com/thanglequoc/vietnamese-provinces-database"},"geometry":null},{"type":"Feature","id":"24454","properties":{"commune_code":"24454","commune_name":"Dang Kang","commune_name_en":"Dang Kang","commune_full_name":"Xã Dang Kang","commune_full_name_en":"Dang Kang Commune","commune_slug":"dang_kang","unit_type":"Xã","unit_type_en":"Commune","admin_level":2,"province_code":"66","province_name":"Đắk Lắk","province_full_name":"Tỉnh Đắk Lắk","province_slug":"dak_lak","join_key":"24454","status":"active","dataset_effective_date":"2026-04-30","catalog_version":"2026-07-12","geometry_status":"not_embedded_boundary_available_by_url","boundary_source_url":"https://raw.githubusercontent.com/thanglequoc/vietnamese-provinces-database/master/json/geojson/66_dak_lak/wards/24454_dang_kang.geojson","boundary_source_page":"https://github.com/thanglequoc/vietnamese-provinces-database/blob/master/json/geojson/66_dak_lak/wards/24454_dang_kang.geojson","source_catalog":"https://github.com/thanglequoc/vietnamese-provinces-database"},"geometry":null},{"type":"Feature","id":"24472","properties":{"commune_code":"24472","commune_name":"Hoà Sơn","commune_name_en":"Hoa Son","commune_full_name":"Xã Hoà Sơn","commune_full_name_en":"Hoa Son Commune","commune_slug":"hoa_son","unit_type":"Xã","unit_type_en":"Commune","admin_level":2,"province_code":"66","province_name":"Đắk Lắk","province_full_name":"Tỉnh Đắk Lắk","province_slug":"dak_lak","join_key":"24472","status":"active","dataset_effective_date":"2026-04-30","catalog_version":"2026-07-12","geometry_status":"not_embedded_boundary_available_by_url","boundary_source_url":"https://raw.githubusercontent.com/thanglequoc/vietnamese-provinces-database/master/json/geojson/66_dak_lak/wards/24472_hoa_son.geojson","boundary_source_page":"https://github.com/thanglequoc/vietnamese-provinces-database/blob/master/json/geojson/66_dak_lak/wards/24472_hoa_son.geojson","source_catalog":"https://github.com/thanglequoc/vietnamese-provinces-database"},"geometry":null},{"type":"Feature","id":"24478","properties":{"commune_code":"24478","commune_name":"Cư Pui","commune_name_en":"Cu Pui","commune_full_name":"Xã Cư Pui","commune_full_name_en":"Cu Pui Commune","commune_slug":"cu_pui","unit_type":"Xã","unit_type_en":"Commune","admin_level":2,"province_code":"66","province_name":"Đắk Lắk","province_full_name":"Tỉnh Đắk Lắk","province_slug":"dak_lak","join_key":"24478","status":"active","dataset_effective_date":"2026-04-30","catalog_version":"2026-07-12","geometry_status":"not_embedded_boundary_available_by_url","boundary_source_url":"https://raw.githubusercontent.com/thanglequoc/vietnamese-provinces-database/master/json/geojson/66_dak_lak/wards/24478_cu_pui.geojson","boundary_source_page":"https://github.com/thanglequoc/vietnamese-provinces-database/blob/master/json/geojson/66_dak_lak/wards/24478_cu_pui.geojson","source_catalog":"https://github.com/thanglequoc/vietnamese-provinces-database"},"geometry":null},{"type":"Feature","id":"24484","properties":{"commune_code":"24484","commune_name":"Yang Mao","commune_name_en":"Yang Mao","commune_full_name":"Xã Yang Mao","commune_full_name_en":"Yang Mao Commune","commune_slug":"yang_mao","unit_type":"Xã","unit_type_en":"Commune","admin_level":2,"province_code":"66","province_name":"Đắk Lắk","province_full_name":"Tỉnh Đắk Lắk","province_slug":"dak_lak","join_key":"24484","status":"active","dataset_effective_date":"2026-04-30","catalog_version":"2026-07-12","geometry_status":"not_embedded_boundary_available_by_url","boundary_source_url":"https://raw.githubusercontent.com/thanglequoc/vietnamese-provinces-database/master/json/geojson/66_dak_lak/wards/24484_yang_mao.geojson","boundary_source_page":"https://github.com/thanglequoc/vietnamese-provinces-database/blob/master/json/geojson/66_dak_lak/wards/24484_yang_mao.geojson","source_catalog":"https://github.com/thanglequoc/vietnamese-provinces-database"},"geometry":null},{"type":"Feature","id":"24490","properties":{"commune_code":"24490","commune_name":"Krông Pắc","commune_name_en":"Krong Pac","commune_full_name":"Xã Krông Pắc","commune_full_name_en":"Krong Pac Commune","commune_slug":"krong_pac","unit_type":"Xã","unit_type_en":"Commune","admin_level":2,"province_code":"66","province_name":"Đắk Lắk","province_full_name":"Tỉnh Đắk Lắk","province_slug":"dak_lak","join_key":"24490","status":"active","dataset_effective_date":"2026-04-30","catalog_version":"2026-07-12","geometry_status":"not_embedded_boundary_available_by_url","boundary_source_url":"https://raw.githubusercontent.com/thanglequoc/vietnamese-provinces-database/master/json/geojson/66_dak_lak/wards/24490_krong_pac.geojson","boundary_source_page":"https://github.com/thanglequoc/vietnamese-provinces-database/blob/master/json/geojson/66_dak_lak/wards/24490_krong_pac.geojson","source_catalog":"https://github.com/thanglequoc/vietnamese-provinces-database"},"geometry":null},{"type":"Feature","id":"24496","properties":{"commune_code":"24496","commune_name":"Ea Kly","commune_name_en":"Ea Kly","commune_full_name":"Xã Ea Kly","commune_full_name_en":"Ea Kly Commune","commune_slug":"ea_kly","unit_type":"Xã","unit_type_en":"Commune","admin_level":2,"province_code":"66","province_name":"Đắk Lắk","province_full_name":"Tỉnh Đắk Lắk","province_slug":"dak_lak","join_key":"24496","status":"active","dataset_effective_date":"2026-04-30","catalog_version":"2026-07-12","geometry_status":"not_embedded_boundary_available_by_url","boundary_source_url":"https://raw.githubusercontent.com/thanglequoc/vietnamese-provinces-database/master/json/geojson/66_dak_lak/wards/24496_ea_kly.geojson","boundary_source_page":"https://github.com/thanglequoc/vietnamese-provinces-database/blob/master/json/geojson/66_dak_lak/wards/24496_ea_kly.geojson","source_catalog":"https://github.com/thanglequoc/vietnamese-provinces-database"},"geometry":null},{"type":"Feature","id":"24502","properties":{"commune_code":"24502","commune_name":"Ea Phê","commune_name_en":"Ea Phe","commune_full_name":"Xã Ea Phê","commune_full_name_en":"Ea Phe Commune","commune_slug":"ea_phe","unit_type":"Xã","unit_type_en":"Commune","admin_level":2,"province_code":"66","province_name":"Đắk Lắk","province_full_name":"Tỉnh Đắk Lắk","province_slug":"dak_lak","join_key":"24502","status":"active","dataset_effective_date":"2026-04-30","catalog_version":"2026-07-12","geometry_status":"not_embedded_boundary_available_by_url","boundary_source_url":"https://raw.githubusercontent.com/thanglequoc/vietnamese-provinces-database/master/json/geojson/66_dak_lak/wards/24502_ea_phe.geojson","boundary_source_page":"https://github.com/thanglequoc/vietnamese-provinces-database/blob/master/json/geojson/66_dak_lak/wards/24502_ea_phe.geojson","source_catalog":"https://github.com/thanglequoc/vietnamese-provinces-database"},"geometry":null},{"type":"Feature","id":"24505","properties":{"commune_code":"24505","commune_name":"Ea Knuếc","commune_name_en":"Ea Knuec","commune_full_name":"Xã Ea Knuếc","commune_full_name_en":"Ea Knuec Commune","commune_slug":"ea_knuec","unit_type":"Xã","unit_type_en":"Commune","admin_level":2,"province_code":"66","province_name":"Đắk Lắk","province_full_name":"Tỉnh Đắk Lắk","province_slug":"dak_lak","join_key":"24505","status":"active","dataset_effective_date":"2026-04-30","catalog_version":"2026-07-12","geometry_status":"not_embedded_boundary_available_by_url","boundary_source_url":"https://raw.githubusercontent.com/thanglequoc/vietnamese-provinces-database/master/json/geojson/66_dak_lak/wards/24505_ea_knuec.geojson","boundary_source_page":"https://github.com/thanglequoc/vietnamese-provinces-database/blob/master/json/geojson/66_dak_lak/wards/24505_ea_knuec.geojson","source_catalog":"https://github.com/thanglequoc/vietnamese-provinces-database"},"geometry":null},{"type":"Feature","id":"24526","properties":{"commune_code":"24526","commune_name":"Tân Tiến","commune_name_en":"Tan Tien","commune_full_name":"Xã Tân Tiến","commune_full_name_en":"Tan Tien Commune","commune_slug":"tan_tien","unit_type":"Xã","unit_type_en":"Commune","admin_level":2,"province_code":"66","province_name":"Đắk Lắk","province_full_name":"Tỉnh Đắk Lắk","province_slug":"dak_lak","join_key":"24526","status":"active","dataset_effective_date":"2026-04-30","catalog_version":"2026-07-12","geometry_status":"not_embedded_boundary_available_by_url","boundary_source_url":"https://raw.githubusercontent.com/thanglequoc/vietnamese-provinces-database/master/json/geojson/66_dak_lak/wards/24526_tan_tien.geojson","boundary_source_page":"https://github.com/thanglequoc/vietnamese-provinces-database/blob/master/json/geojson/66_dak_lak/wards/24526_tan_tien.geojson","source_catalog":"https://github.com/thanglequoc/vietnamese-provinces-database"},"geometry":null},{"type":"Feature","id":"24529","properties":{"commune_code":"24529","commune_name":"Vụ Bổn","commune_name_en":"Vu Bon","commune_full_name":"Xã Vụ Bổn","commune_full_name_en":"Vu Bon Commune","commune_slug":"vu_bon","unit_type":"Xã","unit_type_en":"Commune","admin_level":2,"province_code":"66","province_name":"Đắk Lắk","province_full_name":"Tỉnh Đắk Lắk","province_slug":"dak_lak","join_key":"24529","status":"active","dataset_effective_date":"2026-04-30","catalog_version":"2026-07-12","geometry_status":"not_embedded_boundary_available_by_url","boundary_source_url":"https://raw.githubusercontent.com/thanglequoc/vietnamese-provinces-database/master/json/geojson/66_dak_lak/wards/24529_vu_bon.geojson","boundary_source_page":"https://github.com/thanglequoc/vietnamese-provinces-database/blob/master/json/geojson/66_dak_lak/wards/24529_vu_bon.geojson","source_catalog":"https://github.com/thanglequoc/vietnamese-provinces-database"},"geometry":null},{"type":"Feature","id":"24538","properties":{"commune_code":"24538","commune_name":"Krông Ana","commune_name_en":"Krong Ana","commune_full_name":"Xã Krông Ana","commune_full_name_en":"Krong Ana Commune","commune_slug":"krong_ana","unit_type":"Xã","unit_type_en":"Commune","admin_level":2,"province_code":"66","province_name":"Đắk Lắk","province_full_name":"Tỉnh Đắk Lắk","province_slug":"dak_lak","join_key":"24538","status":"active","dataset_effective_date":"2026-04-30","catalog_version":"2026-07-12","geometry_status":"not_embedded_boundary_available_by_url","boundary_source_url":"https://raw.githubusercontent.com/thanglequoc/vietnamese-provinces-database/master/json/geojson/66_dak_lak/wards/24538_krong_ana.geojson","boundary_source_page":"https://github.com/thanglequoc/vietnamese-provinces-database/blob/master/json/geojson/66_dak_lak/wards/24538_krong_ana.geojson","source_catalog":"https://github.com/thanglequoc/vietnamese-provinces-database"},"geometry":null},{"type":"Feature","id":"24540","properties":{"commune_code":"24540","commune_name":"Ea Ning","commune_name_en":"Ea Ning","commune_full_name":"Xã Ea Ning","commune_full_name_en":"Ea Ning Commune","commune_slug":"ea_ning","unit_type":"Xã","unit_type_en":"Commune","admin_level":2,"province_code":"66","province_name":"Đắk Lắk","province_full_name":"Tỉnh Đắk Lắk","province_slug":"dak_lak","join_key":"24540","status":"active","dataset_effective_date":"2026-04-30","catalog_version":"2026-07-12","geometry_status":"not_embedded_boundary_available_by_url","boundary_source_url":"https://raw.githubusercontent.com/thanglequoc/vietnamese-provinces-database/master/json/geojson/66_dak_lak/wards/24540_ea_ning.geojson","boundary_source_page":"https://github.com/thanglequoc/vietnamese-provinces-database/blob/master/json/geojson/66_dak_lak/wards/24540_ea_ning.geojson","source_catalog":"https://github.com/thanglequoc/vietnamese-provinces-database"},"geometry":null},{"type":"Feature","id":"24544","properties":{"commune_code":"24544","commune_name":"Ea Ktur","commune_name_en":"Ea Ktur","commune_full_name":"Xã Ea Ktur","commune_full_name_en":"Ea Ktur Commune","commune_slug":"ea_ktur","unit_type":"Xã","unit_type_en":"Commune","admin_level":2,"province_code":"66","province_name":"Đắk Lắk","province_full_name":"Tỉnh Đắk Lắk","province_slug":"dak_lak","join_key":"24544","status":"active","dataset_effective_date":"2026-04-30","catalog_version":"2026-07-12","geometry_status":"not_embedded_boundary_available_by_url","boundary_source_url":"https://raw.githubusercontent.com/thanglequoc/vietnamese-provinces-database/master/json/geojson/66_dak_lak/wards/24544_ea_ktur.geojson","boundary_source_page":"https://github.com/thanglequoc/vietnamese-provinces-database/blob/master/json/geojson/66_dak_lak/wards/24544_ea_ktur.geojson","source_catalog":"https://github.com/thanglequoc/vietnamese-provinces-database"},"geometry":null},{"type":"Feature","id":"24559","properties":{"commune_code":"24559","commune_name":"Ea Na","commune_name_en":"Ea Na","commune_full_name":"Xã Ea Na","commune_full_name_en":"Ea Na Commune","commune_slug":"ea_na","unit_type":"Xã","unit_type_en":"Commune","admin_level":2,"province_code":"66","province_name":"Đắk Lắk","province_full_name":"Tỉnh Đắk Lắk","province_slug":"dak_lak","join_key":"24559","status":"active","dataset_effective_date":"2026-04-30","catalog_version":"2026-07-12","geometry_status":"not_embedded_boundary_available_by_url","boundary_source_url":"https://raw.githubusercontent.com/thanglequoc/vietnamese-provinces-database/master/json/geojson/66_dak_lak/wards/24559_ea_na.geojson","boundary_source_page":"https://github.com/thanglequoc/vietnamese-provinces-database/blob/master/json/geojson/66_dak_lak/wards/24559_ea_na.geojson","source_catalog":"https://github.com/thanglequoc/vietnamese-provinces-database"},"geometry":null},{"type":"Feature","id":"24561","properties":{"commune_code":"24561","commune_name":"Dray Bhăng","commune_name_en":"Dray Bhang","commune_full_name":"Xã Dray Bhăng","commune_full_name_en":"Dray Bhang Commune","commune_slug":"dray_bhang","unit_type":"Xã","unit_type_en":"Commune","admin_level":2,"province_code":"66","province_name":"Đắk Lắk","province_full_name":"Tỉnh Đắk Lắk","province_slug":"dak_lak","join_key":"24561","status":"active","dataset_effective_date":"2026-04-30","catalog_version":"2026-07-12","geometry_status":"not_embedded_boundary_available_by_url","boundary_source_url":"https://raw.githubusercontent.com/thanglequoc/vietnamese-provinces-database/master/json/geojson/66_dak_lak/wards/24561_dray_bhang.geojson","boundary_source_page":"https://github.com/thanglequoc/vietnamese-provinces-database/blob/master/json/geojson/66_dak_lak/wards/24561_dray_bhang.geojson","source_catalog":"https://github.com/thanglequoc/vietnamese-provinces-database"},"geometry":null},{"type":"Feature","id":"24568","properties":{"commune_code":"24568","commune_name":"Dur Kmăl","commune_name_en":"Dur Kmal","commune_full_name":"Xã Dur Kmăl","commune_full_name_en":"Dur Kmal Commune","commune_slug":"dur_kmal","unit_type":"Xã","unit_type_en":"Commune","admin_level":2,"province_code":"66","province_name":"Đắk Lắk","province_full_name":"Tỉnh Đắk Lắk","province_slug":"dak_lak","join_key":"24568","status":"active","dataset_effective_date":"2026-04-30","catalog_version":"2026-07-12","geometry_status":"not_embedded_boundary_available_by_url","boundary_source_url":"https://raw.githubusercontent.com/thanglequoc/vietnamese-provinces-database/master/json/geojson/66_dak_lak/wards/24568_dur_kmal.geojson","boundary_source_page":"https://github.com/thanglequoc/vietnamese-provinces-database/blob/master/json/geojson/66_dak_lak/wards/24568_dur_kmal.geojson","source_catalog":"https://github.com/thanglequoc/vietnamese-provinces-database"},"geometry":null},{"type":"Feature","id":"24580","properties":{"commune_code":"24580","commune_name":"Liên Sơn Lắk","commune_name_en":"Lien Son Lak","commune_full_name":"Xã Liên Sơn Lắk","commune_full_name_en":"Lien Son Lak Commune","commune_slug":"lien_son_lak","unit_type":"Xã","unit_type_en":"Commune","admin_level":2,"province_code":"66","province_name":"Đắk Lắk","province_full_name":"Tỉnh Đắk Lắk","province_slug":"dak_lak","join_key":"24580","status":"active","dataset_effective_date":"2026-04-30","catalog_version":"2026-07-12","geometry_status":"not_embedded_boundary_available_by_url","boundary_source_url":"https://raw.githubusercontent.com/thanglequoc/vietnamese-provinces-database/master/json/geojson/66_dak_lak/wards/24580_lien_son_lak.geojson","boundary_source_page":"https://github.com/thanglequoc/vietnamese-provinces-database/blob/master/json/geojson/66_dak_lak/wards/24580_lien_son_lak.geojson","source_catalog":"https://github.com/thanglequoc/vietnamese-provinces-database"},"geometry":null},{"type":"Feature","id":"24595","properties":{"commune_code":"24595","commune_name":"Đắk Liêng","commune_name_en":"Dak Lieng","commune_full_name":"Xã Đắk Liêng","commune_full_name_en":"Dak Lieng Commune","commune_slug":"dak_lieng","unit_type":"Xã","unit_type_en":"Commune","admin_level":2,"province_code":"66","province_name":"Đắk Lắk","province_full_name":"Tỉnh Đắk Lắk","province_slug":"dak_lak","join_key":"24595","status":"active","dataset_effective_date":"2026-04-30","catalog_version":"2026-07-12","geometry_status":"not_embedded_boundary_available_by_url","boundary_source_url":"https://raw.githubusercontent.com/thanglequoc/vietnamese-provinces-database/master/json/geojson/66_dak_lak/wards/24595_dak_lieng.geojson","boundary_source_page":"https://github.com/thanglequoc/vietnamese-provinces-database/blob/master/json/geojson/66_dak_lak/wards/24595_dak_lieng.geojson","source_catalog":"https://github.com/thanglequoc/vietnamese-provinces-database"},"geometry":null},{"type":"Feature","id":"24598","properties":{"commune_code":"24598","commune_name":"Đắk Phơi","commune_name_en":"Dak Phoi","commune_full_name":"Xã Đắk Phơi","commune_full_name_en":"Dak Phoi Commune","commune_slug":"dak_phoi","unit_type":"Xã","unit_type_en":"Commune","admin_level":2,"province_code":"66","province_name":"Đắk Lắk","province_full_name":"Tỉnh Đắk Lắk","province_slug":"dak_lak","join_key":"24598","status":"active","dataset_effective_date":"2026-04-30","catalog_version":"2026-07-12","geometry_status":"not_embedded_boundary_available_by_url","boundary_source_url":"https://raw.githubusercontent.com/thanglequoc/vietnamese-provinces-database/master/json/geojson/66_dak_lak/wards/24598_dak_phoi.geojson","boundary_source_page":"https://github.com/thanglequoc/vietnamese-provinces-database/blob/master/json/geojson/66_dak_lak/wards/24598_dak_phoi.geojson","source_catalog":"https://github.com/thanglequoc/vietnamese-provinces-database"},"geometry":null},{"type":"Feature","id":"24604","properties":{"commune_code":"24604","commune_name":"Krông Nô","commune_name_en":"Krong No","commune_full_name":"Xã Krông Nô","commune_full_name_en":"Krong No Commune","commune_slug":"krong_no","unit_type":"Xã","unit_type_en":"Commune","admin_level":2,"province_code":"66","province_name":"Đắk Lắk","province_full_name":"Tỉnh Đắk Lắk","province_slug":"dak_lak","join_key":"24604","status":"active","dataset_effective_date":"2026-04-30","catalog_version":"2026-07-12","geometry_status":"not_embedded_boundary_available_by_url","boundary_source_url":"https://raw.githubusercontent.com/thanglequoc/vietnamese-provinces-database/master/json/geojson/66_dak_lak/wards/24604_krong_no.geojson","boundary_source_page":"https://github.com/thanglequoc/vietnamese-provinces-database/blob/master/json/geojson/66_dak_lak/wards/24604_krong_no.geojson","source_catalog":"https://github.com/thanglequoc/vietnamese-provinces-database"},"geometry":null},{"type":"Feature","id":"24607","properties":{"commune_code":"24607","commune_name":"Nam Ka","commune_name_en":"Nam Ka","commune_full_name":"Xã Nam Ka","commune_full_name_en":"Nam Ka Commune","commune_slug":"nam_ka","unit_type":"Xã","unit_type_en":"Commune","admin_level":2,"province_code":"66","province_name":"Đắk Lắk","province_full_name":"Tỉnh Đắk Lắk","province_slug":"dak_lak","join_key":"24607","status":"active","dataset_effective_date":"2026-04-30","catalog_version":"2026-07-12","geometry_status":"not_embedded_boundary_available_by_url","boundary_source_url":"https://raw.githubusercontent.com/thanglequoc/vietnamese-provinces-database/master/json/geojson/66_dak_lak/wards/24607_nam_ka.geojson","boundary_source_page":"https://github.com/thanglequoc/vietnamese-provinces-database/blob/master/json/geojson/66_dak_lak/wards/24607_nam_ka.geojson","source_catalog":"https://github.com/thanglequoc/vietnamese-provinces-database"},"geometry":null}]}