{"type":"FeatureCollection","name":"80_tay_ninh_communes_attributes","metadata":{"province_code":"80","province_name":"Tây Ninh","feature_count":96,"geometry":null,"join_key":"commune_code"},"features":[{"type":"Feature","id":"25459","properties":{"commune_code":"25459","commune_name":"Tân Ninh","commune_name_en":"Tan Ninh","commune_full_name":"Phường Tân Ninh","commune_full_name_en":"Tan Ninh Ward","commune_slug":"tan_ninh","unit_type":"Phường","unit_type_en":"Ward","admin_level":2,"province_code":"80","province_name":"Tây Ninh","province_full_name":"Tỉnh Tây Ninh","province_slug":"tay_ninh","join_key":"25459","status":"active","dataset_effective_date":"2026-04-30","catalog_version":"2026-07-12","geometry_status":"not_embedded_boundary_available_by_url","boundary_source_url":"https://raw.githubusercontent.com/thanglequoc/vietnamese-provinces-database/master/json/geojson/80_tay_ninh/wards/25459_tan_ninh.geojson","boundary_source_page":"https://github.com/thanglequoc/vietnamese-provinces-database/blob/master/json/geojson/80_tay_ninh/wards/25459_tan_ninh.geojson","source_catalog":"https://github.com/thanglequoc/vietnamese-provinces-database"},"geometry":null},{"type":"Feature","id":"25480","properties":{"commune_code":"25480","commune_name":"Bình Minh","commune_name_en":"Binh Minh","commune_full_name":"Phường Bình Minh","commune_full_name_en":"Binh Minh Ward","commune_slug":"binh_minh","unit_type":"Phường","unit_type_en":"Ward","admin_level":2,"province_code":"80","province_name":"Tây Ninh","province_full_name":"Tỉnh Tây Ninh","province_slug":"tay_ninh","join_key":"25480","status":"active","dataset_effective_date":"2026-04-30","catalog_version":"2026-07-12","geometry_status":"not_embedded_boundary_available_by_url","boundary_source_url":"https://raw.githubusercontent.com/thanglequoc/vietnamese-provinces-database/master/json/geojson/80_tay_ninh/wards/25480_binh_minh.geojson","boundary_source_page":"https://github.com/thanglequoc/vietnamese-provinces-database/blob/master/json/geojson/80_tay_ninh/wards/25480_binh_minh.geojson","source_catalog":"https://github.com/thanglequoc/vietnamese-provinces-database"},"geometry":null},{"type":"Feature","id":"25486","properties":{"commune_code":"25486","commune_name":"Tân Biên","commune_name_en":"Tan Bien","commune_full_name":"Xã Tân Biên","commune_full_name_en":"Tan Bien Commune","commune_slug":"tan_bien","unit_type":"Xã","unit_type_en":"Commune","admin_level":2,"province_code":"80","province_name":"Tây Ninh","province_full_name":"Tỉnh Tây Ninh","province_slug":"tay_ninh","join_key":"25486","status":"active","dataset_effective_date":"2026-04-30","catalog_version":"2026-07-12","geometry_status":"not_embedded_boundary_available_by_url","boundary_source_url":"https://raw.githubusercontent.com/thanglequoc/vietnamese-provinces-database/master/json/geojson/80_tay_ninh/wards/25486_tan_bien.geojson","boundary_source_page":"https://github.com/thanglequoc/vietnamese-provinces-database/blob/master/json/geojson/80_tay_ninh/wards/25486_tan_bien.geojson","source_catalog":"https://github.com/thanglequoc/vietnamese-provinces-database"},"geometry":null},{"type":"Feature","id":"25489","properties":{"commune_code":"25489","commune_name":"Tân Lập","commune_name_en":"Tan Lap","commune_full_name":"Xã Tân Lập","commune_full_name_en":"Tan Lap Commune","commune_slug":"tan_lap","unit_type":"Xã","unit_type_en":"Commune","admin_level":2,"province_code":"80","province_name":"Tây Ninh","province_full_name":"Tỉnh Tây Ninh","province_slug":"tay_ninh","join_key":"25489","status":"active","dataset_effective_date":"2026-04-30","catalog_version":"2026-07-12","geometry_status":"not_embedded_boundary_available_by_url","boundary_source_url":"https://raw.githubusercontent.com/thanglequoc/vietnamese-provinces-database/master/json/geojson/80_tay_ninh/wards/25489_tan_lap.geojson","boundary_source_page":"https://github.com/thanglequoc/vietnamese-provinces-database/blob/master/json/geojson/80_tay_ninh/wards/25489_tan_lap.geojson","source_catalog":"https://github.com/thanglequoc/vietnamese-provinces-database"},"geometry":null},{"type":"Feature","id":"25498","properties":{"commune_code":"25498","commune_name":"Thạnh Bình","commune_name_en":"Thanh Binh","commune_full_name":"Xã Thạnh Bình","commune_full_name_en":"Thanh Binh Commune","commune_slug":"thanh_binh","unit_type":"Xã","unit_type_en":"Commune","admin_level":2,"province_code":"80","province_name":"Tây Ninh","province_full_name":"Tỉnh Tây Ninh","province_slug":"tay_ninh","join_key":"25498","status":"active","dataset_effective_date":"2026-04-30","catalog_version":"2026-07-12","geometry_status":"not_embedded_boundary_available_by_url","boundary_source_url":"https://raw.githubusercontent.com/thanglequoc/vietnamese-provinces-database/master/json/geojson/80_tay_ninh/wards/25498_thanh_binh.geojson","boundary_source_page":"https://github.com/thanglequoc/vietnamese-provinces-database/blob/master/json/geojson/80_tay_ninh/wards/25498_thanh_binh.geojson","source_catalog":"https://github.com/thanglequoc/vietnamese-provinces-database"},"geometry":null},{"type":"Feature","id":"25510","properties":{"commune_code":"25510","commune_name":"Trà Vong","commune_name_en":"Tra Vong","commune_full_name":"Xã Trà Vong","commune_full_name_en":"Tra Vong Commune","commune_slug":"tra_vong","unit_type":"Xã","unit_type_en":"Commune","admin_level":2,"province_code":"80","province_name":"Tây Ninh","province_full_name":"Tỉnh Tây Ninh","province_slug":"tay_ninh","join_key":"25510","status":"active","dataset_effective_date":"2026-04-30","catalog_version":"2026-07-12","geometry_status":"not_embedded_boundary_available_by_url","boundary_source_url":"https://raw.githubusercontent.com/thanglequoc/vietnamese-provinces-database/master/json/geojson/80_tay_ninh/wards/25510_tra_vong.geojson","boundary_source_page":"https://github.com/thanglequoc/vietnamese-provinces-database/blob/master/json/geojson/80_tay_ninh/wards/25510_tra_vong.geojson","source_catalog":"https://github.com/thanglequoc/vietnamese-provinces-database"},"geometry":null},{"type":"Feature","id":"25516","properties":{"commune_code":"25516","commune_name":"Tân Châu","commune_name_en":"Tan Chau","commune_full_name":"Xã Tân Châu","commune_full_name_en":"Tan Chau Commune","commune_slug":"tan_chau","unit_type":"Xã","unit_type_en":"Commune","admin_level":2,"province_code":"80","province_name":"Tây Ninh","province_full_name":"Tỉnh Tây Ninh","province_slug":"tay_ninh","join_key":"25516","status":"active","dataset_effective_date":"2026-04-30","catalog_version":"2026-07-12","geometry_status":"not_embedded_boundary_available_by_url","boundary_source_url":"https://raw.githubusercontent.com/thanglequoc/vietnamese-provinces-database/master/json/geojson/80_tay_ninh/wards/25516_tan_chau.geojson","boundary_source_page":"https://github.com/thanglequoc/vietnamese-provinces-database/blob/master/json/geojson/80_tay_ninh/wards/25516_tan_chau.geojson","source_catalog":"https://github.com/thanglequoc/vietnamese-provinces-database"},"geometry":null},{"type":"Feature","id":"25522","properties":{"commune_code":"25522","commune_name":"Tân Đông","commune_name_en":"Tan Dong","commune_full_name":"Xã Tân Đông","commune_full_name_en":"Tan Dong Commune","commune_slug":"tan_dong","unit_type":"Xã","unit_type_en":"Commune","admin_level":2,"province_code":"80","province_name":"Tây Ninh","province_full_name":"Tỉnh Tây Ninh","province_slug":"tay_ninh","join_key":"25522","status":"active","dataset_effective_date":"2026-04-30","catalog_version":"2026-07-12","geometry_status":"not_embedded_boundary_available_by_url","boundary_source_url":"https://raw.githubusercontent.com/thanglequoc/vietnamese-provinces-database/master/json/geojson/80_tay_ninh/wards/25522_tan_dong.geojson","boundary_source_page":"https://github.com/thanglequoc/vietnamese-provinces-database/blob/master/json/geojson/80_tay_ninh/wards/25522_tan_dong.geojson","source_catalog":"https://github.com/thanglequoc/vietnamese-provinces-database"},"geometry":null},{"type":"Feature","id":"25525","properties":{"commune_code":"25525","commune_name":"Tân Hội","commune_name_en":"Tan Hoi","commune_full_name":"Xã Tân Hội","commune_full_name_en":"Tan Hoi Commune","commune_slug":"tan_hoi","unit_type":"Xã","unit_type_en":"Commune","admin_level":2,"province_code":"80","province_name":"Tây Ninh","province_full_name":"Tỉnh Tây Ninh","province_slug":"tay_ninh","join_key":"25525","status":"active","dataset_effective_date":"2026-04-30","catalog_version":"2026-07-12","geometry_status":"not_embedded_boundary_available_by_url","boundary_source_url":"https://raw.githubusercontent.com/thanglequoc/vietnamese-provinces-database/master/json/geojson/80_tay_ninh/wards/25525_tan_hoi.geojson","boundary_source_page":"https://github.com/thanglequoc/vietnamese-provinces-database/blob/master/json/geojson/80_tay_ninh/wards/25525_tan_hoi.geojson","source_catalog":"https://github.com/thanglequoc/vietnamese-provinces-database"},"geometry":null},{"type":"Feature","id":"25531","properties":{"commune_code":"25531","commune_name":"Tân Hoà","commune_name_en":"Tan Hoa","commune_full_name":"Xã Tân Hoà","commune_full_name_en":"Tan Hoa Commune","commune_slug":"tan_hoa","unit_type":"Xã","unit_type_en":"Commune","admin_level":2,"province_code":"80","province_name":"Tây Ninh","province_full_name":"Tỉnh Tây Ninh","province_slug":"tay_ninh","join_key":"25531","status":"active","dataset_effective_date":"2026-04-30","catalog_version":"2026-07-12","geometry_status":"not_embedded_boundary_available_by_url","boundary_source_url":"https://raw.githubusercontent.com/thanglequoc/vietnamese-provinces-database/master/json/geojson/80_tay_ninh/wards/25531_tan_hoa.geojson","boundary_source_page":"https://github.com/thanglequoc/vietnamese-provinces-database/blob/master/json/geojson/80_tay_ninh/wards/25531_tan_hoa.geojson","source_catalog":"https://github.com/thanglequoc/vietnamese-provinces-database"},"geometry":null},{"type":"Feature","id":"25534","properties":{"commune_code":"25534","commune_name":"Tân Thành","commune_name_en":"Tan Thanh","commune_full_name":"Xã Tân Thành","commune_full_name_en":"Tan Thanh Commune","commune_slug":"tan_thanh","unit_type":"Xã","unit_type_en":"Commune","admin_level":2,"province_code":"80","province_name":"Tây Ninh","province_full_name":"Tỉnh Tây Ninh","province_slug":"tay_ninh","join_key":"25534","status":"active","dataset_effective_date":"2026-04-30","catalog_version":"2026-07-12","geometry_status":"not_embedded_boundary_available_by_url","boundary_source_url":"https://raw.githubusercontent.com/thanglequoc/vietnamese-provinces-database/master/json/geojson/80_tay_ninh/wards/25534_tan_thanh.geojson","boundary_source_page":"https://github.com/thanglequoc/vietnamese-provinces-database/blob/master/json/geojson/80_tay_ninh/wards/25534_tan_thanh.geojson","source_catalog":"https://github.com/thanglequoc/vietnamese-provinces-database"},"geometry":null},{"type":"Feature","id":"25549","properties":{"commune_code":"25549","commune_name":"Tân Phú","commune_name_en":"Tan Phu","commune_full_name":"Xã Tân Phú","commune_full_name_en":"Tan Phu Commune","commune_slug":"tan_phu","unit_type":"Xã","unit_type_en":"Commune","admin_level":2,"province_code":"80","province_name":"Tây Ninh","province_full_name":"Tỉnh Tây Ninh","province_slug":"tay_ninh","join_key":"25549","status":"active","dataset_effective_date":"2026-04-30","catalog_version":"2026-07-12","geometry_status":"not_embedded_boundary_available_by_url","boundary_source_url":"https://raw.githubusercontent.com/thanglequoc/vietnamese-provinces-database/master/json/geojson/80_tay_ninh/wards/25549_tan_phu.geojson","boundary_source_page":"https://github.com/thanglequoc/vietnamese-provinces-database/blob/master/json/geojson/80_tay_ninh/wards/25549_tan_phu.geojson","source_catalog":"https://github.com/thanglequoc/vietnamese-provinces-database"},"geometry":null},{"type":"Feature","id":"25552","properties":{"commune_code":"25552","commune_name":"Dương Minh Châu","commune_name_en":"Duong Minh Chau","commune_full_name":"Xã Dương Minh Châu","commune_full_name_en":"Duong Minh Chau Commune","commune_slug":"duong_minh_chau","unit_type":"Xã","unit_type_en":"Commune","admin_level":2,"province_code":"80","province_name":"Tây Ninh","province_full_name":"Tỉnh Tây Ninh","province_slug":"tay_ninh","join_key":"25552","status":"active","dataset_effective_date":"2026-04-30","catalog_version":"2026-07-12","geometry_status":"not_embedded_boundary_available_by_url","boundary_source_url":"https://raw.githubusercontent.com/thanglequoc/vietnamese-provinces-database/master/json/geojson/80_tay_ninh/wards/25552_duong_minh_chau.geojson","boundary_source_page":"https://github.com/thanglequoc/vietnamese-provinces-database/blob/master/json/geojson/80_tay_ninh/wards/25552_duong_minh_chau.geojson","source_catalog":"https://github.com/thanglequoc/vietnamese-provinces-database"},"geometry":null},{"type":"Feature","id":"25567","properties":{"commune_code":"25567","commune_name":"Ninh Thạnh","commune_name_en":"Ninh Thanh","commune_full_name":"Phường Ninh Thạnh","commune_full_name_en":"Ninh Thanh Ward","commune_slug":"ninh_thanh","unit_type":"Phường","unit_type_en":"Ward","admin_level":2,"province_code":"80","province_name":"Tây Ninh","province_full_name":"Tỉnh Tây Ninh","province_slug":"tay_ninh","join_key":"25567","status":"active","dataset_effective_date":"2026-04-30","catalog_version":"2026-07-12","geometry_status":"not_embedded_boundary_available_by_url","boundary_source_url":"https://raw.githubusercontent.com/thanglequoc/vietnamese-provinces-database/master/json/geojson/80_tay_ninh/wards/25567_ninh_thanh.geojson","boundary_source_page":"https://github.com/thanglequoc/vietnamese-provinces-database/blob/master/json/geojson/80_tay_ninh/wards/25567_ninh_thanh.geojson","source_catalog":"https://github.com/thanglequoc/vietnamese-provinces-database"},"geometry":null},{"type":"Feature","id":"25573","properties":{"commune_code":"25573","commune_name":"Cầu Khởi","commune_name_en":"Cau Khoi","commune_full_name":"Xã Cầu Khởi","commune_full_name_en":"Cau Khoi Commune","commune_slug":"cau_khoi","unit_type":"Xã","unit_type_en":"Commune","admin_level":2,"province_code":"80","province_name":"Tây Ninh","province_full_name":"Tỉnh Tây Ninh","province_slug":"tay_ninh","join_key":"25573","status":"active","dataset_effective_date":"2026-04-30","catalog_version":"2026-07-12","geometry_status":"not_embedded_boundary_available_by_url","boundary_source_url":"https://raw.githubusercontent.com/thanglequoc/vietnamese-provinces-database/master/json/geojson/80_tay_ninh/wards/25573_cau_khoi.geojson","boundary_source_page":"https://github.com/thanglequoc/vietnamese-provinces-database/blob/master/json/geojson/80_tay_ninh/wards/25573_cau_khoi.geojson","source_catalog":"https://github.com/thanglequoc/vietnamese-provinces-database"},"geometry":null},{"type":"Feature","id":"25579","properties":{"commune_code":"25579","commune_name":"Lộc Ninh","commune_name_en":"Loc Ninh","commune_full_name":"Xã Lộc Ninh","commune_full_name_en":"Loc Ninh Commune","commune_slug":"loc_ninh","unit_type":"Xã","unit_type_en":"Commune","admin_level":2,"province_code":"80","province_name":"Tây Ninh","province_full_name":"Tỉnh Tây Ninh","province_slug":"tay_ninh","join_key":"25579","status":"active","dataset_effective_date":"2026-04-30","catalog_version":"2026-07-12","geometry_status":"not_embedded_boundary_available_by_url","boundary_source_url":"https://raw.githubusercontent.com/thanglequoc/vietnamese-provinces-database/master/json/geojson/80_tay_ninh/wards/25579_loc_ninh.geojson","boundary_source_page":"https://github.com/thanglequoc/vietnamese-provinces-database/blob/master/json/geojson/80_tay_ninh/wards/25579_loc_ninh.geojson","source_catalog":"https://github.com/thanglequoc/vietnamese-provinces-database"},"geometry":null},{"type":"Feature","id":"25585","properties":{"commune_code":"25585","commune_name":"Châu Thành","commune_name_en":"Chau Thanh","commune_full_name":"Xã Châu Thành","commune_full_name_en":"Chau Thanh Commune","commune_slug":"chau_thanh","unit_type":"Xã","unit_type_en":"Commune","admin_level":2,"province_code":"80","province_name":"Tây Ninh","province_full_name":"Tỉnh Tây Ninh","province_slug":"tay_ninh","join_key":"25585","status":"active","dataset_effective_date":"2026-04-30","catalog_version":"2026-07-12","geometry_status":"not_embedded_boundary_available_by_url","boundary_source_url":"https://raw.githubusercontent.com/thanglequoc/vietnamese-provinces-database/master/json/geojson/80_tay_ninh/wards/25585_chau_thanh.geojson","boundary_source_page":"https://github.com/thanglequoc/vietnamese-provinces-database/blob/master/json/geojson/80_tay_ninh/wards/25585_chau_thanh.geojson","source_catalog":"https://github.com/thanglequoc/vietnamese-provinces-database"},"geometry":null},{"type":"Feature","id":"25588","properties":{"commune_code":"25588","commune_name":"Hảo Đước","commune_name_en":"Hao Duoc","commune_full_name":"Xã Hảo Đước","commune_full_name_en":"Hao Duoc Commune","commune_slug":"hao_duoc","unit_type":"Xã","unit_type_en":"Commune","admin_level":2,"province_code":"80","province_name":"Tây Ninh","province_full_name":"Tỉnh Tây Ninh","province_slug":"tay_ninh","join_key":"25588","status":"active","dataset_effective_date":"2026-04-30","catalog_version":"2026-07-12","geometry_status":"not_embedded_boundary_available_by_url","boundary_source_url":"https://raw.githubusercontent.com/thanglequoc/vietnamese-provinces-database/master/json/geojson/80_tay_ninh/wards/25588_hao_duoc.geojson","boundary_source_page":"https://github.com/thanglequoc/vietnamese-provinces-database/blob/master/json/geojson/80_tay_ninh/wards/25588_hao_duoc.geojson","source_catalog":"https://github.com/thanglequoc/vietnamese-provinces-database"},"geometry":null},{"type":"Feature","id":"25591","properties":{"commune_code":"25591","commune_name":"Phước Vinh","commune_name_en":"Phuoc Vinh","commune_full_name":"Xã Phước Vinh","commune_full_name_en":"Phuoc Vinh Commune","commune_slug":"phuoc_vinh","unit_type":"Xã","unit_type_en":"Commune","admin_level":2,"province_code":"80","province_name":"Tây Ninh","province_full_name":"Tỉnh Tây Ninh","province_slug":"tay_ninh","join_key":"25591","status":"active","dataset_effective_date":"2026-04-30","catalog_version":"2026-07-12","geometry_status":"not_embedded_boundary_available_by_url","boundary_source_url":"https://raw.githubusercontent.com/thanglequoc/vietnamese-provinces-database/master/json/geojson/80_tay_ninh/wards/25591_phuoc_vinh.geojson","boundary_source_page":"https://github.com/thanglequoc/vietnamese-provinces-database/blob/master/json/geojson/80_tay_ninh/wards/25591_phuoc_vinh.geojson","source_catalog":"https://github.com/thanglequoc/vietnamese-provinces-database"},"geometry":null},{"type":"Feature","id":"25606","properties":{"commune_code":"25606","commune_name":"Hoà Hội","commune_name_en":"Hoa Hoi","commune_full_name":"Xã Hoà Hội","commune_full_name_en":"Hoa Hoi Commune","commune_slug":"hoa_hoi","unit_type":"Xã","unit_type_en":"Commune","admin_level":2,"province_code":"80","province_name":"Tây Ninh","province_full_name":"Tỉnh Tây Ninh","province_slug":"tay_ninh","join_key":"25606","status":"active","dataset_effective_date":"2026-04-30","catalog_version":"2026-07-12","geometry_status":"not_embedded_boundary_available_by_url","boundary_source_url":"https://raw.githubusercontent.com/thanglequoc/vietnamese-provinces-database/master/json/geojson/80_tay_ninh/wards/25606_hoa_hoi.geojson","boundary_source_page":"https://github.com/thanglequoc/vietnamese-provinces-database/blob/master/json/geojson/80_tay_ninh/wards/25606_hoa_hoi.geojson","source_catalog":"https://github.com/thanglequoc/vietnamese-provinces-database"},"geometry":null},{"type":"Feature","id":"25621","properties":{"commune_code":"25621","commune_name":"Ninh Điền","commune_name_en":"Ninh Dien","commune_full_name":"Xã Ninh Điền","commune_full_name_en":"Ninh Dien Commune","commune_slug":"ninh_dien","unit_type":"Xã","unit_type_en":"Commune","admin_level":2,"province_code":"80","province_name":"Tây Ninh","province_full_name":"Tỉnh Tây Ninh","province_slug":"tay_ninh","join_key":"25621","status":"active","dataset_effective_date":"2026-04-30","catalog_version":"2026-07-12","geometry_status":"not_embedded_boundary_available_by_url","boundary_source_url":"https://raw.githubusercontent.com/thanglequoc/vietnamese-provinces-database/master/json/geojson/80_tay_ninh/wards/25621_ninh_dien.geojson","boundary_source_page":"https://github.com/thanglequoc/vietnamese-provinces-database/blob/master/json/geojson/80_tay_ninh/wards/25621_ninh_dien.geojson","source_catalog":"https://github.com/thanglequoc/vietnamese-provinces-database"},"geometry":null},{"type":"Feature","id":"25630","properties":{"commune_code":"25630","commune_name":"Long Hoa","commune_name_en":"Long Hoa","commune_full_name":"Phường Long Hoa","commune_full_name_en":"Long Hoa Ward","commune_slug":"long_hoa","unit_type":"Phường","unit_type_en":"Ward","admin_level":2,"province_code":"80","province_name":"Tây Ninh","province_full_name":"Tỉnh Tây Ninh","province_slug":"tay_ninh","join_key":"25630","status":"active","dataset_effective_date":"2026-04-30","catalog_version":"2026-07-12","geometry_status":"not_embedded_boundary_available_by_url","boundary_source_url":"https://raw.githubusercontent.com/thanglequoc/vietnamese-provinces-database/master/json/geojson/80_tay_ninh/wards/25630_long_hoa.geojson","boundary_source_page":"https://github.com/thanglequoc/vietnamese-provinces-database/blob/master/json/geojson/80_tay_ninh/wards/25630_long_hoa.geojson","source_catalog":"https://github.com/thanglequoc/vietnamese-provinces-database"},"geometry":null},{"type":"Feature","id":"25633","properties":{"commune_code":"25633","commune_name":"Thanh Điền","commune_name_en":"Thanh Dien","commune_full_name":"Phường Thanh Điền","commune_full_name_en":"Thanh Dien Ward","commune_slug":"thanh_dien","unit_type":"Phường","unit_type_en":"Ward","admin_level":2,"province_code":"80","province_name":"Tây Ninh","province_full_name":"Tỉnh Tây Ninh","province_slug":"tay_ninh","join_key":"25633","status":"active","dataset_effective_date":"2026-04-30","catalog_version":"2026-07-12","geometry_status":"not_embedded_boundary_available_by_url","boundary_source_url":"https://raw.githubusercontent.com/thanglequoc/vietnamese-provinces-database/master/json/geojson/80_tay_ninh/wards/25633_thanh_dien.geojson","boundary_source_page":"https://github.com/thanglequoc/vietnamese-provinces-database/blob/master/json/geojson/80_tay_ninh/wards/25633_thanh_dien.geojson","source_catalog":"https://github.com/thanglequoc/vietnamese-provinces-database"},"geometry":null},{"type":"Feature","id":"25645","properties":{"commune_code":"25645","commune_name":"Hoà Thành","commune_name_en":"Hoa Thanh","commune_full_name":"Phường Hoà Thành","commune_full_name_en":"Hoa Thanh Ward","commune_slug":"hoa_thanh","unit_type":"Phường","unit_type_en":"Ward","admin_level":2,"province_code":"80","province_name":"Tây Ninh","province_full_name":"Tỉnh Tây Ninh","province_slug":"tay_ninh","join_key":"25645","status":"active","dataset_effective_date":"2026-04-30","catalog_version":"2026-07-12","geometry_status":"not_embedded_boundary_available_by_url","boundary_source_url":"https://raw.githubusercontent.com/thanglequoc/vietnamese-provinces-database/master/json/geojson/80_tay_ninh/wards/25645_hoa_thanh.geojson","boundary_source_page":"https://github.com/thanglequoc/vietnamese-provinces-database/blob/master/json/geojson/80_tay_ninh/wards/25645_hoa_thanh.geojson","source_catalog":"https://github.com/thanglequoc/vietnamese-provinces-database"},"geometry":null},{"type":"Feature","id":"25654","properties":{"commune_code":"25654","commune_name":"Gò Dầu","commune_name_en":"Go Dau","commune_full_name":"Phường Gò Dầu","commune_full_name_en":"Go Dau Ward","commune_slug":"go_dau","unit_type":"Phường","unit_type_en":"Ward","admin_level":2,"province_code":"80","province_name":"Tây Ninh","province_full_name":"Tỉnh Tây Ninh","province_slug":"tay_ninh","join_key":"25654","status":"active","dataset_effective_date":"2026-04-30","catalog_version":"2026-07-12","geometry_status":"not_embedded_boundary_available_by_url","boundary_source_url":"https://raw.githubusercontent.com/thanglequoc/vietnamese-provinces-database/master/json/geojson/80_tay_ninh/wards/25654_go_dau.geojson","boundary_source_page":"https://github.com/thanglequoc/vietnamese-provinces-database/blob/master/json/geojson/80_tay_ninh/wards/25654_go_dau.geojson","source_catalog":"https://github.com/thanglequoc/vietnamese-provinces-database"},"geometry":null},{"type":"Feature","id":"25657","properties":{"commune_code":"25657","commune_name":"Thạnh Đức","commune_name_en":"Thanh Duc","commune_full_name":"Xã Thạnh Đức","commune_full_name_en":"Thanh Duc Commune","commune_slug":"thanh_duc","unit_type":"Xã","unit_type_en":"Commune","admin_level":2,"province_code":"80","province_name":"Tây Ninh","province_full_name":"Tỉnh Tây Ninh","province_slug":"tay_ninh","join_key":"25657","status":"active","dataset_effective_date":"2026-04-30","catalog_version":"2026-07-12","geometry_status":"not_embedded_boundary_available_by_url","boundary_source_url":"https://raw.githubusercontent.com/thanglequoc/vietnamese-provinces-database/master/json/geojson/80_tay_ninh/wards/25657_thanh_duc.geojson","boundary_source_page":"https://github.com/thanglequoc/vietnamese-provinces-database/blob/master/json/geojson/80_tay_ninh/wards/25657_thanh_duc.geojson","source_catalog":"https://github.com/thanglequoc/vietnamese-provinces-database"},"geometry":null},{"type":"Feature","id":"25663","properties":{"commune_code":"25663","commune_name":"Phước Thạnh","commune_name_en":"Phuoc Thanh","commune_full_name":"Xã Phước Thạnh","commune_full_name_en":"Phuoc Thanh Commune","commune_slug":"phuoc_thanh","unit_type":"Xã","unit_type_en":"Commune","admin_level":2,"province_code":"80","province_name":"Tây Ninh","province_full_name":"Tỉnh Tây Ninh","province_slug":"tay_ninh","join_key":"25663","status":"active","dataset_effective_date":"2026-04-30","catalog_version":"2026-07-12","geometry_status":"not_embedded_boundary_available_by_url","boundary_source_url":"https://raw.githubusercontent.com/thanglequoc/vietnamese-provinces-database/master/json/geojson/80_tay_ninh/wards/25663_phuoc_thanh.geojson","boundary_source_page":"https://github.com/thanglequoc/vietnamese-provinces-database/blob/master/json/geojson/80_tay_ninh/wards/25663_phuoc_thanh.geojson","source_catalog":"https://github.com/thanglequoc/vietnamese-provinces-database"},"geometry":null},{"type":"Feature","id":"25666","properties":{"commune_code":"25666","commune_name":"Truông Mít","commune_name_en":"Truong Mit","commune_full_name":"Xã Truông Mít","commune_full_name_en":"Truong Mit Commune","commune_slug":"truong_mit","unit_type":"Xã","unit_type_en":"Commune","admin_level":2,"province_code":"80","province_name":"Tây Ninh","province_full_name":"Tỉnh Tây Ninh","province_slug":"tay_ninh","join_key":"25666","status":"active","dataset_effective_date":"2026-04-30","catalog_version":"2026-07-12","geometry_status":"not_embedded_boundary_available_by_url","boundary_source_url":"https://raw.githubusercontent.com/thanglequoc/vietnamese-provinces-database/master/json/geojson/80_tay_ninh/wards/25666_truong_mit.geojson","boundary_source_page":"https://github.com/thanglequoc/vietnamese-provinces-database/blob/master/json/geojson/80_tay_ninh/wards/25666_truong_mit.geojson","source_catalog":"https://github.com/thanglequoc/vietnamese-provinces-database"},"geometry":null},{"type":"Feature","id":"25672","properties":{"commune_code":"25672","commune_name":"Gia Lộc","commune_name_en":"Gia Loc","commune_full_name":"Phường Gia Lộc","commune_full_name_en":"Gia Loc Ward","commune_slug":"gia_loc","unit_type":"Phường","unit_type_en":"Ward","admin_level":2,"province_code":"80","province_name":"Tây Ninh","province_full_name":"Tỉnh Tây Ninh","province_slug":"tay_ninh","join_key":"25672","status":"active","dataset_effective_date":"2026-04-30","catalog_version":"2026-07-12","geometry_status":"not_embedded_boundary_available_by_url","boundary_source_url":"https://raw.githubusercontent.com/thanglequoc/vietnamese-provinces-database/master/json/geojson/80_tay_ninh/wards/25672_gia_loc.geojson","boundary_source_page":"https://github.com/thanglequoc/vietnamese-provinces-database/blob/master/json/geojson/80_tay_ninh/wards/25672_gia_loc.geojson","source_catalog":"https://github.com/thanglequoc/vietnamese-provinces-database"},"geometry":null},{"type":"Feature","id":"25681","properties":{"commune_code":"25681","commune_name":"Bến Cầu","commune_name_en":"Ben Cau","commune_full_name":"Xã Bến Cầu","commune_full_name_en":"Ben Cau Commune","commune_slug":"ben_cau","unit_type":"Xã","unit_type_en":"Commune","admin_level":2,"province_code":"80","province_name":"Tây Ninh","province_full_name":"Tỉnh Tây Ninh","province_slug":"tay_ninh","join_key":"25681","status":"active","dataset_effective_date":"2026-04-30","catalog_version":"2026-07-12","geometry_status":"not_embedded_boundary_available_by_url","boundary_source_url":"https://raw.githubusercontent.com/thanglequoc/vietnamese-provinces-database/master/json/geojson/80_tay_ninh/wards/25681_ben_cau.geojson","boundary_source_page":"https://github.com/thanglequoc/vietnamese-provinces-database/blob/master/json/geojson/80_tay_ninh/wards/25681_ben_cau.geojson","source_catalog":"https://github.com/thanglequoc/vietnamese-provinces-database"},"geometry":null},{"type":"Feature","id":"25684","properties":{"commune_code":"25684","commune_name":"Long Chữ","commune_name_en":"Long Chu","commune_full_name":"Xã Long Chữ","commune_full_name_en":"Long Chu Commune","commune_slug":"long_chu","unit_type":"Xã","unit_type_en":"Commune","admin_level":2,"province_code":"80","province_name":"Tây Ninh","province_full_name":"Tỉnh Tây Ninh","province_slug":"tay_ninh","join_key":"25684","status":"active","dataset_effective_date":"2026-04-30","catalog_version":"2026-07-12","geometry_status":"not_embedded_boundary_available_by_url","boundary_source_url":"https://raw.githubusercontent.com/thanglequoc/vietnamese-provinces-database/master/json/geojson/80_tay_ninh/wards/25684_long_chu.geojson","boundary_source_page":"https://github.com/thanglequoc/vietnamese-provinces-database/blob/master/json/geojson/80_tay_ninh/wards/25684_long_chu.geojson","source_catalog":"https://github.com/thanglequoc/vietnamese-provinces-database"},"geometry":null},{"type":"Feature","id":"25702","properties":{"commune_code":"25702","commune_name":"Long Thuận","commune_name_en":"Long Thuan","commune_full_name":"Xã Long Thuận","commune_full_name_en":"Long Thuan Commune","commune_slug":"long_thuan","unit_type":"Xã","unit_type_en":"Commune","admin_level":2,"province_code":"80","province_name":"Tây Ninh","province_full_name":"Tỉnh Tây Ninh","province_slug":"tay_ninh","join_key":"25702","status":"active","dataset_effective_date":"2026-04-30","catalog_version":"2026-07-12","geometry_status":"not_embedded_boundary_available_by_url","boundary_source_url":"https://raw.githubusercontent.com/thanglequoc/vietnamese-provinces-database/master/json/geojson/80_tay_ninh/wards/25702_long_thuan.geojson","boundary_source_page":"https://github.com/thanglequoc/vietnamese-provinces-database/blob/master/json/geojson/80_tay_ninh/wards/25702_long_thuan.geojson","source_catalog":"https://github.com/thanglequoc/vietnamese-provinces-database"},"geometry":null},{"type":"Feature","id":"25708","properties":{"commune_code":"25708","commune_name":"Trảng Bàng","commune_name_en":"Trang Bang","commune_full_name":"Phường Trảng Bàng","commune_full_name_en":"Trang Bang Ward","commune_slug":"trang_bang","unit_type":"Phường","unit_type_en":"Ward","admin_level":2,"province_code":"80","province_name":"Tây Ninh","province_full_name":"Tỉnh Tây Ninh","province_slug":"tay_ninh","join_key":"25708","status":"active","dataset_effective_date":"2026-04-30","catalog_version":"2026-07-12","geometry_status":"not_embedded_boundary_available_by_url","boundary_source_url":"https://raw.githubusercontent.com/thanglequoc/vietnamese-provinces-database/master/json/geojson/80_tay_ninh/wards/25708_trang_bang.geojson","boundary_source_page":"https://github.com/thanglequoc/vietnamese-provinces-database/blob/master/json/geojson/80_tay_ninh/wards/25708_trang_bang.geojson","source_catalog":"https://github.com/thanglequoc/vietnamese-provinces-database"},"geometry":null},{"type":"Feature","id":"25711","properties":{"commune_code":"25711","commune_name":"Hưng Thuận","commune_name_en":"Hung Thuan","commune_full_name":"Xã Hưng Thuận","commune_full_name_en":"Hung Thuan Commune","commune_slug":"hung_thuan","unit_type":"Xã","unit_type_en":"Commune","admin_level":2,"province_code":"80","province_name":"Tây Ninh","province_full_name":"Tỉnh Tây Ninh","province_slug":"tay_ninh","join_key":"25711","status":"active","dataset_effective_date":"2026-04-30","catalog_version":"2026-07-12","geometry_status":"not_embedded_boundary_available_by_url","boundary_source_url":"https://raw.githubusercontent.com/thanglequoc/vietnamese-provinces-database/master/json/geojson/80_tay_ninh/wards/25711_hung_thuan.geojson","boundary_source_page":"https://github.com/thanglequoc/vietnamese-provinces-database/blob/master/json/geojson/80_tay_ninh/wards/25711_hung_thuan.geojson","source_catalog":"https://github.com/thanglequoc/vietnamese-provinces-database"},"geometry":null},{"type":"Feature","id":"25729","properties":{"commune_code":"25729","commune_name":"Phước Chỉ","commune_name_en":"Phuoc Chi","commune_full_name":"Xã Phước Chỉ","commune_full_name_en":"Phuoc Chi Commune","commune_slug":"phuoc_chi","unit_type":"Xã","unit_type_en":"Commune","admin_level":2,"province_code":"80","province_name":"Tây Ninh","province_full_name":"Tỉnh Tây Ninh","province_slug":"tay_ninh","join_key":"25729","status":"active","dataset_effective_date":"2026-04-30","catalog_version":"2026-07-12","geometry_status":"not_embedded_boundary_available_by_url","boundary_source_url":"https://raw.githubusercontent.com/thanglequoc/vietnamese-provinces-database/master/json/geojson/80_tay_ninh/wards/25729_phuoc_chi.geojson","boundary_source_page":"https://github.com/thanglequoc/vietnamese-provinces-database/blob/master/json/geojson/80_tay_ninh/wards/25729_phuoc_chi.geojson","source_catalog":"https://github.com/thanglequoc/vietnamese-provinces-database"},"geometry":null},{"type":"Feature","id":"25732","properties":{"commune_code":"25732","commune_name":"An Tịnh","commune_name_en":"An Tinh","commune_full_name":"Phường An Tịnh","commune_full_name_en":"An Tinh Ward","commune_slug":"an_tinh","unit_type":"Phường","unit_type_en":"Ward","admin_level":2,"province_code":"80","province_name":"Tây Ninh","province_full_name":"Tỉnh Tây Ninh","province_slug":"tay_ninh","join_key":"25732","status":"active","dataset_effective_date":"2026-04-30","catalog_version":"2026-07-12","geometry_status":"not_embedded_boundary_available_by_url","boundary_source_url":"https://raw.githubusercontent.com/thanglequoc/vietnamese-provinces-database/master/json/geojson/80_tay_ninh/wards/25732_an_tinh.geojson","boundary_source_page":"https://github.com/thanglequoc/vietnamese-provinces-database/blob/master/json/geojson/80_tay_ninh/wards/25732_an_tinh.geojson","source_catalog":"https://github.com/thanglequoc/vietnamese-provinces-database"},"geometry":null},{"type":"Feature","id":"27694","properties":{"commune_code":"27694","commune_name":"Long An","commune_name_en":"Long An","commune_full_name":"Phường Long An","commune_full_name_en":"Long An Ward","commune_slug":"long_an","unit_type":"Phường","unit_type_en":"Ward","admin_level":2,"province_code":"80","province_name":"Tây Ninh","province_full_name":"Tỉnh Tây Ninh","province_slug":"tay_ninh","join_key":"27694","status":"active","dataset_effective_date":"2026-04-30","catalog_version":"2026-07-12","geometry_status":"not_embedded_boundary_available_by_url","boundary_source_url":"https://raw.githubusercontent.com/thanglequoc/vietnamese-provinces-database/master/json/geojson/80_tay_ninh/wards/27694_long_an.geojson","boundary_source_page":"https://github.com/thanglequoc/vietnamese-provinces-database/blob/master/json/geojson/80_tay_ninh/wards/27694_long_an.geojson","source_catalog":"https://github.com/thanglequoc/vietnamese-provinces-database"},"geometry":null},{"type":"Feature","id":"27712","properties":{"commune_code":"27712","commune_name":"Tân An","commune_name_en":"Tan An","commune_full_name":"Phường Tân An","commune_full_name_en":"Tan An Ward","commune_slug":"tan_an","unit_type":"Phường","unit_type_en":"Ward","admin_level":2,"province_code":"80","province_name":"Tây Ninh","province_full_name":"Tỉnh Tây Ninh","province_slug":"tay_ninh","join_key":"27712","status":"active","dataset_effective_date":"2026-04-30","catalog_version":"2026-07-12","geometry_status":"not_embedded_boundary_available_by_url","boundary_source_url":"https://raw.githubusercontent.com/thanglequoc/vietnamese-provinces-database/master/json/geojson/80_tay_ninh/wards/27712_tan_an.geojson","boundary_source_page":"https://github.com/thanglequoc/vietnamese-provinces-database/blob/master/json/geojson/80_tay_ninh/wards/27712_tan_an.geojson","source_catalog":"https://github.com/thanglequoc/vietnamese-provinces-database"},"geometry":null},{"type":"Feature","id":"27715","properties":{"commune_code":"27715","commune_name":"Khánh Hậu","commune_name_en":"Khanh Hau","commune_full_name":"Phường Khánh Hậu","commune_full_name_en":"Khanh Hau Ward","commune_slug":"khanh_hau","unit_type":"Phường","unit_type_en":"Ward","admin_level":2,"province_code":"80","province_name":"Tây Ninh","province_full_name":"Tỉnh Tây Ninh","province_slug":"tay_ninh","join_key":"27715","status":"active","dataset_effective_date":"2026-04-30","catalog_version":"2026-07-12","geometry_status":"not_embedded_boundary_available_by_url","boundary_source_url":"https://raw.githubusercontent.com/thanglequoc/vietnamese-provinces-database/master/json/geojson/80_tay_ninh/wards/27715_khanh_hau.geojson","boundary_source_page":"https://github.com/thanglequoc/vietnamese-provinces-database/blob/master/json/geojson/80_tay_ninh/wards/27715_khanh_hau.geojson","source_catalog":"https://github.com/thanglequoc/vietnamese-provinces-database"},"geometry":null},{"type":"Feature","id":"27721","properties":{"commune_code":"27721","commune_name":"Tân Hưng","commune_name_en":"Tan Hung","commune_full_name":"Xã Tân Hưng","commune_full_name_en":"Tan Hung Commune","commune_slug":"tan_hung","unit_type":"Xã","unit_type_en":"Commune","admin_level":2,"province_code":"80","province_name":"Tây Ninh","province_full_name":"Tỉnh Tây Ninh","province_slug":"tay_ninh","join_key":"27721","status":"active","dataset_effective_date":"2026-04-30","catalog_version":"2026-07-12","geometry_status":"not_embedded_boundary_available_by_url","boundary_source_url":"https://raw.githubusercontent.com/thanglequoc/vietnamese-provinces-database/master/json/geojson/80_tay_ninh/wards/27721_tan_hung.geojson","boundary_source_page":"https://github.com/thanglequoc/vietnamese-provinces-database/blob/master/json/geojson/80_tay_ninh/wards/27721_tan_hung.geojson","source_catalog":"https://github.com/thanglequoc/vietnamese-provinces-database"},"geometry":null},{"type":"Feature","id":"27727","properties":{"commune_code":"27727","commune_name":"Hưng Điền","commune_name_en":"Hung Dien","commune_full_name":"Xã Hưng Điền","commune_full_name_en":"Hung Dien Commune","commune_slug":"hung_dien","unit_type":"Xã","unit_type_en":"Commune","admin_level":2,"province_code":"80","province_name":"Tây Ninh","province_full_name":"Tỉnh Tây Ninh","province_slug":"tay_ninh","join_key":"27727","status":"active","dataset_effective_date":"2026-04-30","catalog_version":"2026-07-12","geometry_status":"not_embedded_boundary_available_by_url","boundary_source_url":"https://raw.githubusercontent.com/thanglequoc/vietnamese-provinces-database/master/json/geojson/80_tay_ninh/wards/27727_hung_dien.geojson","boundary_source_page":"https://github.com/thanglequoc/vietnamese-provinces-database/blob/master/json/geojson/80_tay_ninh/wards/27727_hung_dien.geojson","source_catalog":"https://github.com/thanglequoc/vietnamese-provinces-database"},"geometry":null},{"type":"Feature","id":"27736","properties":{"commune_code":"27736","commune_name":"Vĩnh Thạnh","commune_name_en":"Vinh Thanh","commune_full_name":"Xã Vĩnh Thạnh","commune_full_name_en":"Vinh Thanh Commune","commune_slug":"vinh_thanh","unit_type":"Xã","unit_type_en":"Commune","admin_level":2,"province_code":"80","province_name":"Tây Ninh","province_full_name":"Tỉnh Tây Ninh","province_slug":"tay_ninh","join_key":"27736","status":"active","dataset_effective_date":"2026-04-30","catalog_version":"2026-07-12","geometry_status":"not_embedded_boundary_available_by_url","boundary_source_url":"https://raw.githubusercontent.com/thanglequoc/vietnamese-provinces-database/master/json/geojson/80_tay_ninh/wards/27736_vinh_thanh.geojson","boundary_source_page":"https://github.com/thanglequoc/vietnamese-provinces-database/blob/master/json/geojson/80_tay_ninh/wards/27736_vinh_thanh.geojson","source_catalog":"https://github.com/thanglequoc/vietnamese-provinces-database"},"geometry":null},{"type":"Feature","id":"27748","properties":{"commune_code":"27748","commune_name":"Vĩnh Châu","commune_name_en":"Vinh Chau","commune_full_name":"Xã Vĩnh Châu","commune_full_name_en":"Vinh Chau Commune","commune_slug":"vinh_chau","unit_type":"Xã","unit_type_en":"Commune","admin_level":2,"province_code":"80","province_name":"Tây Ninh","province_full_name":"Tỉnh Tây Ninh","province_slug":"tay_ninh","join_key":"27748","status":"active","dataset_effective_date":"2026-04-30","catalog_version":"2026-07-12","geometry_status":"not_embedded_boundary_available_by_url","boundary_source_url":"https://raw.githubusercontent.com/thanglequoc/vietnamese-provinces-database/master/json/geojson/80_tay_ninh/wards/27748_vinh_chau.geojson","boundary_source_page":"https://github.com/thanglequoc/vietnamese-provinces-database/blob/master/json/geojson/80_tay_ninh/wards/27748_vinh_chau.geojson","source_catalog":"https://github.com/thanglequoc/vietnamese-provinces-database"},"geometry":null},{"type":"Feature","id":"27757","properties":{"commune_code":"27757","commune_name":"Vĩnh Hưng","commune_name_en":"Vinh Hung","commune_full_name":"Xã Vĩnh Hưng","commune_full_name_en":"Vinh Hung Commune","commune_slug":"vinh_hung","unit_type":"Xã","unit_type_en":"Commune","admin_level":2,"province_code":"80","province_name":"Tây Ninh","province_full_name":"Tỉnh Tây Ninh","province_slug":"tay_ninh","join_key":"27757","status":"active","dataset_effective_date":"2026-04-30","catalog_version":"2026-07-12","geometry_status":"not_embedded_boundary_available_by_url","boundary_source_url":"https://raw.githubusercontent.com/thanglequoc/vietnamese-provinces-database/master/json/geojson/80_tay_ninh/wards/27757_vinh_hung.geojson","boundary_source_page":"https://github.com/thanglequoc/vietnamese-provinces-database/blob/master/json/geojson/80_tay_ninh/wards/27757_vinh_hung.geojson","source_catalog":"https://github.com/thanglequoc/vietnamese-provinces-database"},"geometry":null},{"type":"Feature","id":"27763","properties":{"commune_code":"27763","commune_name":"Khánh Hưng","commune_name_en":"Khanh Hung","commune_full_name":"Xã Khánh Hưng","commune_full_name_en":"Khanh Hung Commune","commune_slug":"khanh_hung","unit_type":"Xã","unit_type_en":"Commune","admin_level":2,"province_code":"80","province_name":"Tây Ninh","province_full_name":"Tỉnh Tây Ninh","province_slug":"tay_ninh","join_key":"27763","status":"active","dataset_effective_date":"2026-04-30","catalog_version":"2026-07-12","geometry_status":"not_embedded_boundary_available_by_url","boundary_source_url":"https://raw.githubusercontent.com/thanglequoc/vietnamese-provinces-database/master/json/geojson/80_tay_ninh/wards/27763_khanh_hung.geojson","boundary_source_page":"https://github.com/thanglequoc/vietnamese-provinces-database/blob/master/json/geojson/80_tay_ninh/wards/27763_khanh_hung.geojson","source_catalog":"https://github.com/thanglequoc/vietnamese-provinces-database"},"geometry":null},{"type":"Feature","id":"27775","properties":{"commune_code":"27775","commune_name":"Tuyên Bình","commune_name_en":"Tuyen Binh","commune_full_name":"Xã Tuyên Bình","commune_full_name_en":"Tuyen Binh Commune","commune_slug":"tuyen_binh","unit_type":"Xã","unit_type_en":"Commune","admin_level":2,"province_code":"80","province_name":"Tây Ninh","province_full_name":"Tỉnh Tây Ninh","province_slug":"tay_ninh","join_key":"27775","status":"active","dataset_effective_date":"2026-04-30","catalog_version":"2026-07-12","geometry_status":"not_embedded_boundary_available_by_url","boundary_source_url":"https://raw.githubusercontent.com/thanglequoc/vietnamese-provinces-database/master/json/geojson/80_tay_ninh/wards/27775_tuyen_binh.geojson","boundary_source_page":"https://github.com/thanglequoc/vietnamese-provinces-database/blob/master/json/geojson/80_tay_ninh/wards/27775_tuyen_binh.geojson","source_catalog":"https://github.com/thanglequoc/vietnamese-provinces-database"},"geometry":null},{"type":"Feature","id":"27787","properties":{"commune_code":"27787","commune_name":"Kiến Tường","commune_name_en":"Kien Tuong","commune_full_name":"Phường Kiến Tường","commune_full_name_en":"Kien Tuong Ward","commune_slug":"kien_tuong","unit_type":"Phường","unit_type_en":"Ward","admin_level":2,"province_code":"80","province_name":"Tây Ninh","province_full_name":"Tỉnh Tây Ninh","province_slug":"tay_ninh","join_key":"27787","status":"active","dataset_effective_date":"2026-04-30","catalog_version":"2026-07-12","geometry_status":"not_embedded_boundary_available_by_url","boundary_source_url":"https://raw.githubusercontent.com/thanglequoc/vietnamese-provinces-database/master/json/geojson/80_tay_ninh/wards/27787_kien_tuong.geojson","boundary_source_page":"https://github.com/thanglequoc/vietnamese-provinces-database/blob/master/json/geojson/80_tay_ninh/wards/27787_kien_tuong.geojson","source_catalog":"https://github.com/thanglequoc/vietnamese-provinces-database"},"geometry":null},{"type":"Feature","id":"27793","properties":{"commune_code":"27793","commune_name":"Bình Hiệp","commune_name_en":"Binh Hiep","commune_full_name":"Xã Bình Hiệp","commune_full_name_en":"Binh Hiep Commune","commune_slug":"binh_hiep","unit_type":"Xã","unit_type_en":"Commune","admin_level":2,"province_code":"80","province_name":"Tây Ninh","province_full_name":"Tỉnh Tây Ninh","province_slug":"tay_ninh","join_key":"27793","status":"active","dataset_effective_date":"2026-04-30","catalog_version":"2026-07-12","geometry_status":"not_embedded_boundary_available_by_url","boundary_source_url":"https://raw.githubusercontent.com/thanglequoc/vietnamese-provinces-database/master/json/geojson/80_tay_ninh/wards/27793_binh_hiep.geojson","boundary_source_page":"https://github.com/thanglequoc/vietnamese-provinces-database/blob/master/json/geojson/80_tay_ninh/wards/27793_binh_hiep.geojson","source_catalog":"https://github.com/thanglequoc/vietnamese-provinces-database"},"geometry":null},{"type":"Feature","id":"27811","properties":{"commune_code":"27811","commune_name":"Bình Hoà","commune_name_en":"Binh Hoa","commune_full_name":"Xã Bình Hoà","commune_full_name_en":"Binh Hoa Commune","commune_slug":"binh_hoa","unit_type":"Xã","unit_type_en":"Commune","admin_level":2,"province_code":"80","province_name":"Tây Ninh","province_full_name":"Tỉnh Tây Ninh","province_slug":"tay_ninh","join_key":"27811","status":"active","dataset_effective_date":"2026-04-30","catalog_version":"2026-07-12","geometry_status":"not_embedded_boundary_available_by_url","boundary_source_url":"https://raw.githubusercontent.com/thanglequoc/vietnamese-provinces-database/master/json/geojson/80_tay_ninh/wards/27811_binh_hoa.geojson","boundary_source_page":"https://github.com/thanglequoc/vietnamese-provinces-database/blob/master/json/geojson/80_tay_ninh/wards/27811_binh_hoa.geojson","source_catalog":"https://github.com/thanglequoc/vietnamese-provinces-database"},"geometry":null},{"type":"Feature","id":"27817","properties":{"commune_code":"27817","commune_name":"Tuyên Thạnh","commune_name_en":"Tuyen Thanh","commune_full_name":"Xã Tuyên Thạnh","commune_full_name_en":"Tuyen Thanh Commune","commune_slug":"tuyen_thanh","unit_type":"Xã","unit_type_en":"Commune","admin_level":2,"province_code":"80","province_name":"Tây Ninh","province_full_name":"Tỉnh Tây Ninh","province_slug":"tay_ninh","join_key":"27817","status":"active","dataset_effective_date":"2026-04-30","catalog_version":"2026-07-12","geometry_status":"not_embedded_boundary_available_by_url","boundary_source_url":"https://raw.githubusercontent.com/thanglequoc/vietnamese-provinces-database/master/json/geojson/80_tay_ninh/wards/27817_tuyen_thanh.geojson","boundary_source_page":"https://github.com/thanglequoc/vietnamese-provinces-database/blob/master/json/geojson/80_tay_ninh/wards/27817_tuyen_thanh.geojson","source_catalog":"https://github.com/thanglequoc/vietnamese-provinces-database"},"geometry":null},{"type":"Feature","id":"27823","properties":{"commune_code":"27823","commune_name":"Mộc Hoá","commune_name_en":"Moc Hoa","commune_full_name":"Xã Mộc Hoá","commune_full_name_en":"Moc Hoa Commune","commune_slug":"moc_hoa","unit_type":"Xã","unit_type_en":"Commune","admin_level":2,"province_code":"80","province_name":"Tây Ninh","province_full_name":"Tỉnh Tây Ninh","province_slug":"tay_ninh","join_key":"27823","status":"active","dataset_effective_date":"2026-04-30","catalog_version":"2026-07-12","geometry_status":"not_embedded_boundary_available_by_url","boundary_source_url":"https://raw.githubusercontent.com/thanglequoc/vietnamese-provinces-database/master/json/geojson/80_tay_ninh/wards/27823_moc_hoa.geojson","boundary_source_page":"https://github.com/thanglequoc/vietnamese-provinces-database/blob/master/json/geojson/80_tay_ninh/wards/27823_moc_hoa.geojson","source_catalog":"https://github.com/thanglequoc/vietnamese-provinces-database"},"geometry":null},{"type":"Feature","id":"27826","properties":{"commune_code":"27826","commune_name":"Tân Thạnh","commune_name_en":"Tan Thanh","commune_full_name":"Xã Tân Thạnh","commune_full_name_en":"Tan Thanh Commune","commune_slug":"tan_thanh","unit_type":"Xã","unit_type_en":"Commune","admin_level":2,"province_code":"80","province_name":"Tây Ninh","province_full_name":"Tỉnh Tây Ninh","province_slug":"tay_ninh","join_key":"27826","status":"active","dataset_effective_date":"2026-04-30","catalog_version":"2026-07-12","geometry_status":"not_embedded_boundary_available_by_url","boundary_source_url":"https://raw.githubusercontent.com/thanglequoc/vietnamese-provinces-database/master/json/geojson/80_tay_ninh/wards/27826_tan_thanh.geojson","boundary_source_page":"https://github.com/thanglequoc/vietnamese-provinces-database/blob/master/json/geojson/80_tay_ninh/wards/27826_tan_thanh.geojson","source_catalog":"https://github.com/thanglequoc/vietnamese-provinces-database"},"geometry":null},{"type":"Feature","id":"27838","properties":{"commune_code":"27838","commune_name":"Nhơn Hoà Lập","commune_name_en":"Nhon Hoa Lap","commune_full_name":"Xã Nhơn Hoà Lập","commune_full_name_en":"Nhon Hoa Lap Commune","commune_slug":"nhon_hoa_lap","unit_type":"Xã","unit_type_en":"Commune","admin_level":2,"province_code":"80","province_name":"Tây Ninh","province_full_name":"Tỉnh Tây Ninh","province_slug":"tay_ninh","join_key":"27838","status":"active","dataset_effective_date":"2026-04-30","catalog_version":"2026-07-12","geometry_status":"not_embedded_boundary_available_by_url","boundary_source_url":"https://raw.githubusercontent.com/thanglequoc/vietnamese-provinces-database/master/json/geojson/80_tay_ninh/wards/27838_nhon_hoa_lap.geojson","boundary_source_page":"https://github.com/thanglequoc/vietnamese-provinces-database/blob/master/json/geojson/80_tay_ninh/wards/27838_nhon_hoa_lap.geojson","source_catalog":"https://github.com/thanglequoc/vietnamese-provinces-database"},"geometry":null},{"type":"Feature","id":"27841","properties":{"commune_code":"27841","commune_name":"Hậu Thạnh","commune_name_en":"Hau Thanh","commune_full_name":"Xã Hậu Thạnh","commune_full_name_en":"Hau Thanh Commune","commune_slug":"hau_thanh","unit_type":"Xã","unit_type_en":"Commune","admin_level":2,"province_code":"80","province_name":"Tây Ninh","province_full_name":"Tỉnh Tây Ninh","province_slug":"tay_ninh","join_key":"27841","status":"active","dataset_effective_date":"2026-04-30","catalog_version":"2026-07-12","geometry_status":"not_embedded_boundary_available_by_url","boundary_source_url":"https://raw.githubusercontent.com/thanglequoc/vietnamese-provinces-database/master/json/geojson/80_tay_ninh/wards/27841_hau_thanh.geojson","boundary_source_page":"https://github.com/thanglequoc/vietnamese-provinces-database/blob/master/json/geojson/80_tay_ninh/wards/27841_hau_thanh.geojson","source_catalog":"https://github.com/thanglequoc/vietnamese-provinces-database"},"geometry":null},{"type":"Feature","id":"27856","properties":{"commune_code":"27856","commune_name":"Nhơn Ninh","commune_name_en":"Nhon Ninh","commune_full_name":"Xã Nhơn Ninh","commune_full_name_en":"Nhon Ninh Commune","commune_slug":"nhon_ninh","unit_type":"Xã","unit_type_en":"Commune","admin_level":2,"province_code":"80","province_name":"Tây Ninh","province_full_name":"Tỉnh Tây Ninh","province_slug":"tay_ninh","join_key":"27856","status":"active","dataset_effective_date":"2026-04-30","catalog_version":"2026-07-12","geometry_status":"not_embedded_boundary_available_by_url","boundary_source_url":"https://raw.githubusercontent.com/thanglequoc/vietnamese-provinces-database/master/json/geojson/80_tay_ninh/wards/27856_nhon_ninh.geojson","boundary_source_page":"https://github.com/thanglequoc/vietnamese-provinces-database/blob/master/json/geojson/80_tay_ninh/wards/27856_nhon_ninh.geojson","source_catalog":"https://github.com/thanglequoc/vietnamese-provinces-database"},"geometry":null},{"type":"Feature","id":"27865","properties":{"commune_code":"27865","commune_name":"Thạnh Hoá","commune_name_en":"Thanh Hoa","commune_full_name":"Xã Thạnh Hoá","commune_full_name_en":"Thanh Hoa Commune","commune_slug":"thanh_hoa","unit_type":"Xã","unit_type_en":"Commune","admin_level":2,"province_code":"80","province_name":"Tây Ninh","province_full_name":"Tỉnh Tây Ninh","province_slug":"tay_ninh","join_key":"27865","status":"active","dataset_effective_date":"2026-04-30","catalog_version":"2026-07-12","geometry_status":"not_embedded_boundary_available_by_url","boundary_source_url":"https://raw.githubusercontent.com/thanglequoc/vietnamese-provinces-database/master/json/geojson/80_tay_ninh/wards/27865_thanh_hoa.geojson","boundary_source_page":"https://github.com/thanglequoc/vietnamese-provinces-database/blob/master/json/geojson/80_tay_ninh/wards/27865_thanh_hoa.geojson","source_catalog":"https://github.com/thanglequoc/vietnamese-provinces-database"},"geometry":null},{"type":"Feature","id":"27868","properties":{"commune_code":"27868","commune_name":"Bình Thành","commune_name_en":"Binh Thanh","commune_full_name":"Xã Bình Thành","commune_full_name_en":"Binh Thanh Commune","commune_slug":"binh_thanh","unit_type":"Xã","unit_type_en":"Commune","admin_level":2,"province_code":"80","province_name":"Tây Ninh","province_full_name":"Tỉnh Tây Ninh","province_slug":"tay_ninh","join_key":"27868","status":"active","dataset_effective_date":"2026-04-30","catalog_version":"2026-07-12","geometry_status":"not_embedded_boundary_available_by_url","boundary_source_url":"https://raw.githubusercontent.com/thanglequoc/vietnamese-provinces-database/master/json/geojson/80_tay_ninh/wards/27868_binh_thanh.geojson","boundary_source_page":"https://github.com/thanglequoc/vietnamese-provinces-database/blob/master/json/geojson/80_tay_ninh/wards/27868_binh_thanh.geojson","source_catalog":"https://github.com/thanglequoc/vietnamese-provinces-database"},"geometry":null},{"type":"Feature","id":"27877","properties":{"commune_code":"27877","commune_name":"Thạnh Phước","commune_name_en":"Thanh Phuoc","commune_full_name":"Xã Thạnh Phước","commune_full_name_en":"Thanh Phuoc Commune","commune_slug":"thanh_phuoc","unit_type":"Xã","unit_type_en":"Commune","admin_level":2,"province_code":"80","province_name":"Tây Ninh","province_full_name":"Tỉnh Tây Ninh","province_slug":"tay_ninh","join_key":"27877","status":"active","dataset_effective_date":"2026-04-30","catalog_version":"2026-07-12","geometry_status":"not_embedded_boundary_available_by_url","boundary_source_url":"https://raw.githubusercontent.com/thanglequoc/vietnamese-provinces-database/master/json/geojson/80_tay_ninh/wards/27877_thanh_phuoc.geojson","boundary_source_page":"https://github.com/thanglequoc/vietnamese-provinces-database/blob/master/json/geojson/80_tay_ninh/wards/27877_thanh_phuoc.geojson","source_catalog":"https://github.com/thanglequoc/vietnamese-provinces-database"},"geometry":null},{"type":"Feature","id":"27889","properties":{"commune_code":"27889","commune_name":"Tân Tây","commune_name_en":"Tan Tay","commune_full_name":"Xã Tân Tây","commune_full_name_en":"Tan Tay Commune","commune_slug":"tan_tay","unit_type":"Xã","unit_type_en":"Commune","admin_level":2,"province_code":"80","province_name":"Tây Ninh","province_full_name":"Tỉnh Tây Ninh","province_slug":"tay_ninh","join_key":"27889","status":"active","dataset_effective_date":"2026-04-30","catalog_version":"2026-07-12","geometry_status":"not_embedded_boundary_available_by_url","boundary_source_url":"https://raw.githubusercontent.com/thanglequoc/vietnamese-provinces-database/master/json/geojson/80_tay_ninh/wards/27889_tan_tay.geojson","boundary_source_page":"https://github.com/thanglequoc/vietnamese-provinces-database/blob/master/json/geojson/80_tay_ninh/wards/27889_tan_tay.geojson","source_catalog":"https://github.com/thanglequoc/vietnamese-provinces-database"},"geometry":null},{"type":"Feature","id":"27898","properties":{"commune_code":"27898","commune_name":"Đông Thành","commune_name_en":"Dong Thanh","commune_full_name":"Xã Đông Thành","commune_full_name_en":"Dong Thanh Commune","commune_slug":"dong_thanh","unit_type":"Xã","unit_type_en":"Commune","admin_level":2,"province_code":"80","province_name":"Tây Ninh","province_full_name":"Tỉnh Tây Ninh","province_slug":"tay_ninh","join_key":"27898","status":"active","dataset_effective_date":"2026-04-30","catalog_version":"2026-07-12","geometry_status":"not_embedded_boundary_available_by_url","boundary_source_url":"https://raw.githubusercontent.com/thanglequoc/vietnamese-provinces-database/master/json/geojson/80_tay_ninh/wards/27898_dong_thanh.geojson","boundary_source_page":"https://github.com/thanglequoc/vietnamese-provinces-database/blob/master/json/geojson/80_tay_ninh/wards/27898_dong_thanh.geojson","source_catalog":"https://github.com/thanglequoc/vietnamese-provinces-database"},"geometry":null},{"type":"Feature","id":"27907","properties":{"commune_code":"27907","commune_name":"Mỹ Quý","commune_name_en":"My Quy","commune_full_name":"Xã Mỹ Quý","commune_full_name_en":"My Quy Commune","commune_slug":"my_quy","unit_type":"Xã","unit_type_en":"Commune","admin_level":2,"province_code":"80","province_name":"Tây Ninh","province_full_name":"Tỉnh Tây Ninh","province_slug":"tay_ninh","join_key":"27907","status":"active","dataset_effective_date":"2026-04-30","catalog_version":"2026-07-12","geometry_status":"not_embedded_boundary_available_by_url","boundary_source_url":"https://raw.githubusercontent.com/thanglequoc/vietnamese-provinces-database/master/json/geojson/80_tay_ninh/wards/27907_my_quy.geojson","boundary_source_page":"https://github.com/thanglequoc/vietnamese-provinces-database/blob/master/json/geojson/80_tay_ninh/wards/27907_my_quy.geojson","source_catalog":"https://github.com/thanglequoc/vietnamese-provinces-database"},"geometry":null},{"type":"Feature","id":"27925","properties":{"commune_code":"27925","commune_name":"Đức Huệ","commune_name_en":"Duc Hue","commune_full_name":"Xã Đức Huệ","commune_full_name_en":"Duc Hue Commune","commune_slug":"duc_hue","unit_type":"Xã","unit_type_en":"Commune","admin_level":2,"province_code":"80","province_name":"Tây Ninh","province_full_name":"Tỉnh Tây Ninh","province_slug":"tay_ninh","join_key":"27925","status":"active","dataset_effective_date":"2026-04-30","catalog_version":"2026-07-12","geometry_status":"not_embedded_boundary_available_by_url","boundary_source_url":"https://raw.githubusercontent.com/thanglequoc/vietnamese-provinces-database/master/json/geojson/80_tay_ninh/wards/27925_duc_hue.geojson","boundary_source_page":"https://github.com/thanglequoc/vietnamese-provinces-database/blob/master/json/geojson/80_tay_ninh/wards/27925_duc_hue.geojson","source_catalog":"https://github.com/thanglequoc/vietnamese-provinces-database"},"geometry":null},{"type":"Feature","id":"27931","properties":{"commune_code":"27931","commune_name":"Hậu Nghĩa","commune_name_en":"Hau Nghia","commune_full_name":"Xã Hậu Nghĩa","commune_full_name_en":"Hau Nghia Commune","commune_slug":"hau_nghia","unit_type":"Xã","unit_type_en":"Commune","admin_level":2,"province_code":"80","province_name":"Tây Ninh","province_full_name":"Tỉnh Tây Ninh","province_slug":"tay_ninh","join_key":"27931","status":"active","dataset_effective_date":"2026-04-30","catalog_version":"2026-07-12","geometry_status":"not_embedded_boundary_available_by_url","boundary_source_url":"https://raw.githubusercontent.com/thanglequoc/vietnamese-provinces-database/master/json/geojson/80_tay_ninh/wards/27931_hau_nghia.geojson","boundary_source_page":"https://github.com/thanglequoc/vietnamese-provinces-database/blob/master/json/geojson/80_tay_ninh/wards/27931_hau_nghia.geojson","source_catalog":"https://github.com/thanglequoc/vietnamese-provinces-database"},"geometry":null},{"type":"Feature","id":"27937","properties":{"commune_code":"27937","commune_name":"Đức Hoà","commune_name_en":"Duc Hoa","commune_full_name":"Xã Đức Hoà","commune_full_name_en":"Duc Hoa Commune","commune_slug":"duc_hoa","unit_type":"Xã","unit_type_en":"Commune","admin_level":2,"province_code":"80","province_name":"Tây Ninh","province_full_name":"Tỉnh Tây Ninh","province_slug":"tay_ninh","join_key":"27937","status":"active","dataset_effective_date":"2026-04-30","catalog_version":"2026-07-12","geometry_status":"not_embedded_boundary_available_by_url","boundary_source_url":"https://raw.githubusercontent.com/thanglequoc/vietnamese-provinces-database/master/json/geojson/80_tay_ninh/wards/27937_duc_hoa.geojson","boundary_source_page":"https://github.com/thanglequoc/vietnamese-provinces-database/blob/master/json/geojson/80_tay_ninh/wards/27937_duc_hoa.geojson","source_catalog":"https://github.com/thanglequoc/vietnamese-provinces-database"},"geometry":null},{"type":"Feature","id":"27943","properties":{"commune_code":"27943","commune_name":"An Ninh","commune_name_en":"An Ninh","commune_full_name":"Xã An Ninh","commune_full_name_en":"An Ninh Commune","commune_slug":"an_ninh","unit_type":"Xã","unit_type_en":"Commune","admin_level":2,"province_code":"80","province_name":"Tây Ninh","province_full_name":"Tỉnh Tây Ninh","province_slug":"tay_ninh","join_key":"27943","status":"active","dataset_effective_date":"2026-04-30","catalog_version":"2026-07-12","geometry_status":"not_embedded_boundary_available_by_url","boundary_source_url":"https://raw.githubusercontent.com/thanglequoc/vietnamese-provinces-database/master/json/geojson/80_tay_ninh/wards/27943_an_ninh.geojson","boundary_source_page":"https://github.com/thanglequoc/vietnamese-provinces-database/blob/master/json/geojson/80_tay_ninh/wards/27943_an_ninh.geojson","source_catalog":"https://github.com/thanglequoc/vietnamese-provinces-database"},"geometry":null},{"type":"Feature","id":"27952","properties":{"commune_code":"27952","commune_name":"Hiệp Hoà","commune_name_en":"Hiep Hoa","commune_full_name":"Xã Hiệp Hoà","commune_full_name_en":"Hiep Hoa Commune","commune_slug":"hiep_hoa","unit_type":"Xã","unit_type_en":"Commune","admin_level":2,"province_code":"80","province_name":"Tây Ninh","province_full_name":"Tỉnh Tây Ninh","province_slug":"tay_ninh","join_key":"27952","status":"active","dataset_effective_date":"2026-04-30","catalog_version":"2026-07-12","geometry_status":"not_embedded_boundary_available_by_url","boundary_source_url":"https://raw.githubusercontent.com/thanglequoc/vietnamese-provinces-database/master/json/geojson/80_tay_ninh/wards/27952_hiep_hoa.geojson","boundary_source_page":"https://github.com/thanglequoc/vietnamese-provinces-database/blob/master/json/geojson/80_tay_ninh/wards/27952_hiep_hoa.geojson","source_catalog":"https://github.com/thanglequoc/vietnamese-provinces-database"},"geometry":null},{"type":"Feature","id":"27964","properties":{"commune_code":"27964","commune_name":"Đức Lập","commune_name_en":"Duc Lap","commune_full_name":"Xã Đức Lập","commune_full_name_en":"Duc Lap Commune","commune_slug":"duc_lap","unit_type":"Xã","unit_type_en":"Commune","admin_level":2,"province_code":"80","province_name":"Tây Ninh","province_full_name":"Tỉnh Tây Ninh","province_slug":"tay_ninh","join_key":"27964","status":"active","dataset_effective_date":"2026-04-30","catalog_version":"2026-07-12","geometry_status":"not_embedded_boundary_available_by_url","boundary_source_url":"https://raw.githubusercontent.com/thanglequoc/vietnamese-provinces-database/master/json/geojson/80_tay_ninh/wards/27964_duc_lap.geojson","boundary_source_page":"https://github.com/thanglequoc/vietnamese-provinces-database/blob/master/json/geojson/80_tay_ninh/wards/27964_duc_lap.geojson","source_catalog":"https://github.com/thanglequoc/vietnamese-provinces-database"},"geometry":null},{"type":"Feature","id":"27976","properties":{"commune_code":"27976","commune_name":"Mỹ Hạnh","commune_name_en":"My Hanh","commune_full_name":"Xã Mỹ Hạnh","commune_full_name_en":"My Hanh Commune","commune_slug":"my_hanh","unit_type":"Xã","unit_type_en":"Commune","admin_level":2,"province_code":"80","province_name":"Tây Ninh","province_full_name":"Tỉnh Tây Ninh","province_slug":"tay_ninh","join_key":"27976","status":"active","dataset_effective_date":"2026-04-30","catalog_version":"2026-07-12","geometry_status":"not_embedded_boundary_available_by_url","boundary_source_url":"https://raw.githubusercontent.com/thanglequoc/vietnamese-provinces-database/master/json/geojson/80_tay_ninh/wards/27976_my_hanh.geojson","boundary_source_page":"https://github.com/thanglequoc/vietnamese-provinces-database/blob/master/json/geojson/80_tay_ninh/wards/27976_my_hanh.geojson","source_catalog":"https://github.com/thanglequoc/vietnamese-provinces-database"},"geometry":null},{"type":"Feature","id":"27979","properties":{"commune_code":"27979","commune_name":"Hoà Khánh","commune_name_en":"Hoa Khanh","commune_full_name":"Xã Hoà Khánh","commune_full_name_en":"Hoa Khanh Commune","commune_slug":"hoa_khanh","unit_type":"Xã","unit_type_en":"Commune","admin_level":2,"province_code":"80","province_name":"Tây Ninh","province_full_name":"Tỉnh Tây Ninh","province_slug":"tay_ninh","join_key":"27979","status":"active","dataset_effective_date":"2026-04-30","catalog_version":"2026-07-12","geometry_status":"not_embedded_boundary_available_by_url","boundary_source_url":"https://raw.githubusercontent.com/thanglequoc/vietnamese-provinces-database/master/json/geojson/80_tay_ninh/wards/27979_hoa_khanh.geojson","boundary_source_page":"https://github.com/thanglequoc/vietnamese-provinces-database/blob/master/json/geojson/80_tay_ninh/wards/27979_hoa_khanh.geojson","source_catalog":"https://github.com/thanglequoc/vietnamese-provinces-database"},"geometry":null},{"type":"Feature","id":"27991","properties":{"commune_code":"27991","commune_name":"Bến Lức","commune_name_en":"Ben Luc","commune_full_name":"Xã Bến Lức","commune_full_name_en":"Ben Luc Commune","commune_slug":"ben_luc","unit_type":"Xã","unit_type_en":"Commune","admin_level":2,"province_code":"80","province_name":"Tây Ninh","province_full_name":"Tỉnh Tây Ninh","province_slug":"tay_ninh","join_key":"27991","status":"active","dataset_effective_date":"2026-04-30","catalog_version":"2026-07-12","geometry_status":"not_embedded_boundary_available_by_url","boundary_source_url":"https://raw.githubusercontent.com/thanglequoc/vietnamese-provinces-database/master/json/geojson/80_tay_ninh/wards/27991_ben_luc.geojson","boundary_source_page":"https://github.com/thanglequoc/vietnamese-provinces-database/blob/master/json/geojson/80_tay_ninh/wards/27991_ben_luc.geojson","source_catalog":"https://github.com/thanglequoc/vietnamese-provinces-database"},"geometry":null},{"type":"Feature","id":"27994","properties":{"commune_code":"27994","commune_name":"Thạnh Lợi","commune_name_en":"Thanh Loi","commune_full_name":"Xã Thạnh Lợi","commune_full_name_en":"Thanh Loi Commune","commune_slug":"thanh_loi","unit_type":"Xã","unit_type_en":"Commune","admin_level":2,"province_code":"80","province_name":"Tây Ninh","province_full_name":"Tỉnh Tây Ninh","province_slug":"tay_ninh","join_key":"27994","status":"active","dataset_effective_date":"2026-04-30","catalog_version":"2026-07-12","geometry_status":"not_embedded_boundary_available_by_url","boundary_source_url":"https://raw.githubusercontent.com/thanglequoc/vietnamese-provinces-database/master/json/geojson/80_tay_ninh/wards/27994_thanh_loi.geojson","boundary_source_page":"https://github.com/thanglequoc/vietnamese-provinces-database/blob/master/json/geojson/80_tay_ninh/wards/27994_thanh_loi.geojson","source_catalog":"https://github.com/thanglequoc/vietnamese-provinces-database"},"geometry":null},{"type":"Feature","id":"28003","properties":{"commune_code":"28003","commune_name":"Lương Hoà","commune_name_en":"Luong Hoa","commune_full_name":"Xã Lương Hoà","commune_full_name_en":"Luong Hoa Commune","commune_slug":"luong_hoa","unit_type":"Xã","unit_type_en":"Commune","admin_level":2,"province_code":"80","province_name":"Tây Ninh","province_full_name":"Tỉnh Tây Ninh","province_slug":"tay_ninh","join_key":"28003","status":"active","dataset_effective_date":"2026-04-30","catalog_version":"2026-07-12","geometry_status":"not_embedded_boundary_available_by_url","boundary_source_url":"https://raw.githubusercontent.com/thanglequoc/vietnamese-provinces-database/master/json/geojson/80_tay_ninh/wards/28003_luong_hoa.geojson","boundary_source_page":"https://github.com/thanglequoc/vietnamese-provinces-database/blob/master/json/geojson/80_tay_ninh/wards/28003_luong_hoa.geojson","source_catalog":"https://github.com/thanglequoc/vietnamese-provinces-database"},"geometry":null},{"type":"Feature","id":"28015","properties":{"commune_code":"28015","commune_name":"Bình Đức","commune_name_en":"Binh Duc","commune_full_name":"Xã Bình Đức","commune_full_name_en":"Binh Duc Commune","commune_slug":"binh_duc","unit_type":"Xã","unit_type_en":"Commune","admin_level":2,"province_code":"80","province_name":"Tây Ninh","province_full_name":"Tỉnh Tây Ninh","province_slug":"tay_ninh","join_key":"28015","status":"active","dataset_effective_date":"2026-04-30","catalog_version":"2026-07-12","geometry_status":"not_embedded_boundary_available_by_url","boundary_source_url":"https://raw.githubusercontent.com/thanglequoc/vietnamese-provinces-database/master/json/geojson/80_tay_ninh/wards/28015_binh_duc.geojson","boundary_source_page":"https://github.com/thanglequoc/vietnamese-provinces-database/blob/master/json/geojson/80_tay_ninh/wards/28015_binh_duc.geojson","source_catalog":"https://github.com/thanglequoc/vietnamese-provinces-database"},"geometry":null},{"type":"Feature","id":"28018","properties":{"commune_code":"28018","commune_name":"Mỹ Yên","commune_name_en":"My Yen","commune_full_name":"Xã Mỹ Yên","commune_full_name_en":"My Yen Commune","commune_slug":"my_yen","unit_type":"Xã","unit_type_en":"Commune","admin_level":2,"province_code":"80","province_name":"Tây Ninh","province_full_name":"Tỉnh Tây Ninh","province_slug":"tay_ninh","join_key":"28018","status":"active","dataset_effective_date":"2026-04-30","catalog_version":"2026-07-12","geometry_status":"not_embedded_boundary_available_by_url","boundary_source_url":"https://raw.githubusercontent.com/thanglequoc/vietnamese-provinces-database/master/json/geojson/80_tay_ninh/wards/28018_my_yen.geojson","boundary_source_page":"https://github.com/thanglequoc/vietnamese-provinces-database/blob/master/json/geojson/80_tay_ninh/wards/28018_my_yen.geojson","source_catalog":"https://github.com/thanglequoc/vietnamese-provinces-database"},"geometry":null},{"type":"Feature","id":"28036","properties":{"commune_code":"28036","commune_name":"Thủ Thừa","commune_name_en":"Thu Thua","commune_full_name":"Xã Thủ Thừa","commune_full_name_en":"Thu Thua Commune","commune_slug":"thu_thua","unit_type":"Xã","unit_type_en":"Commune","admin_level":2,"province_code":"80","province_name":"Tây Ninh","province_full_name":"Tỉnh Tây Ninh","province_slug":"tay_ninh","join_key":"28036","status":"active","dataset_effective_date":"2026-04-30","catalog_version":"2026-07-12","geometry_status":"not_embedded_boundary_available_by_url","boundary_source_url":"https://raw.githubusercontent.com/thanglequoc/vietnamese-provinces-database/master/json/geojson/80_tay_ninh/wards/28036_thu_thua.geojson","boundary_source_page":"https://github.com/thanglequoc/vietnamese-provinces-database/blob/master/json/geojson/80_tay_ninh/wards/28036_thu_thua.geojson","source_catalog":"https://github.com/thanglequoc/vietnamese-provinces-database"},"geometry":null},{"type":"Feature","id":"28051","properties":{"commune_code":"28051","commune_name":"Mỹ Thạnh","commune_name_en":"My Thanh","commune_full_name":"Xã Mỹ Thạnh","commune_full_name_en":"My Thanh Commune","commune_slug":"my_thanh","unit_type":"Xã","unit_type_en":"Commune","admin_level":2,"province_code":"80","province_name":"Tây Ninh","province_full_name":"Tỉnh Tây Ninh","province_slug":"tay_ninh","join_key":"28051","status":"active","dataset_effective_date":"2026-04-30","catalog_version":"2026-07-12","geometry_status":"not_embedded_boundary_available_by_url","boundary_source_url":"https://raw.githubusercontent.com/thanglequoc/vietnamese-provinces-database/master/json/geojson/80_tay_ninh/wards/28051_my_thanh.geojson","boundary_source_page":"https://github.com/thanglequoc/vietnamese-provinces-database/blob/master/json/geojson/80_tay_ninh/wards/28051_my_thanh.geojson","source_catalog":"https://github.com/thanglequoc/vietnamese-provinces-database"},"geometry":null},{"type":"Feature","id":"28066","properties":{"commune_code":"28066","commune_name":"Mỹ An","commune_name_en":"My An","commune_full_name":"Xã Mỹ An","commune_full_name_en":"My An Commune","commune_slug":"my_an","unit_type":"Xã","unit_type_en":"Commune","admin_level":2,"province_code":"80","province_name":"Tây Ninh","province_full_name":"Tỉnh Tây Ninh","province_slug":"tay_ninh","join_key":"28066","status":"active","dataset_effective_date":"2026-04-30","catalog_version":"2026-07-12","geometry_status":"not_embedded_boundary_available_by_url","boundary_source_url":"https://raw.githubusercontent.com/thanglequoc/vietnamese-provinces-database/master/json/geojson/80_tay_ninh/wards/28066_my_an.geojson","boundary_source_page":"https://github.com/thanglequoc/vietnamese-provinces-database/blob/master/json/geojson/80_tay_ninh/wards/28066_my_an.geojson","source_catalog":"https://github.com/thanglequoc/vietnamese-provinces-database"},"geometry":null},{"type":"Feature","id":"28072","properties":{"commune_code":"28072","commune_name":"Tân Long","commune_name_en":"Tan Long","commune_full_name":"Xã Tân Long","commune_full_name_en":"Tan Long Commune","commune_slug":"tan_long","unit_type":"Xã","unit_type_en":"Commune","admin_level":2,"province_code":"80","province_name":"Tây Ninh","province_full_name":"Tỉnh Tây Ninh","province_slug":"tay_ninh","join_key":"28072","status":"active","dataset_effective_date":"2026-04-30","catalog_version":"2026-07-12","geometry_status":"not_embedded_boundary_available_by_url","boundary_source_url":"https://raw.githubusercontent.com/thanglequoc/vietnamese-provinces-database/master/json/geojson/80_tay_ninh/wards/28072_tan_long.geojson","boundary_source_page":"https://github.com/thanglequoc/vietnamese-provinces-database/blob/master/json/geojson/80_tay_ninh/wards/28072_tan_long.geojson","source_catalog":"https://github.com/thanglequoc/vietnamese-provinces-database"},"geometry":null},{"type":"Feature","id":"28075","properties":{"commune_code":"28075","commune_name":"Tân Trụ","commune_name_en":"Tan Tru","commune_full_name":"Xã Tân Trụ","commune_full_name_en":"Tan Tru Commune","commune_slug":"tan_tru","unit_type":"Xã","unit_type_en":"Commune","admin_level":2,"province_code":"80","province_name":"Tây Ninh","province_full_name":"Tỉnh Tây Ninh","province_slug":"tay_ninh","join_key":"28075","status":"active","dataset_effective_date":"2026-04-30","catalog_version":"2026-07-12","geometry_status":"not_embedded_boundary_available_by_url","boundary_source_url":"https://raw.githubusercontent.com/thanglequoc/vietnamese-provinces-database/master/json/geojson/80_tay_ninh/wards/28075_tan_tru.geojson","boundary_source_page":"https://github.com/thanglequoc/vietnamese-provinces-database/blob/master/json/geojson/80_tay_ninh/wards/28075_tan_tru.geojson","source_catalog":"https://github.com/thanglequoc/vietnamese-provinces-database"},"geometry":null},{"type":"Feature","id":"28087","properties":{"commune_code":"28087","commune_name":"Nhựt Tảo","commune_name_en":"Nhut Tao","commune_full_name":"Xã Nhựt Tảo","commune_full_name_en":"Nhut Tao Commune","commune_slug":"nhut_tao","unit_type":"Xã","unit_type_en":"Commune","admin_level":2,"province_code":"80","province_name":"Tây Ninh","province_full_name":"Tỉnh Tây Ninh","province_slug":"tay_ninh","join_key":"28087","status":"active","dataset_effective_date":"2026-04-30","catalog_version":"2026-07-12","geometry_status":"not_embedded_boundary_available_by_url","boundary_source_url":"https://raw.githubusercontent.com/thanglequoc/vietnamese-provinces-database/master/json/geojson/80_tay_ninh/wards/28087_nhut_tao.geojson","boundary_source_page":"https://github.com/thanglequoc/vietnamese-provinces-database/blob/master/json/geojson/80_tay_ninh/wards/28087_nhut_tao.geojson","source_catalog":"https://github.com/thanglequoc/vietnamese-provinces-database"},"geometry":null},{"type":"Feature","id":"28093","properties":{"commune_code":"28093","commune_name":"Vàm Cỏ","commune_name_en":"Vam Co","commune_full_name":"Xã Vàm Cỏ","commune_full_name_en":"Vam Co Commune","commune_slug":"vam_co","unit_type":"Xã","unit_type_en":"Commune","admin_level":2,"province_code":"80","province_name":"Tây Ninh","province_full_name":"Tỉnh Tây Ninh","province_slug":"tay_ninh","join_key":"28093","status":"active","dataset_effective_date":"2026-04-30","catalog_version":"2026-07-12","geometry_status":"not_embedded_boundary_available_by_url","boundary_source_url":"https://raw.githubusercontent.com/thanglequoc/vietnamese-provinces-database/master/json/geojson/80_tay_ninh/wards/28093_vam_co.geojson","boundary_source_page":"https://github.com/thanglequoc/vietnamese-provinces-database/blob/master/json/geojson/80_tay_ninh/wards/28093_vam_co.geojson","source_catalog":"https://github.com/thanglequoc/vietnamese-provinces-database"},"geometry":null},{"type":"Feature","id":"28108","properties":{"commune_code":"28108","commune_name":"Cần Đước","commune_name_en":"Can Duoc","commune_full_name":"Xã Cần Đước","commune_full_name_en":"Can Duoc Commune","commune_slug":"can_duoc","unit_type":"Xã","unit_type_en":"Commune","admin_level":2,"province_code":"80","province_name":"Tây Ninh","province_full_name":"Tỉnh Tây Ninh","province_slug":"tay_ninh","join_key":"28108","status":"active","dataset_effective_date":"2026-04-30","catalog_version":"2026-07-12","geometry_status":"not_embedded_boundary_available_by_url","boundary_source_url":"https://raw.githubusercontent.com/thanglequoc/vietnamese-provinces-database/master/json/geojson/80_tay_ninh/wards/28108_can_duoc.geojson","boundary_source_page":"https://github.com/thanglequoc/vietnamese-provinces-database/blob/master/json/geojson/80_tay_ninh/wards/28108_can_duoc.geojson","source_catalog":"https://github.com/thanglequoc/vietnamese-provinces-database"},"geometry":null},{"type":"Feature","id":"28114","properties":{"commune_code":"28114","commune_name":"Rạch Kiến","commune_name_en":"Rach Kien","commune_full_name":"Xã Rạch Kiến","commune_full_name_en":"Rach Kien Commune","commune_slug":"rach_kien","unit_type":"Xã","unit_type_en":"Commune","admin_level":2,"province_code":"80","province_name":"Tây Ninh","province_full_name":"Tỉnh Tây Ninh","province_slug":"tay_ninh","join_key":"28114","status":"active","dataset_effective_date":"2026-04-30","catalog_version":"2026-07-12","geometry_status":"not_embedded_boundary_available_by_url","boundary_source_url":"https://raw.githubusercontent.com/thanglequoc/vietnamese-provinces-database/master/json/geojson/80_tay_ninh/wards/28114_rach_kien.geojson","boundary_source_page":"https://github.com/thanglequoc/vietnamese-provinces-database/blob/master/json/geojson/80_tay_ninh/wards/28114_rach_kien.geojson","source_catalog":"https://github.com/thanglequoc/vietnamese-provinces-database"},"geometry":null},{"type":"Feature","id":"28126","properties":{"commune_code":"28126","commune_name":"Long Cang","commune_name_en":"Long Cang","commune_full_name":"Xã Long Cang","commune_full_name_en":"Long Cang Commune","commune_slug":"long_cang","unit_type":"Xã","unit_type_en":"Commune","admin_level":2,"province_code":"80","province_name":"Tây Ninh","province_full_name":"Tỉnh Tây Ninh","province_slug":"tay_ninh","join_key":"28126","status":"active","dataset_effective_date":"2026-04-30","catalog_version":"2026-07-12","geometry_status":"not_embedded_boundary_available_by_url","boundary_source_url":"https://raw.githubusercontent.com/thanglequoc/vietnamese-provinces-database/master/json/geojson/80_tay_ninh/wards/28126_long_cang.geojson","boundary_source_page":"https://github.com/thanglequoc/vietnamese-provinces-database/blob/master/json/geojson/80_tay_ninh/wards/28126_long_cang.geojson","source_catalog":"https://github.com/thanglequoc/vietnamese-provinces-database"},"geometry":null},{"type":"Feature","id":"28132","properties":{"commune_code":"28132","commune_name":"Mỹ Lệ","commune_name_en":"My Le","commune_full_name":"Xã Mỹ Lệ","commune_full_name_en":"My Le Commune","commune_slug":"my_le","unit_type":"Xã","unit_type_en":"Commune","admin_level":2,"province_code":"80","province_name":"Tây Ninh","province_full_name":"Tỉnh Tây Ninh","province_slug":"tay_ninh","join_key":"28132","status":"active","dataset_effective_date":"2026-04-30","catalog_version":"2026-07-12","geometry_status":"not_embedded_boundary_available_by_url","boundary_source_url":"https://raw.githubusercontent.com/thanglequoc/vietnamese-provinces-database/master/json/geojson/80_tay_ninh/wards/28132_my_le.geojson","boundary_source_page":"https://github.com/thanglequoc/vietnamese-provinces-database/blob/master/json/geojson/80_tay_ninh/wards/28132_my_le.geojson","source_catalog":"https://github.com/thanglequoc/vietnamese-provinces-database"},"geometry":null},{"type":"Feature","id":"28138","properties":{"commune_code":"28138","commune_name":"Tân Lân","commune_name_en":"Tan Lan","commune_full_name":"Xã Tân Lân","commune_full_name_en":"Tan Lan Commune","commune_slug":"tan_lan","unit_type":"Xã","unit_type_en":"Commune","admin_level":2,"province_code":"80","province_name":"Tây Ninh","province_full_name":"Tỉnh Tây Ninh","province_slug":"tay_ninh","join_key":"28138","status":"active","dataset_effective_date":"2026-04-30","catalog_version":"2026-07-12","geometry_status":"not_embedded_boundary_available_by_url","boundary_source_url":"https://raw.githubusercontent.com/thanglequoc/vietnamese-provinces-database/master/json/geojson/80_tay_ninh/wards/28138_tan_lan.geojson","boundary_source_page":"https://github.com/thanglequoc/vietnamese-provinces-database/blob/master/json/geojson/80_tay_ninh/wards/28138_tan_lan.geojson","source_catalog":"https://github.com/thanglequoc/vietnamese-provinces-database"},"geometry":null},{"type":"Feature","id":"28144","properties":{"commune_code":"28144","commune_name":"Long Hựu","commune_name_en":"Long Huu","commune_full_name":"Xã Long Hựu","commune_full_name_en":"Long Huu Commune","commune_slug":"long_huu","unit_type":"Xã","unit_type_en":"Commune","admin_level":2,"province_code":"80","province_name":"Tây Ninh","province_full_name":"Tỉnh Tây Ninh","province_slug":"tay_ninh","join_key":"28144","status":"active","dataset_effective_date":"2026-04-30","catalog_version":"2026-07-12","geometry_status":"not_embedded_boundary_available_by_url","boundary_source_url":"https://raw.githubusercontent.com/thanglequoc/vietnamese-provinces-database/master/json/geojson/80_tay_ninh/wards/28144_long_huu.geojson","boundary_source_page":"https://github.com/thanglequoc/vietnamese-provinces-database/blob/master/json/geojson/80_tay_ninh/wards/28144_long_huu.geojson","source_catalog":"https://github.com/thanglequoc/vietnamese-provinces-database"},"geometry":null},{"type":"Feature","id":"28159","properties":{"commune_code":"28159","commune_name":"Cần Giuộc","commune_name_en":"Can Giuoc","commune_full_name":"Xã Cần Giuộc","commune_full_name_en":"Can Giuoc Commune","commune_slug":"can_giuoc","unit_type":"Xã","unit_type_en":"Commune","admin_level":2,"province_code":"80","province_name":"Tây Ninh","province_full_name":"Tỉnh Tây Ninh","province_slug":"tay_ninh","join_key":"28159","status":"active","dataset_effective_date":"2026-04-30","catalog_version":"2026-07-12","geometry_status":"not_embedded_boundary_available_by_url","boundary_source_url":"https://raw.githubusercontent.com/thanglequoc/vietnamese-provinces-database/master/json/geojson/80_tay_ninh/wards/28159_can_giuoc.geojson","boundary_source_page":"https://github.com/thanglequoc/vietnamese-provinces-database/blob/master/json/geojson/80_tay_ninh/wards/28159_can_giuoc.geojson","source_catalog":"https://github.com/thanglequoc/vietnamese-provinces-database"},"geometry":null},{"type":"Feature","id":"28165","properties":{"commune_code":"28165","commune_name":"Phước Lý","commune_name_en":"Phuoc Ly","commune_full_name":"Xã Phước Lý","commune_full_name_en":"Phuoc Ly Commune","commune_slug":"phuoc_ly","unit_type":"Xã","unit_type_en":"Commune","admin_level":2,"province_code":"80","province_name":"Tây Ninh","province_full_name":"Tỉnh Tây Ninh","province_slug":"tay_ninh","join_key":"28165","status":"active","dataset_effective_date":"2026-04-30","catalog_version":"2026-07-12","geometry_status":"not_embedded_boundary_available_by_url","boundary_source_url":"https://raw.githubusercontent.com/thanglequoc/vietnamese-provinces-database/master/json/geojson/80_tay_ninh/wards/28165_phuoc_ly.geojson","boundary_source_page":"https://github.com/thanglequoc/vietnamese-provinces-database/blob/master/json/geojson/80_tay_ninh/wards/28165_phuoc_ly.geojson","source_catalog":"https://github.com/thanglequoc/vietnamese-provinces-database"},"geometry":null},{"type":"Feature","id":"28177","properties":{"commune_code":"28177","commune_name":"Mỹ Lộc","commune_name_en":"My Loc","commune_full_name":"Xã Mỹ Lộc","commune_full_name_en":"My Loc Commune","commune_slug":"my_loc","unit_type":"Xã","unit_type_en":"Commune","admin_level":2,"province_code":"80","province_name":"Tây Ninh","province_full_name":"Tỉnh Tây Ninh","province_slug":"tay_ninh","join_key":"28177","status":"active","dataset_effective_date":"2026-04-30","catalog_version":"2026-07-12","geometry_status":"not_embedded_boundary_available_by_url","boundary_source_url":"https://raw.githubusercontent.com/thanglequoc/vietnamese-provinces-database/master/json/geojson/80_tay_ninh/wards/28177_my_loc.geojson","boundary_source_page":"https://github.com/thanglequoc/vietnamese-provinces-database/blob/master/json/geojson/80_tay_ninh/wards/28177_my_loc.geojson","source_catalog":"https://github.com/thanglequoc/vietnamese-provinces-database"},"geometry":null},{"type":"Feature","id":"28201","properties":{"commune_code":"28201","commune_name":"Phước Vĩnh Tây","commune_name_en":"Phuoc Vinh Tay","commune_full_name":"Xã Phước Vĩnh Tây","commune_full_name_en":"Phuoc Vinh Tay Commune","commune_slug":"phuoc_vinh_tay","unit_type":"Xã","unit_type_en":"Commune","admin_level":2,"province_code":"80","province_name":"Tây Ninh","province_full_name":"Tỉnh Tây Ninh","province_slug":"tay_ninh","join_key":"28201","status":"active","dataset_effective_date":"2026-04-30","catalog_version":"2026-07-12","geometry_status":"not_embedded_boundary_available_by_url","boundary_source_url":"https://raw.githubusercontent.com/thanglequoc/vietnamese-provinces-database/master/json/geojson/80_tay_ninh/wards/28201_phuoc_vinh_tay.geojson","boundary_source_page":"https://github.com/thanglequoc/vietnamese-provinces-database/blob/master/json/geojson/80_tay_ninh/wards/28201_phuoc_vinh_tay.geojson","source_catalog":"https://github.com/thanglequoc/vietnamese-provinces-database"},"geometry":null},{"type":"Feature","id":"28207","properties":{"commune_code":"28207","commune_name":"Tân Tập","commune_name_en":"Tan Tap","commune_full_name":"Xã Tân Tập","commune_full_name_en":"Tan Tap Commune","commune_slug":"tan_tap","unit_type":"Xã","unit_type_en":"Commune","admin_level":2,"province_code":"80","province_name":"Tây Ninh","province_full_name":"Tỉnh Tây Ninh","province_slug":"tay_ninh","join_key":"28207","status":"active","dataset_effective_date":"2026-04-30","catalog_version":"2026-07-12","geometry_status":"not_embedded_boundary_available_by_url","boundary_source_url":"https://raw.githubusercontent.com/thanglequoc/vietnamese-provinces-database/master/json/geojson/80_tay_ninh/wards/28207_tan_tap.geojson","boundary_source_page":"https://github.com/thanglequoc/vietnamese-provinces-database/blob/master/json/geojson/80_tay_ninh/wards/28207_tan_tap.geojson","source_catalog":"https://github.com/thanglequoc/vietnamese-provinces-database"},"geometry":null},{"type":"Feature","id":"28210","properties":{"commune_code":"28210","commune_name":"Tầm Vu","commune_name_en":"Tam Vu","commune_full_name":"Xã Tầm Vu","commune_full_name_en":"Tam Vu Commune","commune_slug":"tam_vu","unit_type":"Xã","unit_type_en":"Commune","admin_level":2,"province_code":"80","province_name":"Tây Ninh","province_full_name":"Tỉnh Tây Ninh","province_slug":"tay_ninh","join_key":"28210","status":"active","dataset_effective_date":"2026-04-30","catalog_version":"2026-07-12","geometry_status":"not_embedded_boundary_available_by_url","boundary_source_url":"https://raw.githubusercontent.com/thanglequoc/vietnamese-provinces-database/master/json/geojson/80_tay_ninh/wards/28210_tam_vu.geojson","boundary_source_page":"https://github.com/thanglequoc/vietnamese-provinces-database/blob/master/json/geojson/80_tay_ninh/wards/28210_tam_vu.geojson","source_catalog":"https://github.com/thanglequoc/vietnamese-provinces-database"},"geometry":null},{"type":"Feature","id":"28222","properties":{"commune_code":"28222","commune_name":"Vĩnh Công","commune_name_en":"Vinh Cong","commune_full_name":"Xã Vĩnh Công","commune_full_name_en":"Vinh Cong Commune","commune_slug":"vinh_cong","unit_type":"Xã","unit_type_en":"Commune","admin_level":2,"province_code":"80","province_name":"Tây Ninh","province_full_name":"Tỉnh Tây Ninh","province_slug":"tay_ninh","join_key":"28222","status":"active","dataset_effective_date":"2026-04-30","catalog_version":"2026-07-12","geometry_status":"not_embedded_boundary_available_by_url","boundary_source_url":"https://raw.githubusercontent.com/thanglequoc/vietnamese-provinces-database/master/json/geojson/80_tay_ninh/wards/28222_vinh_cong.geojson","boundary_source_page":"https://github.com/thanglequoc/vietnamese-provinces-database/blob/master/json/geojson/80_tay_ninh/wards/28222_vinh_cong.geojson","source_catalog":"https://github.com/thanglequoc/vietnamese-provinces-database"},"geometry":null},{"type":"Feature","id":"28225","properties":{"commune_code":"28225","commune_name":"Thuận Mỹ","commune_name_en":"Thuan My","commune_full_name":"Xã Thuận Mỹ","commune_full_name_en":"Thuan My Commune","commune_slug":"thuan_my","unit_type":"Xã","unit_type_en":"Commune","admin_level":2,"province_code":"80","province_name":"Tây Ninh","province_full_name":"Tỉnh Tây Ninh","province_slug":"tay_ninh","join_key":"28225","status":"active","dataset_effective_date":"2026-04-30","catalog_version":"2026-07-12","geometry_status":"not_embedded_boundary_available_by_url","boundary_source_url":"https://raw.githubusercontent.com/thanglequoc/vietnamese-provinces-database/master/json/geojson/80_tay_ninh/wards/28225_thuan_my.geojson","boundary_source_page":"https://github.com/thanglequoc/vietnamese-provinces-database/blob/master/json/geojson/80_tay_ninh/wards/28225_thuan_my.geojson","source_catalog":"https://github.com/thanglequoc/vietnamese-provinces-database"},"geometry":null},{"type":"Feature","id":"28243","properties":{"commune_code":"28243","commune_name":"An Lục Long","commune_name_en":"An Luc Long","commune_full_name":"Xã An Lục Long","commune_full_name_en":"An Luc Long Commune","commune_slug":"an_luc_long","unit_type":"Xã","unit_type_en":"Commune","admin_level":2,"province_code":"80","province_name":"Tây Ninh","province_full_name":"Tỉnh Tây Ninh","province_slug":"tay_ninh","join_key":"28243","status":"active","dataset_effective_date":"2026-04-30","catalog_version":"2026-07-12","geometry_status":"not_embedded_boundary_available_by_url","boundary_source_url":"https://raw.githubusercontent.com/thanglequoc/vietnamese-provinces-database/master/json/geojson/80_tay_ninh/wards/28243_an_luc_long.geojson","boundary_source_page":"https://github.com/thanglequoc/vietnamese-provinces-database/blob/master/json/geojson/80_tay_ninh/wards/28243_an_luc_long.geojson","source_catalog":"https://github.com/thanglequoc/vietnamese-provinces-database"},"geometry":null}]}