{"type":"FeatureCollection","name":"96_ca_mau_communes_attributes","metadata":{"province_code":"96","province_name":"Cà Mau","feature_count":64,"geometry":null,"join_key":"commune_code"},"features":[{"type":"Feature","id":"31825","properties":{"commune_code":"31825","commune_name":"Bạc Liêu","commune_name_en":"Bac Lieu","commune_full_name":"Phường Bạc Liêu","commune_full_name_en":"Bac Lieu Ward","commune_slug":"bac_lieu","unit_type":"Phường","unit_type_en":"Ward","admin_level":2,"province_code":"96","province_name":"Cà Mau","province_full_name":"Tỉnh Cà Mau","province_slug":"ca_mau","join_key":"31825","status":"active","dataset_effective_date":"2026-04-30","catalog_version":"2026-07-12","geometry_status":"not_embedded_boundary_available_by_url","boundary_source_url":"https://raw.githubusercontent.com/thanglequoc/vietnamese-provinces-database/master/json/geojson/96_ca_mau/wards/31825_bac_lieu.geojson","boundary_source_page":"https://github.com/thanglequoc/vietnamese-provinces-database/blob/master/json/geojson/96_ca_mau/wards/31825_bac_lieu.geojson","source_catalog":"https://github.com/thanglequoc/vietnamese-provinces-database"},"geometry":null},{"type":"Feature","id":"31834","properties":{"commune_code":"31834","commune_name":"Vĩnh Trạch","commune_name_en":"Vinh Trach","commune_full_name":"Phường Vĩnh Trạch","commune_full_name_en":"Vinh Trach Ward","commune_slug":"vinh_trach","unit_type":"Phường","unit_type_en":"Ward","admin_level":2,"province_code":"96","province_name":"Cà Mau","province_full_name":"Tỉnh Cà Mau","province_slug":"ca_mau","join_key":"31834","status":"active","dataset_effective_date":"2026-04-30","catalog_version":"2026-07-12","geometry_status":"not_embedded_boundary_available_by_url","boundary_source_url":"https://raw.githubusercontent.com/thanglequoc/vietnamese-provinces-database/master/json/geojson/96_ca_mau/wards/31834_vinh_trach.geojson","boundary_source_page":"https://github.com/thanglequoc/vietnamese-provinces-database/blob/master/json/geojson/96_ca_mau/wards/31834_vinh_trach.geojson","source_catalog":"https://github.com/thanglequoc/vietnamese-provinces-database"},"geometry":null},{"type":"Feature","id":"31840","properties":{"commune_code":"31840","commune_name":"Hiệp Thành","commune_name_en":"Hiep Thanh","commune_full_name":"Phường Hiệp Thành","commune_full_name_en":"Hiep Thanh Ward","commune_slug":"hiep_thanh","unit_type":"Phường","unit_type_en":"Ward","admin_level":2,"province_code":"96","province_name":"Cà Mau","province_full_name":"Tỉnh Cà Mau","province_slug":"ca_mau","join_key":"31840","status":"active","dataset_effective_date":"2026-04-30","catalog_version":"2026-07-12","geometry_status":"not_embedded_boundary_available_by_url","boundary_source_url":"https://raw.githubusercontent.com/thanglequoc/vietnamese-provinces-database/master/json/geojson/96_ca_mau/wards/31840_hiep_thanh.geojson","boundary_source_page":"https://github.com/thanglequoc/vietnamese-provinces-database/blob/master/json/geojson/96_ca_mau/wards/31840_hiep_thanh.geojson","source_catalog":"https://github.com/thanglequoc/vietnamese-provinces-database"},"geometry":null},{"type":"Feature","id":"31843","properties":{"commune_code":"31843","commune_name":"Hồng Dân","commune_name_en":"Hong Dan","commune_full_name":"Xã Hồng Dân","commune_full_name_en":"Hong Dan Commune","commune_slug":"hong_dan","unit_type":"Xã","unit_type_en":"Commune","admin_level":2,"province_code":"96","province_name":"Cà Mau","province_full_name":"Tỉnh Cà Mau","province_slug":"ca_mau","join_key":"31843","status":"active","dataset_effective_date":"2026-04-30","catalog_version":"2026-07-12","geometry_status":"not_embedded_boundary_available_by_url","boundary_source_url":"https://raw.githubusercontent.com/thanglequoc/vietnamese-provinces-database/master/json/geojson/96_ca_mau/wards/31843_hong_dan.geojson","boundary_source_page":"https://github.com/thanglequoc/vietnamese-provinces-database/blob/master/json/geojson/96_ca_mau/wards/31843_hong_dan.geojson","source_catalog":"https://github.com/thanglequoc/vietnamese-provinces-database"},"geometry":null},{"type":"Feature","id":"31849","properties":{"commune_code":"31849","commune_name":"Ninh Quới","commune_name_en":"Ninh Quoi","commune_full_name":"Xã Ninh Quới","commune_full_name_en":"Ninh Quoi Commune","commune_slug":"ninh_quoi","unit_type":"Xã","unit_type_en":"Commune","admin_level":2,"province_code":"96","province_name":"Cà Mau","province_full_name":"Tỉnh Cà Mau","province_slug":"ca_mau","join_key":"31849","status":"active","dataset_effective_date":"2026-04-30","catalog_version":"2026-07-12","geometry_status":"not_embedded_boundary_available_by_url","boundary_source_url":"https://raw.githubusercontent.com/thanglequoc/vietnamese-provinces-database/master/json/geojson/96_ca_mau/wards/31849_ninh_quoi.geojson","boundary_source_page":"https://github.com/thanglequoc/vietnamese-provinces-database/blob/master/json/geojson/96_ca_mau/wards/31849_ninh_quoi.geojson","source_catalog":"https://github.com/thanglequoc/vietnamese-provinces-database"},"geometry":null},{"type":"Feature","id":"31858","properties":{"commune_code":"31858","commune_name":"Vĩnh Lộc","commune_name_en":"Vinh Loc","commune_full_name":"Xã Vĩnh Lộc","commune_full_name_en":"Vinh Loc Commune","commune_slug":"vinh_loc","unit_type":"Xã","unit_type_en":"Commune","admin_level":2,"province_code":"96","province_name":"Cà Mau","province_full_name":"Tỉnh Cà Mau","province_slug":"ca_mau","join_key":"31858","status":"active","dataset_effective_date":"2026-04-30","catalog_version":"2026-07-12","geometry_status":"not_embedded_boundary_available_by_url","boundary_source_url":"https://raw.githubusercontent.com/thanglequoc/vietnamese-provinces-database/master/json/geojson/96_ca_mau/wards/31858_vinh_loc.geojson","boundary_source_page":"https://github.com/thanglequoc/vietnamese-provinces-database/blob/master/json/geojson/96_ca_mau/wards/31858_vinh_loc.geojson","source_catalog":"https://github.com/thanglequoc/vietnamese-provinces-database"},"geometry":null},{"type":"Feature","id":"31864","properties":{"commune_code":"31864","commune_name":"Ninh Thạnh Lợi","commune_name_en":"Ninh Thanh Loi","commune_full_name":"Xã Ninh Thạnh Lợi","commune_full_name_en":"Ninh Thanh Loi Commune","commune_slug":"ninh_thanh_loi","unit_type":"Xã","unit_type_en":"Commune","admin_level":2,"province_code":"96","province_name":"Cà Mau","province_full_name":"Tỉnh Cà Mau","province_slug":"ca_mau","join_key":"31864","status":"active","dataset_effective_date":"2026-04-30","catalog_version":"2026-07-12","geometry_status":"not_embedded_boundary_available_by_url","boundary_source_url":"https://raw.githubusercontent.com/thanglequoc/vietnamese-provinces-database/master/json/geojson/96_ca_mau/wards/31864_ninh_thanh_loi.geojson","boundary_source_page":"https://github.com/thanglequoc/vietnamese-provinces-database/blob/master/json/geojson/96_ca_mau/wards/31864_ninh_thanh_loi.geojson","source_catalog":"https://github.com/thanglequoc/vietnamese-provinces-database"},"geometry":null},{"type":"Feature","id":"31867","properties":{"commune_code":"31867","commune_name":"Phước Long","commune_name_en":"Phuoc Long","commune_full_name":"Xã Phước Long","commune_full_name_en":"Phuoc Long Commune","commune_slug":"phuoc_long","unit_type":"Xã","unit_type_en":"Commune","admin_level":2,"province_code":"96","province_name":"Cà Mau","province_full_name":"Tỉnh Cà Mau","province_slug":"ca_mau","join_key":"31867","status":"active","dataset_effective_date":"2026-04-30","catalog_version":"2026-07-12","geometry_status":"not_embedded_boundary_available_by_url","boundary_source_url":"https://raw.githubusercontent.com/thanglequoc/vietnamese-provinces-database/master/json/geojson/96_ca_mau/wards/31867_phuoc_long.geojson","boundary_source_page":"https://github.com/thanglequoc/vietnamese-provinces-database/blob/master/json/geojson/96_ca_mau/wards/31867_phuoc_long.geojson","source_catalog":"https://github.com/thanglequoc/vietnamese-provinces-database"},"geometry":null},{"type":"Feature","id":"31876","properties":{"commune_code":"31876","commune_name":"Vĩnh Phước","commune_name_en":"Vinh Phuoc","commune_full_name":"Xã Vĩnh Phước","commune_full_name_en":"Vinh Phuoc Commune","commune_slug":"vinh_phuoc","unit_type":"Xã","unit_type_en":"Commune","admin_level":2,"province_code":"96","province_name":"Cà Mau","province_full_name":"Tỉnh Cà Mau","province_slug":"ca_mau","join_key":"31876","status":"active","dataset_effective_date":"2026-04-30","catalog_version":"2026-07-12","geometry_status":"not_embedded_boundary_available_by_url","boundary_source_url":"https://raw.githubusercontent.com/thanglequoc/vietnamese-provinces-database/master/json/geojson/96_ca_mau/wards/31876_vinh_phuoc.geojson","boundary_source_page":"https://github.com/thanglequoc/vietnamese-provinces-database/blob/master/json/geojson/96_ca_mau/wards/31876_vinh_phuoc.geojson","source_catalog":"https://github.com/thanglequoc/vietnamese-provinces-database"},"geometry":null},{"type":"Feature","id":"31882","properties":{"commune_code":"31882","commune_name":"Vĩnh Thanh","commune_name_en":"Vinh Thanh","commune_full_name":"Xã Vĩnh Thanh","commune_full_name_en":"Vinh Thanh Commune","commune_slug":"vinh_thanh","unit_type":"Xã","unit_type_en":"Commune","admin_level":2,"province_code":"96","province_name":"Cà Mau","province_full_name":"Tỉnh Cà Mau","province_slug":"ca_mau","join_key":"31882","status":"active","dataset_effective_date":"2026-04-30","catalog_version":"2026-07-12","geometry_status":"not_embedded_boundary_available_by_url","boundary_source_url":"https://raw.githubusercontent.com/thanglequoc/vietnamese-provinces-database/master/json/geojson/96_ca_mau/wards/31882_vinh_thanh.geojson","boundary_source_page":"https://github.com/thanglequoc/vietnamese-provinces-database/blob/master/json/geojson/96_ca_mau/wards/31882_vinh_thanh.geojson","source_catalog":"https://github.com/thanglequoc/vietnamese-provinces-database"},"geometry":null},{"type":"Feature","id":"31885","properties":{"commune_code":"31885","commune_name":"Phong Hiệp","commune_name_en":"Phong Hiep","commune_full_name":"Xã Phong Hiệp","commune_full_name_en":"Phong Hiep Commune","commune_slug":"phong_hiep","unit_type":"Xã","unit_type_en":"Commune","admin_level":2,"province_code":"96","province_name":"Cà Mau","province_full_name":"Tỉnh Cà Mau","province_slug":"ca_mau","join_key":"31885","status":"active","dataset_effective_date":"2026-04-30","catalog_version":"2026-07-12","geometry_status":"not_embedded_boundary_available_by_url","boundary_source_url":"https://raw.githubusercontent.com/thanglequoc/vietnamese-provinces-database/master/json/geojson/96_ca_mau/wards/31885_phong_hiep.geojson","boundary_source_page":"https://github.com/thanglequoc/vietnamese-provinces-database/blob/master/json/geojson/96_ca_mau/wards/31885_phong_hiep.geojson","source_catalog":"https://github.com/thanglequoc/vietnamese-provinces-database"},"geometry":null},{"type":"Feature","id":"31891","properties":{"commune_code":"31891","commune_name":"Hoà Bình","commune_name_en":"Hoa Binh","commune_full_name":"Xã Hoà Bình","commune_full_name_en":"Hoa Binh Commune","commune_slug":"hoa_binh","unit_type":"Xã","unit_type_en":"Commune","admin_level":2,"province_code":"96","province_name":"Cà Mau","province_full_name":"Tỉnh Cà Mau","province_slug":"ca_mau","join_key":"31891","status":"active","dataset_effective_date":"2026-04-30","catalog_version":"2026-07-12","geometry_status":"not_embedded_boundary_available_by_url","boundary_source_url":"https://raw.githubusercontent.com/thanglequoc/vietnamese-provinces-database/master/json/geojson/96_ca_mau/wards/31891_hoa_binh.geojson","boundary_source_page":"https://github.com/thanglequoc/vietnamese-provinces-database/blob/master/json/geojson/96_ca_mau/wards/31891_hoa_binh.geojson","source_catalog":"https://github.com/thanglequoc/vietnamese-provinces-database"},"geometry":null},{"type":"Feature","id":"31894","properties":{"commune_code":"31894","commune_name":"Châu Thới","commune_name_en":"Chau Thoi","commune_full_name":"Xã Châu Thới","commune_full_name_en":"Chau Thoi Commune","commune_slug":"chau_thoi","unit_type":"Xã","unit_type_en":"Commune","admin_level":2,"province_code":"96","province_name":"Cà Mau","province_full_name":"Tỉnh Cà Mau","province_slug":"ca_mau","join_key":"31894","status":"active","dataset_effective_date":"2026-04-30","catalog_version":"2026-07-12","geometry_status":"not_embedded_boundary_available_by_url","boundary_source_url":"https://raw.githubusercontent.com/thanglequoc/vietnamese-provinces-database/master/json/geojson/96_ca_mau/wards/31894_chau_thoi.geojson","boundary_source_page":"https://github.com/thanglequoc/vietnamese-provinces-database/blob/master/json/geojson/96_ca_mau/wards/31894_chau_thoi.geojson","source_catalog":"https://github.com/thanglequoc/vietnamese-provinces-database"},"geometry":null},{"type":"Feature","id":"31900","properties":{"commune_code":"31900","commune_name":"Vĩnh Lợi","commune_name_en":"Vinh Loi","commune_full_name":"Xã Vĩnh Lợi","commune_full_name_en":"Vinh Loi Commune","commune_slug":"vinh_loi","unit_type":"Xã","unit_type_en":"Commune","admin_level":2,"province_code":"96","province_name":"Cà Mau","province_full_name":"Tỉnh Cà Mau","province_slug":"ca_mau","join_key":"31900","status":"active","dataset_effective_date":"2026-04-30","catalog_version":"2026-07-12","geometry_status":"not_embedded_boundary_available_by_url","boundary_source_url":"https://raw.githubusercontent.com/thanglequoc/vietnamese-provinces-database/master/json/geojson/96_ca_mau/wards/31900_vinh_loi.geojson","boundary_source_page":"https://github.com/thanglequoc/vietnamese-provinces-database/blob/master/json/geojson/96_ca_mau/wards/31900_vinh_loi.geojson","source_catalog":"https://github.com/thanglequoc/vietnamese-provinces-database"},"geometry":null},{"type":"Feature","id":"31906","properties":{"commune_code":"31906","commune_name":"Hưng Hội","commune_name_en":"Hung Hoi","commune_full_name":"Xã Hưng Hội","commune_full_name_en":"Hung Hoi Commune","commune_slug":"hung_hoi","unit_type":"Xã","unit_type_en":"Commune","admin_level":2,"province_code":"96","province_name":"Cà Mau","province_full_name":"Tỉnh Cà Mau","province_slug":"ca_mau","join_key":"31906","status":"active","dataset_effective_date":"2026-04-30","catalog_version":"2026-07-12","geometry_status":"not_embedded_boundary_available_by_url","boundary_source_url":"https://raw.githubusercontent.com/thanglequoc/vietnamese-provinces-database/master/json/geojson/96_ca_mau/wards/31906_hung_hoi.geojson","boundary_source_page":"https://github.com/thanglequoc/vietnamese-provinces-database/blob/master/json/geojson/96_ca_mau/wards/31906_hung_hoi.geojson","source_catalog":"https://github.com/thanglequoc/vietnamese-provinces-database"},"geometry":null},{"type":"Feature","id":"31918","properties":{"commune_code":"31918","commune_name":"Vĩnh Mỹ","commune_name_en":"Vinh My","commune_full_name":"Xã Vĩnh Mỹ","commune_full_name_en":"Vinh My Commune","commune_slug":"vinh_my","unit_type":"Xã","unit_type_en":"Commune","admin_level":2,"province_code":"96","province_name":"Cà Mau","province_full_name":"Tỉnh Cà Mau","province_slug":"ca_mau","join_key":"31918","status":"active","dataset_effective_date":"2026-04-30","catalog_version":"2026-07-12","geometry_status":"not_embedded_boundary_available_by_url","boundary_source_url":"https://raw.githubusercontent.com/thanglequoc/vietnamese-provinces-database/master/json/geojson/96_ca_mau/wards/31918_vinh_my.geojson","boundary_source_page":"https://github.com/thanglequoc/vietnamese-provinces-database/blob/master/json/geojson/96_ca_mau/wards/31918_vinh_my.geojson","source_catalog":"https://github.com/thanglequoc/vietnamese-provinces-database"},"geometry":null},{"type":"Feature","id":"31927","properties":{"commune_code":"31927","commune_name":"Vĩnh Hậu","commune_name_en":"Vinh Hau","commune_full_name":"Xã Vĩnh Hậu","commune_full_name_en":"Vinh Hau Commune","commune_slug":"vinh_hau","unit_type":"Xã","unit_type_en":"Commune","admin_level":2,"province_code":"96","province_name":"Cà Mau","province_full_name":"Tỉnh Cà Mau","province_slug":"ca_mau","join_key":"31927","status":"active","dataset_effective_date":"2026-04-30","catalog_version":"2026-07-12","geometry_status":"not_embedded_boundary_available_by_url","boundary_source_url":"https://raw.githubusercontent.com/thanglequoc/vietnamese-provinces-database/master/json/geojson/96_ca_mau/wards/31927_vinh_hau.geojson","boundary_source_page":"https://github.com/thanglequoc/vietnamese-provinces-database/blob/master/json/geojson/96_ca_mau/wards/31927_vinh_hau.geojson","source_catalog":"https://github.com/thanglequoc/vietnamese-provinces-database"},"geometry":null},{"type":"Feature","id":"31942","properties":{"commune_code":"31942","commune_name":"Giá Rai","commune_name_en":"Gia Rai","commune_full_name":"Phường Giá Rai","commune_full_name_en":"Gia Rai Ward","commune_slug":"gia_rai","unit_type":"Phường","unit_type_en":"Ward","admin_level":2,"province_code":"96","province_name":"Cà Mau","province_full_name":"Tỉnh Cà Mau","province_slug":"ca_mau","join_key":"31942","status":"active","dataset_effective_date":"2026-04-30","catalog_version":"2026-07-12","geometry_status":"not_embedded_boundary_available_by_url","boundary_source_url":"https://raw.githubusercontent.com/thanglequoc/vietnamese-provinces-database/master/json/geojson/96_ca_mau/wards/31942_gia_rai.geojson","boundary_source_page":"https://github.com/thanglequoc/vietnamese-provinces-database/blob/master/json/geojson/96_ca_mau/wards/31942_gia_rai.geojson","source_catalog":"https://github.com/thanglequoc/vietnamese-provinces-database"},"geometry":null},{"type":"Feature","id":"31951","properties":{"commune_code":"31951","commune_name":"Láng Tròn","commune_name_en":"Lang Tron","commune_full_name":"Phường Láng Tròn","commune_full_name_en":"Lang Tron Ward","commune_slug":"lang_tron","unit_type":"Phường","unit_type_en":"Ward","admin_level":2,"province_code":"96","province_name":"Cà Mau","province_full_name":"Tỉnh Cà Mau","province_slug":"ca_mau","join_key":"31951","status":"active","dataset_effective_date":"2026-04-30","catalog_version":"2026-07-12","geometry_status":"not_embedded_boundary_available_by_url","boundary_source_url":"https://raw.githubusercontent.com/thanglequoc/vietnamese-provinces-database/master/json/geojson/96_ca_mau/wards/31951_lang_tron.geojson","boundary_source_page":"https://github.com/thanglequoc/vietnamese-provinces-database/blob/master/json/geojson/96_ca_mau/wards/31951_lang_tron.geojson","source_catalog":"https://github.com/thanglequoc/vietnamese-provinces-database"},"geometry":null},{"type":"Feature","id":"31957","properties":{"commune_code":"31957","commune_name":"Phong Thạnh","commune_name_en":"Phong Thanh","commune_full_name":"Xã Phong Thạnh","commune_full_name_en":"Phong Thanh Commune","commune_slug":"phong_thanh","unit_type":"Xã","unit_type_en":"Commune","admin_level":2,"province_code":"96","province_name":"Cà Mau","province_full_name":"Tỉnh Cà Mau","province_slug":"ca_mau","join_key":"31957","status":"active","dataset_effective_date":"2026-04-30","catalog_version":"2026-07-12","geometry_status":"not_embedded_boundary_available_by_url","boundary_source_url":"https://raw.githubusercontent.com/thanglequoc/vietnamese-provinces-database/master/json/geojson/96_ca_mau/wards/31957_phong_thanh.geojson","boundary_source_page":"https://github.com/thanglequoc/vietnamese-provinces-database/blob/master/json/geojson/96_ca_mau/wards/31957_phong_thanh.geojson","source_catalog":"https://github.com/thanglequoc/vietnamese-provinces-database"},"geometry":null},{"type":"Feature","id":"31972","properties":{"commune_code":"31972","commune_name":"Gành Hào","commune_name_en":"Ganh Hao","commune_full_name":"Xã Gành Hào","commune_full_name_en":"Ganh Hao Commune","commune_slug":"ganh_hao","unit_type":"Xã","unit_type_en":"Commune","admin_level":2,"province_code":"96","province_name":"Cà Mau","province_full_name":"Tỉnh Cà Mau","province_slug":"ca_mau","join_key":"31972","status":"active","dataset_effective_date":"2026-04-30","catalog_version":"2026-07-12","geometry_status":"not_embedded_boundary_available_by_url","boundary_source_url":"https://raw.githubusercontent.com/thanglequoc/vietnamese-provinces-database/master/json/geojson/96_ca_mau/wards/31972_ganh_hao.geojson","boundary_source_page":"https://github.com/thanglequoc/vietnamese-provinces-database/blob/master/json/geojson/96_ca_mau/wards/31972_ganh_hao.geojson","source_catalog":"https://github.com/thanglequoc/vietnamese-provinces-database"},"geometry":null},{"type":"Feature","id":"31975","properties":{"commune_code":"31975","commune_name":"Đông Hải","commune_name_en":"Dong Hai","commune_full_name":"Xã Đông Hải","commune_full_name_en":"Dong Hai Commune","commune_slug":"dong_hai","unit_type":"Xã","unit_type_en":"Commune","admin_level":2,"province_code":"96","province_name":"Cà Mau","province_full_name":"Tỉnh Cà Mau","province_slug":"ca_mau","join_key":"31975","status":"active","dataset_effective_date":"2026-04-30","catalog_version":"2026-07-12","geometry_status":"not_embedded_boundary_available_by_url","boundary_source_url":"https://raw.githubusercontent.com/thanglequoc/vietnamese-provinces-database/master/json/geojson/96_ca_mau/wards/31975_dong_hai.geojson","boundary_source_page":"https://github.com/thanglequoc/vietnamese-provinces-database/blob/master/json/geojson/96_ca_mau/wards/31975_dong_hai.geojson","source_catalog":"https://github.com/thanglequoc/vietnamese-provinces-database"},"geometry":null},{"type":"Feature","id":"31985","properties":{"commune_code":"31985","commune_name":"Long Điền","commune_name_en":"Long Dien","commune_full_name":"Xã Long Điền","commune_full_name_en":"Long Dien Commune","commune_slug":"long_dien","unit_type":"Xã","unit_type_en":"Commune","admin_level":2,"province_code":"96","province_name":"Cà Mau","province_full_name":"Tỉnh Cà Mau","province_slug":"ca_mau","join_key":"31985","status":"active","dataset_effective_date":"2026-04-30","catalog_version":"2026-07-12","geometry_status":"not_embedded_boundary_available_by_url","boundary_source_url":"https://raw.githubusercontent.com/thanglequoc/vietnamese-provinces-database/master/json/geojson/96_ca_mau/wards/31985_long_dien.geojson","boundary_source_page":"https://github.com/thanglequoc/vietnamese-provinces-database/blob/master/json/geojson/96_ca_mau/wards/31985_long_dien.geojson","source_catalog":"https://github.com/thanglequoc/vietnamese-provinces-database"},"geometry":null},{"type":"Feature","id":"31988","properties":{"commune_code":"31988","commune_name":"An Trạch","commune_name_en":"An Trach","commune_full_name":"Xã An Trạch","commune_full_name_en":"An Trach Commune","commune_slug":"an_trach","unit_type":"Xã","unit_type_en":"Commune","admin_level":2,"province_code":"96","province_name":"Cà Mau","province_full_name":"Tỉnh Cà Mau","province_slug":"ca_mau","join_key":"31988","status":"active","dataset_effective_date":"2026-04-30","catalog_version":"2026-07-12","geometry_status":"not_embedded_boundary_available_by_url","boundary_source_url":"https://raw.githubusercontent.com/thanglequoc/vietnamese-provinces-database/master/json/geojson/96_ca_mau/wards/31988_an_trach.geojson","boundary_source_page":"https://github.com/thanglequoc/vietnamese-provinces-database/blob/master/json/geojson/96_ca_mau/wards/31988_an_trach.geojson","source_catalog":"https://github.com/thanglequoc/vietnamese-provinces-database"},"geometry":null},{"type":"Feature","id":"31993","properties":{"commune_code":"31993","commune_name":"Định Thành","commune_name_en":"Dinh Thanh","commune_full_name":"Xã Định Thành","commune_full_name_en":"Dinh Thanh Commune","commune_slug":"dinh_thanh","unit_type":"Xã","unit_type_en":"Commune","admin_level":2,"province_code":"96","province_name":"Cà Mau","province_full_name":"Tỉnh Cà Mau","province_slug":"ca_mau","join_key":"31993","status":"active","dataset_effective_date":"2026-04-30","catalog_version":"2026-07-12","geometry_status":"not_embedded_boundary_available_by_url","boundary_source_url":"https://raw.githubusercontent.com/thanglequoc/vietnamese-provinces-database/master/json/geojson/96_ca_mau/wards/31993_dinh_thanh.geojson","boundary_source_page":"https://github.com/thanglequoc/vietnamese-provinces-database/blob/master/json/geojson/96_ca_mau/wards/31993_dinh_thanh.geojson","source_catalog":"https://github.com/thanglequoc/vietnamese-provinces-database"},"geometry":null},{"type":"Feature","id":"32002","properties":{"commune_code":"32002","commune_name":"An Xuyên","commune_name_en":"An Xuyen","commune_full_name":"Phường An Xuyên","commune_full_name_en":"An Xuyen Ward","commune_slug":"an_xuyen","unit_type":"Phường","unit_type_en":"Ward","admin_level":2,"province_code":"96","province_name":"Cà Mau","province_full_name":"Tỉnh Cà Mau","province_slug":"ca_mau","join_key":"32002","status":"active","dataset_effective_date":"2026-04-30","catalog_version":"2026-07-12","geometry_status":"not_embedded_boundary_available_by_url","boundary_source_url":"https://raw.githubusercontent.com/thanglequoc/vietnamese-provinces-database/master/json/geojson/96_ca_mau/wards/32002_an_xuyen.geojson","boundary_source_page":"https://github.com/thanglequoc/vietnamese-provinces-database/blob/master/json/geojson/96_ca_mau/wards/32002_an_xuyen.geojson","source_catalog":"https://github.com/thanglequoc/vietnamese-provinces-database"},"geometry":null},{"type":"Feature","id":"32014","properties":{"commune_code":"32014","commune_name":"Lý Văn Lâm","commune_name_en":"Ly Van Lam","commune_full_name":"Phường Lý Văn Lâm","commune_full_name_en":"Ly Van Lam Ward","commune_slug":"ly_van_lam","unit_type":"Phường","unit_type_en":"Ward","admin_level":2,"province_code":"96","province_name":"Cà Mau","province_full_name":"Tỉnh Cà Mau","province_slug":"ca_mau","join_key":"32014","status":"active","dataset_effective_date":"2026-04-30","catalog_version":"2026-07-12","geometry_status":"not_embedded_boundary_available_by_url","boundary_source_url":"https://raw.githubusercontent.com/thanglequoc/vietnamese-provinces-database/master/json/geojson/96_ca_mau/wards/32014_ly_van_lam.geojson","boundary_source_page":"https://github.com/thanglequoc/vietnamese-provinces-database/blob/master/json/geojson/96_ca_mau/wards/32014_ly_van_lam.geojson","source_catalog":"https://github.com/thanglequoc/vietnamese-provinces-database"},"geometry":null},{"type":"Feature","id":"32025","properties":{"commune_code":"32025","commune_name":"Tân Thành","commune_name_en":"Tan Thanh","commune_full_name":"Phường Tân Thành","commune_full_name_en":"Tan Thanh Ward","commune_slug":"tan_thanh","unit_type":"Phường","unit_type_en":"Ward","admin_level":2,"province_code":"96","province_name":"Cà Mau","province_full_name":"Tỉnh Cà Mau","province_slug":"ca_mau","join_key":"32025","status":"active","dataset_effective_date":"2026-04-30","catalog_version":"2026-07-12","geometry_status":"not_embedded_boundary_available_by_url","boundary_source_url":"https://raw.githubusercontent.com/thanglequoc/vietnamese-provinces-database/master/json/geojson/96_ca_mau/wards/32025_tan_thanh.geojson","boundary_source_page":"https://github.com/thanglequoc/vietnamese-provinces-database/blob/master/json/geojson/96_ca_mau/wards/32025_tan_thanh.geojson","source_catalog":"https://github.com/thanglequoc/vietnamese-provinces-database"},"geometry":null},{"type":"Feature","id":"32041","properties":{"commune_code":"32041","commune_name":"Hoà Thành","commune_name_en":"Hoa Thanh","commune_full_name":"Phường Hoà Thành","commune_full_name_en":"Hoa Thanh Ward","commune_slug":"hoa_thanh","unit_type":"Phường","unit_type_en":"Ward","admin_level":2,"province_code":"96","province_name":"Cà Mau","province_full_name":"Tỉnh Cà Mau","province_slug":"ca_mau","join_key":"32041","status":"active","dataset_effective_date":"2026-04-30","catalog_version":"2026-07-12","geometry_status":"not_embedded_boundary_available_by_url","boundary_source_url":"https://raw.githubusercontent.com/thanglequoc/vietnamese-provinces-database/master/json/geojson/96_ca_mau/wards/32041_hoa_thanh.geojson","boundary_source_page":"https://github.com/thanglequoc/vietnamese-provinces-database/blob/master/json/geojson/96_ca_mau/wards/32041_hoa_thanh.geojson","source_catalog":"https://github.com/thanglequoc/vietnamese-provinces-database"},"geometry":null},{"type":"Feature","id":"32044","properties":{"commune_code":"32044","commune_name":"Nguyễn Phích","commune_name_en":"Nguyen Phich","commune_full_name":"Xã Nguyễn Phích","commune_full_name_en":"Nguyen Phich Commune","commune_slug":"nguyen_phich","unit_type":"Xã","unit_type_en":"Commune","admin_level":2,"province_code":"96","province_name":"Cà Mau","province_full_name":"Tỉnh Cà Mau","province_slug":"ca_mau","join_key":"32044","status":"active","dataset_effective_date":"2026-04-30","catalog_version":"2026-07-12","geometry_status":"not_embedded_boundary_available_by_url","boundary_source_url":"https://raw.githubusercontent.com/thanglequoc/vietnamese-provinces-database/master/json/geojson/96_ca_mau/wards/32044_nguyen_phich.geojson","boundary_source_page":"https://github.com/thanglequoc/vietnamese-provinces-database/blob/master/json/geojson/96_ca_mau/wards/32044_nguyen_phich.geojson","source_catalog":"https://github.com/thanglequoc/vietnamese-provinces-database"},"geometry":null},{"type":"Feature","id":"32047","properties":{"commune_code":"32047","commune_name":"U Minh","commune_name_en":"U Minh","commune_full_name":"Xã U Minh","commune_full_name_en":"U Minh Commune","commune_slug":"u_minh","unit_type":"Xã","unit_type_en":"Commune","admin_level":2,"province_code":"96","province_name":"Cà Mau","province_full_name":"Tỉnh Cà Mau","province_slug":"ca_mau","join_key":"32047","status":"active","dataset_effective_date":"2026-04-30","catalog_version":"2026-07-12","geometry_status":"not_embedded_boundary_available_by_url","boundary_source_url":"https://raw.githubusercontent.com/thanglequoc/vietnamese-provinces-database/master/json/geojson/96_ca_mau/wards/32047_u_minh.geojson","boundary_source_page":"https://github.com/thanglequoc/vietnamese-provinces-database/blob/master/json/geojson/96_ca_mau/wards/32047_u_minh.geojson","source_catalog":"https://github.com/thanglequoc/vietnamese-provinces-database"},"geometry":null},{"type":"Feature","id":"32059","properties":{"commune_code":"32059","commune_name":"Khánh An","commune_name_en":"Khanh An","commune_full_name":"Xã Khánh An","commune_full_name_en":"Khanh An Commune","commune_slug":"khanh_an","unit_type":"Xã","unit_type_en":"Commune","admin_level":2,"province_code":"96","province_name":"Cà Mau","province_full_name":"Tỉnh Cà Mau","province_slug":"ca_mau","join_key":"32059","status":"active","dataset_effective_date":"2026-04-30","catalog_version":"2026-07-12","geometry_status":"not_embedded_boundary_available_by_url","boundary_source_url":"https://raw.githubusercontent.com/thanglequoc/vietnamese-provinces-database/master/json/geojson/96_ca_mau/wards/32059_khanh_an.geojson","boundary_source_page":"https://github.com/thanglequoc/vietnamese-provinces-database/blob/master/json/geojson/96_ca_mau/wards/32059_khanh_an.geojson","source_catalog":"https://github.com/thanglequoc/vietnamese-provinces-database"},"geometry":null},{"type":"Feature","id":"32062","properties":{"commune_code":"32062","commune_name":"Khánh Lâm","commune_name_en":"Khanh Lam","commune_full_name":"Xã Khánh Lâm","commune_full_name_en":"Khanh Lam Commune","commune_slug":"khanh_lam","unit_type":"Xã","unit_type_en":"Commune","admin_level":2,"province_code":"96","province_name":"Cà Mau","province_full_name":"Tỉnh Cà Mau","province_slug":"ca_mau","join_key":"32062","status":"active","dataset_effective_date":"2026-04-30","catalog_version":"2026-07-12","geometry_status":"not_embedded_boundary_available_by_url","boundary_source_url":"https://raw.githubusercontent.com/thanglequoc/vietnamese-provinces-database/master/json/geojson/96_ca_mau/wards/32062_khanh_lam.geojson","boundary_source_page":"https://github.com/thanglequoc/vietnamese-provinces-database/blob/master/json/geojson/96_ca_mau/wards/32062_khanh_lam.geojson","source_catalog":"https://github.com/thanglequoc/vietnamese-provinces-database"},"geometry":null},{"type":"Feature","id":"32065","properties":{"commune_code":"32065","commune_name":"Thới Bình","commune_name_en":"Thoi Binh","commune_full_name":"Xã Thới Bình","commune_full_name_en":"Thoi Binh Commune","commune_slug":"thoi_binh","unit_type":"Xã","unit_type_en":"Commune","admin_level":2,"province_code":"96","province_name":"Cà Mau","province_full_name":"Tỉnh Cà Mau","province_slug":"ca_mau","join_key":"32065","status":"active","dataset_effective_date":"2026-04-30","catalog_version":"2026-07-12","geometry_status":"not_embedded_boundary_available_by_url","boundary_source_url":"https://raw.githubusercontent.com/thanglequoc/vietnamese-provinces-database/master/json/geojson/96_ca_mau/wards/32065_thoi_binh.geojson","boundary_source_page":"https://github.com/thanglequoc/vietnamese-provinces-database/blob/master/json/geojson/96_ca_mau/wards/32065_thoi_binh.geojson","source_catalog":"https://github.com/thanglequoc/vietnamese-provinces-database"},"geometry":null},{"type":"Feature","id":"32069","properties":{"commune_code":"32069","commune_name":"Biển Bạch","commune_name_en":"Bien Bach","commune_full_name":"Xã Biển Bạch","commune_full_name_en":"Bien Bach Commune","commune_slug":"bien_bach","unit_type":"Xã","unit_type_en":"Commune","admin_level":2,"province_code":"96","province_name":"Cà Mau","province_full_name":"Tỉnh Cà Mau","province_slug":"ca_mau","join_key":"32069","status":"active","dataset_effective_date":"2026-04-30","catalog_version":"2026-07-12","geometry_status":"not_embedded_boundary_available_by_url","boundary_source_url":"https://raw.githubusercontent.com/thanglequoc/vietnamese-provinces-database/master/json/geojson/96_ca_mau/wards/32069_bien_bach.geojson","boundary_source_page":"https://github.com/thanglequoc/vietnamese-provinces-database/blob/master/json/geojson/96_ca_mau/wards/32069_bien_bach.geojson","source_catalog":"https://github.com/thanglequoc/vietnamese-provinces-database"},"geometry":null},{"type":"Feature","id":"32071","properties":{"commune_code":"32071","commune_name":"Trí Phải","commune_name_en":"Tri Phai","commune_full_name":"Xã Trí Phải","commune_full_name_en":"Tri Phai Commune","commune_slug":"tri_phai","unit_type":"Xã","unit_type_en":"Commune","admin_level":2,"province_code":"96","province_name":"Cà Mau","province_full_name":"Tỉnh Cà Mau","province_slug":"ca_mau","join_key":"32071","status":"active","dataset_effective_date":"2026-04-30","catalog_version":"2026-07-12","geometry_status":"not_embedded_boundary_available_by_url","boundary_source_url":"https://raw.githubusercontent.com/thanglequoc/vietnamese-provinces-database/master/json/geojson/96_ca_mau/wards/32071_tri_phai.geojson","boundary_source_page":"https://github.com/thanglequoc/vietnamese-provinces-database/blob/master/json/geojson/96_ca_mau/wards/32071_tri_phai.geojson","source_catalog":"https://github.com/thanglequoc/vietnamese-provinces-database"},"geometry":null},{"type":"Feature","id":"32083","properties":{"commune_code":"32083","commune_name":"Tân Lộc","commune_name_en":"Tan Loc","commune_full_name":"Xã Tân Lộc","commune_full_name_en":"Tan Loc Commune","commune_slug":"tan_loc","unit_type":"Xã","unit_type_en":"Commune","admin_level":2,"province_code":"96","province_name":"Cà Mau","province_full_name":"Tỉnh Cà Mau","province_slug":"ca_mau","join_key":"32083","status":"active","dataset_effective_date":"2026-04-30","catalog_version":"2026-07-12","geometry_status":"not_embedded_boundary_available_by_url","boundary_source_url":"https://raw.githubusercontent.com/thanglequoc/vietnamese-provinces-database/master/json/geojson/96_ca_mau/wards/32083_tan_loc.geojson","boundary_source_page":"https://github.com/thanglequoc/vietnamese-provinces-database/blob/master/json/geojson/96_ca_mau/wards/32083_tan_loc.geojson","source_catalog":"https://github.com/thanglequoc/vietnamese-provinces-database"},"geometry":null},{"type":"Feature","id":"32092","properties":{"commune_code":"32092","commune_name":"Hồ Thị Kỷ","commune_name_en":"Ho Thi Ky","commune_full_name":"Xã Hồ Thị Kỷ","commune_full_name_en":"Ho Thi Ky Commune","commune_slug":"ho_thi_ky","unit_type":"Xã","unit_type_en":"Commune","admin_level":2,"province_code":"96","province_name":"Cà Mau","province_full_name":"Tỉnh Cà Mau","province_slug":"ca_mau","join_key":"32092","status":"active","dataset_effective_date":"2026-04-30","catalog_version":"2026-07-12","geometry_status":"not_embedded_boundary_available_by_url","boundary_source_url":"https://raw.githubusercontent.com/thanglequoc/vietnamese-provinces-database/master/json/geojson/96_ca_mau/wards/32092_ho_thi_ky.geojson","boundary_source_page":"https://github.com/thanglequoc/vietnamese-provinces-database/blob/master/json/geojson/96_ca_mau/wards/32092_ho_thi_ky.geojson","source_catalog":"https://github.com/thanglequoc/vietnamese-provinces-database"},"geometry":null},{"type":"Feature","id":"32095","properties":{"commune_code":"32095","commune_name":"Trần Văn Thời","commune_name_en":"Tran Van Thoi","commune_full_name":"Xã Trần Văn Thời","commune_full_name_en":"Tran Van Thoi Commune","commune_slug":"tran_van_thoi","unit_type":"Xã","unit_type_en":"Commune","admin_level":2,"province_code":"96","province_name":"Cà Mau","province_full_name":"Tỉnh Cà Mau","province_slug":"ca_mau","join_key":"32095","status":"active","dataset_effective_date":"2026-04-30","catalog_version":"2026-07-12","geometry_status":"not_embedded_boundary_available_by_url","boundary_source_url":"https://raw.githubusercontent.com/thanglequoc/vietnamese-provinces-database/master/json/geojson/96_ca_mau/wards/32095_tran_van_thoi.geojson","boundary_source_page":"https://github.com/thanglequoc/vietnamese-provinces-database/blob/master/json/geojson/96_ca_mau/wards/32095_tran_van_thoi.geojson","source_catalog":"https://github.com/thanglequoc/vietnamese-provinces-database"},"geometry":null},{"type":"Feature","id":"32098","properties":{"commune_code":"32098","commune_name":"Sông Đốc","commune_name_en":"Song Doc","commune_full_name":"Xã Sông Đốc","commune_full_name_en":"Song Doc Commune","commune_slug":"song_doc","unit_type":"Xã","unit_type_en":"Commune","admin_level":2,"province_code":"96","province_name":"Cà Mau","province_full_name":"Tỉnh Cà Mau","province_slug":"ca_mau","join_key":"32098","status":"active","dataset_effective_date":"2026-04-30","catalog_version":"2026-07-12","geometry_status":"not_embedded_boundary_available_by_url","boundary_source_url":"https://raw.githubusercontent.com/thanglequoc/vietnamese-provinces-database/master/json/geojson/96_ca_mau/wards/32098_song_doc.geojson","boundary_source_page":"https://github.com/thanglequoc/vietnamese-provinces-database/blob/master/json/geojson/96_ca_mau/wards/32098_song_doc.geojson","source_catalog":"https://github.com/thanglequoc/vietnamese-provinces-database"},"geometry":null},{"type":"Feature","id":"32104","properties":{"commune_code":"32104","commune_name":"Đá Bạc","commune_name_en":"Da Bac","commune_full_name":"Xã Đá Bạc","commune_full_name_en":"Da Bac Commune","commune_slug":"da_bac","unit_type":"Xã","unit_type_en":"Commune","admin_level":2,"province_code":"96","province_name":"Cà Mau","province_full_name":"Tỉnh Cà Mau","province_slug":"ca_mau","join_key":"32104","status":"active","dataset_effective_date":"2026-04-30","catalog_version":"2026-07-12","geometry_status":"not_embedded_boundary_available_by_url","boundary_source_url":"https://raw.githubusercontent.com/thanglequoc/vietnamese-provinces-database/master/json/geojson/96_ca_mau/wards/32104_da_bac.geojson","boundary_source_page":"https://github.com/thanglequoc/vietnamese-provinces-database/blob/master/json/geojson/96_ca_mau/wards/32104_da_bac.geojson","source_catalog":"https://github.com/thanglequoc/vietnamese-provinces-database"},"geometry":null},{"type":"Feature","id":"32110","properties":{"commune_code":"32110","commune_name":"Khánh Bình","commune_name_en":"Khanh Binh","commune_full_name":"Xã Khánh Bình","commune_full_name_en":"Khanh Binh Commune","commune_slug":"khanh_binh","unit_type":"Xã","unit_type_en":"Commune","admin_level":2,"province_code":"96","province_name":"Cà Mau","province_full_name":"Tỉnh Cà Mau","province_slug":"ca_mau","join_key":"32110","status":"active","dataset_effective_date":"2026-04-30","catalog_version":"2026-07-12","geometry_status":"not_embedded_boundary_available_by_url","boundary_source_url":"https://raw.githubusercontent.com/thanglequoc/vietnamese-provinces-database/master/json/geojson/96_ca_mau/wards/32110_khanh_binh.geojson","boundary_source_page":"https://github.com/thanglequoc/vietnamese-provinces-database/blob/master/json/geojson/96_ca_mau/wards/32110_khanh_binh.geojson","source_catalog":"https://github.com/thanglequoc/vietnamese-provinces-database"},"geometry":null},{"type":"Feature","id":"32119","properties":{"commune_code":"32119","commune_name":"Khánh Hưng","commune_name_en":"Khanh Hung","commune_full_name":"Xã Khánh Hưng","commune_full_name_en":"Khanh Hung Commune","commune_slug":"khanh_hung","unit_type":"Xã","unit_type_en":"Commune","admin_level":2,"province_code":"96","province_name":"Cà Mau","province_full_name":"Tỉnh Cà Mau","province_slug":"ca_mau","join_key":"32119","status":"active","dataset_effective_date":"2026-04-30","catalog_version":"2026-07-12","geometry_status":"not_embedded_boundary_available_by_url","boundary_source_url":"https://raw.githubusercontent.com/thanglequoc/vietnamese-provinces-database/master/json/geojson/96_ca_mau/wards/32119_khanh_hung.geojson","boundary_source_page":"https://github.com/thanglequoc/vietnamese-provinces-database/blob/master/json/geojson/96_ca_mau/wards/32119_khanh_hung.geojson","source_catalog":"https://github.com/thanglequoc/vietnamese-provinces-database"},"geometry":null},{"type":"Feature","id":"32128","properties":{"commune_code":"32128","commune_name":"Cái Nước","commune_name_en":"Cai Nuoc","commune_full_name":"Xã Cái Nước","commune_full_name_en":"Cai Nuoc Commune","commune_slug":"cai_nuoc","unit_type":"Xã","unit_type_en":"Commune","admin_level":2,"province_code":"96","province_name":"Cà Mau","province_full_name":"Tỉnh Cà Mau","province_slug":"ca_mau","join_key":"32128","status":"active","dataset_effective_date":"2026-04-30","catalog_version":"2026-07-12","geometry_status":"not_embedded_boundary_available_by_url","boundary_source_url":"https://raw.githubusercontent.com/thanglequoc/vietnamese-provinces-database/master/json/geojson/96_ca_mau/wards/32128_cai_nuoc.geojson","boundary_source_page":"https://github.com/thanglequoc/vietnamese-provinces-database/blob/master/json/geojson/96_ca_mau/wards/32128_cai_nuoc.geojson","source_catalog":"https://github.com/thanglequoc/vietnamese-provinces-database"},"geometry":null},{"type":"Feature","id":"32134","properties":{"commune_code":"32134","commune_name":"Lương Thế Trân","commune_name_en":"Luong The Tran","commune_full_name":"Xã Lương Thế Trân","commune_full_name_en":"Luong The Tran Commune","commune_slug":"luong_the_tran","unit_type":"Xã","unit_type_en":"Commune","admin_level":2,"province_code":"96","province_name":"Cà Mau","province_full_name":"Tỉnh Cà Mau","province_slug":"ca_mau","join_key":"32134","status":"active","dataset_effective_date":"2026-04-30","catalog_version":"2026-07-12","geometry_status":"not_embedded_boundary_available_by_url","boundary_source_url":"https://raw.githubusercontent.com/thanglequoc/vietnamese-provinces-database/master/json/geojson/96_ca_mau/wards/32134_luong_the_tran.geojson","boundary_source_page":"https://github.com/thanglequoc/vietnamese-provinces-database/blob/master/json/geojson/96_ca_mau/wards/32134_luong_the_tran.geojson","source_catalog":"https://github.com/thanglequoc/vietnamese-provinces-database"},"geometry":null},{"type":"Feature","id":"32137","properties":{"commune_code":"32137","commune_name":"Tân Hưng","commune_name_en":"Tan Hung","commune_full_name":"Xã Tân Hưng","commune_full_name_en":"Tan Hung Commune","commune_slug":"tan_hung","unit_type":"Xã","unit_type_en":"Commune","admin_level":2,"province_code":"96","province_name":"Cà Mau","province_full_name":"Tỉnh Cà Mau","province_slug":"ca_mau","join_key":"32137","status":"active","dataset_effective_date":"2026-04-30","catalog_version":"2026-07-12","geometry_status":"not_embedded_boundary_available_by_url","boundary_source_url":"https://raw.githubusercontent.com/thanglequoc/vietnamese-provinces-database/master/json/geojson/96_ca_mau/wards/32137_tan_hung.geojson","boundary_source_page":"https://github.com/thanglequoc/vietnamese-provinces-database/blob/master/json/geojson/96_ca_mau/wards/32137_tan_hung.geojson","source_catalog":"https://github.com/thanglequoc/vietnamese-provinces-database"},"geometry":null},{"type":"Feature","id":"32140","properties":{"commune_code":"32140","commune_name":"Hưng Mỹ","commune_name_en":"Hung My","commune_full_name":"Xã Hưng Mỹ","commune_full_name_en":"Hung My Commune","commune_slug":"hung_my","unit_type":"Xã","unit_type_en":"Commune","admin_level":2,"province_code":"96","province_name":"Cà Mau","province_full_name":"Tỉnh Cà Mau","province_slug":"ca_mau","join_key":"32140","status":"active","dataset_effective_date":"2026-04-30","catalog_version":"2026-07-12","geometry_status":"not_embedded_boundary_available_by_url","boundary_source_url":"https://raw.githubusercontent.com/thanglequoc/vietnamese-provinces-database/master/json/geojson/96_ca_mau/wards/32140_hung_my.geojson","boundary_source_page":"https://github.com/thanglequoc/vietnamese-provinces-database/blob/master/json/geojson/96_ca_mau/wards/32140_hung_my.geojson","source_catalog":"https://github.com/thanglequoc/vietnamese-provinces-database"},"geometry":null},{"type":"Feature","id":"32152","properties":{"commune_code":"32152","commune_name":"Đầm Dơi","commune_name_en":"Dam Doi","commune_full_name":"Xã Đầm Dơi","commune_full_name_en":"Dam Doi Commune","commune_slug":"dam_doi","unit_type":"Xã","unit_type_en":"Commune","admin_level":2,"province_code":"96","province_name":"Cà Mau","province_full_name":"Tỉnh Cà Mau","province_slug":"ca_mau","join_key":"32152","status":"active","dataset_effective_date":"2026-04-30","catalog_version":"2026-07-12","geometry_status":"not_embedded_boundary_available_by_url","boundary_source_url":"https://raw.githubusercontent.com/thanglequoc/vietnamese-provinces-database/master/json/geojson/96_ca_mau/wards/32152_dam_doi.geojson","boundary_source_page":"https://github.com/thanglequoc/vietnamese-provinces-database/blob/master/json/geojson/96_ca_mau/wards/32152_dam_doi.geojson","source_catalog":"https://github.com/thanglequoc/vietnamese-provinces-database"},"geometry":null},{"type":"Feature","id":"32155","properties":{"commune_code":"32155","commune_name":"Tạ An Khương","commune_name_en":"Ta An Khuong","commune_full_name":"Xã Tạ An Khương","commune_full_name_en":"Ta An Khuong Commune","commune_slug":"ta_an_khuong","unit_type":"Xã","unit_type_en":"Commune","admin_level":2,"province_code":"96","province_name":"Cà Mau","province_full_name":"Tỉnh Cà Mau","province_slug":"ca_mau","join_key":"32155","status":"active","dataset_effective_date":"2026-04-30","catalog_version":"2026-07-12","geometry_status":"not_embedded_boundary_available_by_url","boundary_source_url":"https://raw.githubusercontent.com/thanglequoc/vietnamese-provinces-database/master/json/geojson/96_ca_mau/wards/32155_ta_an_khuong.geojson","boundary_source_page":"https://github.com/thanglequoc/vietnamese-provinces-database/blob/master/json/geojson/96_ca_mau/wards/32155_ta_an_khuong.geojson","source_catalog":"https://github.com/thanglequoc/vietnamese-provinces-database"},"geometry":null},{"type":"Feature","id":"32161","properties":{"commune_code":"32161","commune_name":"Trần Phán","commune_name_en":"Tran Phan","commune_full_name":"Xã Trần Phán","commune_full_name_en":"Tran Phan Commune","commune_slug":"tran_phan","unit_type":"Xã","unit_type_en":"Commune","admin_level":2,"province_code":"96","province_name":"Cà Mau","province_full_name":"Tỉnh Cà Mau","province_slug":"ca_mau","join_key":"32161","status":"active","dataset_effective_date":"2026-04-30","catalog_version":"2026-07-12","geometry_status":"not_embedded_boundary_available_by_url","boundary_source_url":"https://raw.githubusercontent.com/thanglequoc/vietnamese-provinces-database/master/json/geojson/96_ca_mau/wards/32161_tran_phan.geojson","boundary_source_page":"https://github.com/thanglequoc/vietnamese-provinces-database/blob/master/json/geojson/96_ca_mau/wards/32161_tran_phan.geojson","source_catalog":"https://github.com/thanglequoc/vietnamese-provinces-database"},"geometry":null},{"type":"Feature","id":"32167","properties":{"commune_code":"32167","commune_name":"Tân Thuận","commune_name_en":"Tan Thuan","commune_full_name":"Xã Tân Thuận","commune_full_name_en":"Tan Thuan Commune","commune_slug":"tan_thuan","unit_type":"Xã","unit_type_en":"Commune","admin_level":2,"province_code":"96","province_name":"Cà Mau","province_full_name":"Tỉnh Cà Mau","province_slug":"ca_mau","join_key":"32167","status":"active","dataset_effective_date":"2026-04-30","catalog_version":"2026-07-12","geometry_status":"not_embedded_boundary_available_by_url","boundary_source_url":"https://raw.githubusercontent.com/thanglequoc/vietnamese-provinces-database/master/json/geojson/96_ca_mau/wards/32167_tan_thuan.geojson","boundary_source_page":"https://github.com/thanglequoc/vietnamese-provinces-database/blob/master/json/geojson/96_ca_mau/wards/32167_tan_thuan.geojson","source_catalog":"https://github.com/thanglequoc/vietnamese-provinces-database"},"geometry":null},{"type":"Feature","id":"32182","properties":{"commune_code":"32182","commune_name":"Quách Phẩm","commune_name_en":"Quach Pham","commune_full_name":"Xã Quách Phẩm","commune_full_name_en":"Quach Pham Commune","commune_slug":"quach_pham","unit_type":"Xã","unit_type_en":"Commune","admin_level":2,"province_code":"96","province_name":"Cà Mau","province_full_name":"Tỉnh Cà Mau","province_slug":"ca_mau","join_key":"32182","status":"active","dataset_effective_date":"2026-04-30","catalog_version":"2026-07-12","geometry_status":"not_embedded_boundary_available_by_url","boundary_source_url":"https://raw.githubusercontent.com/thanglequoc/vietnamese-provinces-database/master/json/geojson/96_ca_mau/wards/32182_quach_pham.geojson","boundary_source_page":"https://github.com/thanglequoc/vietnamese-provinces-database/blob/master/json/geojson/96_ca_mau/wards/32182_quach_pham.geojson","source_catalog":"https://github.com/thanglequoc/vietnamese-provinces-database"},"geometry":null},{"type":"Feature","id":"32185","properties":{"commune_code":"32185","commune_name":"Thanh Tùng","commune_name_en":"Thanh Tung","commune_full_name":"Xã Thanh Tùng","commune_full_name_en":"Thanh Tung Commune","commune_slug":"thanh_tung","unit_type":"Xã","unit_type_en":"Commune","admin_level":2,"province_code":"96","province_name":"Cà Mau","province_full_name":"Tỉnh Cà Mau","province_slug":"ca_mau","join_key":"32185","status":"active","dataset_effective_date":"2026-04-30","catalog_version":"2026-07-12","geometry_status":"not_embedded_boundary_available_by_url","boundary_source_url":"https://raw.githubusercontent.com/thanglequoc/vietnamese-provinces-database/master/json/geojson/96_ca_mau/wards/32185_thanh_tung.geojson","boundary_source_page":"https://github.com/thanglequoc/vietnamese-provinces-database/blob/master/json/geojson/96_ca_mau/wards/32185_thanh_tung.geojson","source_catalog":"https://github.com/thanglequoc/vietnamese-provinces-database"},"geometry":null},{"type":"Feature","id":"32188","properties":{"commune_code":"32188","commune_name":"Tân Tiến","commune_name_en":"Tan Tien","commune_full_name":"Xã Tân Tiến","commune_full_name_en":"Tan Tien Commune","commune_slug":"tan_tien","unit_type":"Xã","unit_type_en":"Commune","admin_level":2,"province_code":"96","province_name":"Cà Mau","province_full_name":"Tỉnh Cà Mau","province_slug":"ca_mau","join_key":"32188","status":"active","dataset_effective_date":"2026-04-30","catalog_version":"2026-07-12","geometry_status":"not_embedded_boundary_available_by_url","boundary_source_url":"https://raw.githubusercontent.com/thanglequoc/vietnamese-provinces-database/master/json/geojson/96_ca_mau/wards/32188_tan_tien.geojson","boundary_source_page":"https://github.com/thanglequoc/vietnamese-provinces-database/blob/master/json/geojson/96_ca_mau/wards/32188_tan_tien.geojson","source_catalog":"https://github.com/thanglequoc/vietnamese-provinces-database"},"geometry":null},{"type":"Feature","id":"32191","properties":{"commune_code":"32191","commune_name":"Năm Căn","commune_name_en":"Nam Can","commune_full_name":"Xã Năm Căn","commune_full_name_en":"Nam Can Commune","commune_slug":"nam_can","unit_type":"Xã","unit_type_en":"Commune","admin_level":2,"province_code":"96","province_name":"Cà Mau","province_full_name":"Tỉnh Cà Mau","province_slug":"ca_mau","join_key":"32191","status":"active","dataset_effective_date":"2026-04-30","catalog_version":"2026-07-12","geometry_status":"not_embedded_boundary_available_by_url","boundary_source_url":"https://raw.githubusercontent.com/thanglequoc/vietnamese-provinces-database/master/json/geojson/96_ca_mau/wards/32191_nam_can.geojson","boundary_source_page":"https://github.com/thanglequoc/vietnamese-provinces-database/blob/master/json/geojson/96_ca_mau/wards/32191_nam_can.geojson","source_catalog":"https://github.com/thanglequoc/vietnamese-provinces-database"},"geometry":null},{"type":"Feature","id":"32201","properties":{"commune_code":"32201","commune_name":"Đất Mới","commune_name_en":"Dat Moi","commune_full_name":"Xã Đất Mới","commune_full_name_en":"Dat Moi Commune","commune_slug":"dat_moi","unit_type":"Xã","unit_type_en":"Commune","admin_level":2,"province_code":"96","province_name":"Cà Mau","province_full_name":"Tỉnh Cà Mau","province_slug":"ca_mau","join_key":"32201","status":"active","dataset_effective_date":"2026-04-30","catalog_version":"2026-07-12","geometry_status":"not_embedded_boundary_available_by_url","boundary_source_url":"https://raw.githubusercontent.com/thanglequoc/vietnamese-provinces-database/master/json/geojson/96_ca_mau/wards/32201_dat_moi.geojson","boundary_source_page":"https://github.com/thanglequoc/vietnamese-provinces-database/blob/master/json/geojson/96_ca_mau/wards/32201_dat_moi.geojson","source_catalog":"https://github.com/thanglequoc/vietnamese-provinces-database"},"geometry":null},{"type":"Feature","id":"32206","properties":{"commune_code":"32206","commune_name":"Tam Giang","commune_name_en":"Tam Giang","commune_full_name":"Xã Tam Giang","commune_full_name_en":"Tam Giang Commune","commune_slug":"tam_giang","unit_type":"Xã","unit_type_en":"Commune","admin_level":2,"province_code":"96","province_name":"Cà Mau","province_full_name":"Tỉnh Cà Mau","province_slug":"ca_mau","join_key":"32206","status":"active","dataset_effective_date":"2026-04-30","catalog_version":"2026-07-12","geometry_status":"not_embedded_boundary_available_by_url","boundary_source_url":"https://raw.githubusercontent.com/thanglequoc/vietnamese-provinces-database/master/json/geojson/96_ca_mau/wards/32206_tam_giang.geojson","boundary_source_page":"https://github.com/thanglequoc/vietnamese-provinces-database/blob/master/json/geojson/96_ca_mau/wards/32206_tam_giang.geojson","source_catalog":"https://github.com/thanglequoc/vietnamese-provinces-database"},"geometry":null},{"type":"Feature","id":"32212","properties":{"commune_code":"32212","commune_name":"Cái Đôi Vàm","commune_name_en":"Cai Doi Vam","commune_full_name":"Xã Cái Đôi Vàm","commune_full_name_en":"Cai Doi Vam Commune","commune_slug":"cai_doi_vam","unit_type":"Xã","unit_type_en":"Commune","admin_level":2,"province_code":"96","province_name":"Cà Mau","province_full_name":"Tỉnh Cà Mau","province_slug":"ca_mau","join_key":"32212","status":"active","dataset_effective_date":"2026-04-30","catalog_version":"2026-07-12","geometry_status":"not_embedded_boundary_available_by_url","boundary_source_url":"https://raw.githubusercontent.com/thanglequoc/vietnamese-provinces-database/master/json/geojson/96_ca_mau/wards/32212_cai_doi_vam.geojson","boundary_source_page":"https://github.com/thanglequoc/vietnamese-provinces-database/blob/master/json/geojson/96_ca_mau/wards/32212_cai_doi_vam.geojson","source_catalog":"https://github.com/thanglequoc/vietnamese-provinces-database"},"geometry":null},{"type":"Feature","id":"32214","properties":{"commune_code":"32214","commune_name":"Phú Mỹ","commune_name_en":"Phu My","commune_full_name":"Xã Phú Mỹ","commune_full_name_en":"Phu My Commune","commune_slug":"phu_my","unit_type":"Xã","unit_type_en":"Commune","admin_level":2,"province_code":"96","province_name":"Cà Mau","province_full_name":"Tỉnh Cà Mau","province_slug":"ca_mau","join_key":"32214","status":"active","dataset_effective_date":"2026-04-30","catalog_version":"2026-07-12","geometry_status":"not_embedded_boundary_available_by_url","boundary_source_url":"https://raw.githubusercontent.com/thanglequoc/vietnamese-provinces-database/master/json/geojson/96_ca_mau/wards/32214_phu_my.geojson","boundary_source_page":"https://github.com/thanglequoc/vietnamese-provinces-database/blob/master/json/geojson/96_ca_mau/wards/32214_phu_my.geojson","source_catalog":"https://github.com/thanglequoc/vietnamese-provinces-database"},"geometry":null},{"type":"Feature","id":"32218","properties":{"commune_code":"32218","commune_name":"Phú Tân","commune_name_en":"Phu Tan","commune_full_name":"Xã Phú Tân","commune_full_name_en":"Phu Tan Commune","commune_slug":"phu_tan","unit_type":"Xã","unit_type_en":"Commune","admin_level":2,"province_code":"96","province_name":"Cà Mau","province_full_name":"Tỉnh Cà Mau","province_slug":"ca_mau","join_key":"32218","status":"active","dataset_effective_date":"2026-04-30","catalog_version":"2026-07-12","geometry_status":"not_embedded_boundary_available_by_url","boundary_source_url":"https://raw.githubusercontent.com/thanglequoc/vietnamese-provinces-database/master/json/geojson/96_ca_mau/wards/32218_phu_tan.geojson","boundary_source_page":"https://github.com/thanglequoc/vietnamese-provinces-database/blob/master/json/geojson/96_ca_mau/wards/32218_phu_tan.geojson","source_catalog":"https://github.com/thanglequoc/vietnamese-provinces-database"},"geometry":null},{"type":"Feature","id":"32227","properties":{"commune_code":"32227","commune_name":"Nguyễn Việt Khái","commune_name_en":"Nguyen Viet Khai","commune_full_name":"Xã Nguyễn Việt Khái","commune_full_name_en":"Nguyen Viet Khai Commune","commune_slug":"nguyen_viet_khai","unit_type":"Xã","unit_type_en":"Commune","admin_level":2,"province_code":"96","province_name":"Cà Mau","province_full_name":"Tỉnh Cà Mau","province_slug":"ca_mau","join_key":"32227","status":"active","dataset_effective_date":"2026-04-30","catalog_version":"2026-07-12","geometry_status":"not_embedded_boundary_available_by_url","boundary_source_url":"https://raw.githubusercontent.com/thanglequoc/vietnamese-provinces-database/master/json/geojson/96_ca_mau/wards/32227_nguyen_viet_khai.geojson","boundary_source_page":"https://github.com/thanglequoc/vietnamese-provinces-database/blob/master/json/geojson/96_ca_mau/wards/32227_nguyen_viet_khai.geojson","source_catalog":"https://github.com/thanglequoc/vietnamese-provinces-database"},"geometry":null},{"type":"Feature","id":"32236","properties":{"commune_code":"32236","commune_name":"Tân Ân","commune_name_en":"Tan An","commune_full_name":"Xã Tân Ân","commune_full_name_en":"Tan An Commune","commune_slug":"tan_an","unit_type":"Xã","unit_type_en":"Commune","admin_level":2,"province_code":"96","province_name":"Cà Mau","province_full_name":"Tỉnh Cà Mau","province_slug":"ca_mau","join_key":"32236","status":"active","dataset_effective_date":"2026-04-30","catalog_version":"2026-07-12","geometry_status":"not_embedded_boundary_available_by_url","boundary_source_url":"https://raw.githubusercontent.com/thanglequoc/vietnamese-provinces-database/master/json/geojson/96_ca_mau/wards/32236_tan_an.geojson","boundary_source_page":"https://github.com/thanglequoc/vietnamese-provinces-database/blob/master/json/geojson/96_ca_mau/wards/32236_tan_an.geojson","source_catalog":"https://github.com/thanglequoc/vietnamese-provinces-database"},"geometry":null},{"type":"Feature","id":"32244","properties":{"commune_code":"32244","commune_name":"Phan Ngọc Hiển","commune_name_en":"Phan Ngoc Hien","commune_full_name":"Xã Phan Ngọc Hiển","commune_full_name_en":"Phan Ngoc Hien Commune","commune_slug":"phan_ngoc_hien","unit_type":"Xã","unit_type_en":"Commune","admin_level":2,"province_code":"96","province_name":"Cà Mau","province_full_name":"Tỉnh Cà Mau","province_slug":"ca_mau","join_key":"32244","status":"active","dataset_effective_date":"2026-04-30","catalog_version":"2026-07-12","geometry_status":"not_embedded_boundary_available_by_url","boundary_source_url":"https://raw.githubusercontent.com/thanglequoc/vietnamese-provinces-database/master/json/geojson/96_ca_mau/wards/32244_phan_ngoc_hien.geojson","boundary_source_page":"https://github.com/thanglequoc/vietnamese-provinces-database/blob/master/json/geojson/96_ca_mau/wards/32244_phan_ngoc_hien.geojson","source_catalog":"https://github.com/thanglequoc/vietnamese-provinces-database"},"geometry":null},{"type":"Feature","id":"32248","properties":{"commune_code":"32248","commune_name":"Đất Mũi","commune_name_en":"Dat Mui","commune_full_name":"Xã Đất Mũi","commune_full_name_en":"Dat Mui Commune","commune_slug":"dat_mui","unit_type":"Xã","unit_type_en":"Commune","admin_level":2,"province_code":"96","province_name":"Cà Mau","province_full_name":"Tỉnh Cà Mau","province_slug":"ca_mau","join_key":"32248","status":"active","dataset_effective_date":"2026-04-30","catalog_version":"2026-07-12","geometry_status":"not_embedded_boundary_available_by_url","boundary_source_url":"https://raw.githubusercontent.com/thanglequoc/vietnamese-provinces-database/master/json/geojson/96_ca_mau/wards/32248_dat_mui.geojson","boundary_source_page":"https://github.com/thanglequoc/vietnamese-provinces-database/blob/master/json/geojson/96_ca_mau/wards/32248_dat_mui.geojson","source_catalog":"https://github.com/thanglequoc/vietnamese-provinces-database"},"geometry":null}]}