{"type":"FeatureCollection","name":"14_son_la_communes_attributes","metadata":{"province_code":"14","province_name":"Sơn La","feature_count":75,"geometry":null,"join_key":"commune_code"},"features":[{"type":"Feature","id":"03646","properties":{"commune_code":"03646","commune_name":"Tô Hiệu","commune_name_en":"To Hieu","commune_full_name":"Phường Tô Hiệu","commune_full_name_en":"To Hieu Ward","commune_slug":"to_hieu","unit_type":"Phường","unit_type_en":"Ward","admin_level":2,"province_code":"14","province_name":"Sơn La","province_full_name":"Tỉnh Sơn La","province_slug":"son_la","join_key":"03646","status":"active","dataset_effective_date":"2026-04-30","catalog_version":"2026-07-12","geometry_status":"not_embedded_boundary_available_by_url","boundary_source_url":"https://raw.githubusercontent.com/thanglequoc/vietnamese-provinces-database/master/json/geojson/14_son_la/wards/03646_to_hieu.geojson","boundary_source_page":"https://github.com/thanglequoc/vietnamese-provinces-database/blob/master/json/geojson/14_son_la/wards/03646_to_hieu.geojson","source_catalog":"https://github.com/thanglequoc/vietnamese-provinces-database"},"geometry":null},{"type":"Feature","id":"03664","properties":{"commune_code":"03664","commune_name":"Chiềng An","commune_name_en":"Chieng An","commune_full_name":"Phường Chiềng An","commune_full_name_en":"Chieng An Ward","commune_slug":"chieng_an","unit_type":"Phường","unit_type_en":"Ward","admin_level":2,"province_code":"14","province_name":"Sơn La","province_full_name":"Tỉnh Sơn La","province_slug":"son_la","join_key":"03664","status":"active","dataset_effective_date":"2026-04-30","catalog_version":"2026-07-12","geometry_status":"not_embedded_boundary_available_by_url","boundary_source_url":"https://raw.githubusercontent.com/thanglequoc/vietnamese-provinces-database/master/json/geojson/14_son_la/wards/03664_chieng_an.geojson","boundary_source_page":"https://github.com/thanglequoc/vietnamese-provinces-database/blob/master/json/geojson/14_son_la/wards/03664_chieng_an.geojson","source_catalog":"https://github.com/thanglequoc/vietnamese-provinces-database"},"geometry":null},{"type":"Feature","id":"03670","properties":{"commune_code":"03670","commune_name":"Chiềng Cơi","commune_name_en":"Chieng Coi","commune_full_name":"Phường Chiềng Cơi","commune_full_name_en":"Chieng Coi Ward","commune_slug":"chieng_coi","unit_type":"Phường","unit_type_en":"Ward","admin_level":2,"province_code":"14","province_name":"Sơn La","province_full_name":"Tỉnh Sơn La","province_slug":"son_la","join_key":"03670","status":"active","dataset_effective_date":"2026-04-30","catalog_version":"2026-07-12","geometry_status":"not_embedded_boundary_available_by_url","boundary_source_url":"https://raw.githubusercontent.com/thanglequoc/vietnamese-provinces-database/master/json/geojson/14_son_la/wards/03670_chieng_coi.geojson","boundary_source_page":"https://github.com/thanglequoc/vietnamese-provinces-database/blob/master/json/geojson/14_son_la/wards/03670_chieng_coi.geojson","source_catalog":"https://github.com/thanglequoc/vietnamese-provinces-database"},"geometry":null},{"type":"Feature","id":"03679","properties":{"commune_code":"03679","commune_name":"Chiềng Sinh","commune_name_en":"Chieng Sinh","commune_full_name":"Phường Chiềng Sinh","commune_full_name_en":"Chieng Sinh Ward","commune_slug":"chieng_sinh","unit_type":"Phường","unit_type_en":"Ward","admin_level":2,"province_code":"14","province_name":"Sơn La","province_full_name":"Tỉnh Sơn La","province_slug":"son_la","join_key":"03679","status":"active","dataset_effective_date":"2026-04-30","catalog_version":"2026-07-12","geometry_status":"not_embedded_boundary_available_by_url","boundary_source_url":"https://raw.githubusercontent.com/thanglequoc/vietnamese-provinces-database/master/json/geojson/14_son_la/wards/03679_chieng_sinh.geojson","boundary_source_page":"https://github.com/thanglequoc/vietnamese-provinces-database/blob/master/json/geojson/14_son_la/wards/03679_chieng_sinh.geojson","source_catalog":"https://github.com/thanglequoc/vietnamese-provinces-database"},"geometry":null},{"type":"Feature","id":"03688","properties":{"commune_code":"03688","commune_name":"Mường Chiên","commune_name_en":"Muong Chien","commune_full_name":"Xã Mường Chiên","commune_full_name_en":"Muong Chien Commune","commune_slug":"muong_chien","unit_type":"Xã","unit_type_en":"Commune","admin_level":2,"province_code":"14","province_name":"Sơn La","province_full_name":"Tỉnh Sơn La","province_slug":"son_la","join_key":"03688","status":"active","dataset_effective_date":"2026-04-30","catalog_version":"2026-07-12","geometry_status":"not_embedded_boundary_available_by_url","boundary_source_url":"https://raw.githubusercontent.com/thanglequoc/vietnamese-provinces-database/master/json/geojson/14_son_la/wards/03688_muong_chien.geojson","boundary_source_page":"https://github.com/thanglequoc/vietnamese-provinces-database/blob/master/json/geojson/14_son_la/wards/03688_muong_chien.geojson","source_catalog":"https://github.com/thanglequoc/vietnamese-provinces-database"},"geometry":null},{"type":"Feature","id":"03694","properties":{"commune_code":"03694","commune_name":"Mường Giôn","commune_name_en":"Muong Gion","commune_full_name":"Xã Mường Giôn","commune_full_name_en":"Muong Gion Commune","commune_slug":"muong_gion","unit_type":"Xã","unit_type_en":"Commune","admin_level":2,"province_code":"14","province_name":"Sơn La","province_full_name":"Tỉnh Sơn La","province_slug":"son_la","join_key":"03694","status":"active","dataset_effective_date":"2026-04-30","catalog_version":"2026-07-12","geometry_status":"not_embedded_boundary_available_by_url","boundary_source_url":"https://raw.githubusercontent.com/thanglequoc/vietnamese-provinces-database/master/json/geojson/14_son_la/wards/03694_muong_gion.geojson","boundary_source_page":"https://github.com/thanglequoc/vietnamese-provinces-database/blob/master/json/geojson/14_son_la/wards/03694_muong_gion.geojson","source_catalog":"https://github.com/thanglequoc/vietnamese-provinces-database"},"geometry":null},{"type":"Feature","id":"03703","properties":{"commune_code":"03703","commune_name":"Quỳnh Nhai","commune_name_en":"Quynh Nhai","commune_full_name":"Xã Quỳnh Nhai","commune_full_name_en":"Quynh Nhai Commune","commune_slug":"quynh_nhai","unit_type":"Xã","unit_type_en":"Commune","admin_level":2,"province_code":"14","province_name":"Sơn La","province_full_name":"Tỉnh Sơn La","province_slug":"son_la","join_key":"03703","status":"active","dataset_effective_date":"2026-04-30","catalog_version":"2026-07-12","geometry_status":"not_embedded_boundary_available_by_url","boundary_source_url":"https://raw.githubusercontent.com/thanglequoc/vietnamese-provinces-database/master/json/geojson/14_son_la/wards/03703_quynh_nhai.geojson","boundary_source_page":"https://github.com/thanglequoc/vietnamese-provinces-database/blob/master/json/geojson/14_son_la/wards/03703_quynh_nhai.geojson","source_catalog":"https://github.com/thanglequoc/vietnamese-provinces-database"},"geometry":null},{"type":"Feature","id":"03712","properties":{"commune_code":"03712","commune_name":"Mường Sại","commune_name_en":"Muong Sai","commune_full_name":"Xã Mường Sại","commune_full_name_en":"Muong Sai Commune","commune_slug":"muong_sai","unit_type":"Xã","unit_type_en":"Commune","admin_level":2,"province_code":"14","province_name":"Sơn La","province_full_name":"Tỉnh Sơn La","province_slug":"son_la","join_key":"03712","status":"active","dataset_effective_date":"2026-04-30","catalog_version":"2026-07-12","geometry_status":"not_embedded_boundary_available_by_url","boundary_source_url":"https://raw.githubusercontent.com/thanglequoc/vietnamese-provinces-database/master/json/geojson/14_son_la/wards/03712_muong_sai.geojson","boundary_source_page":"https://github.com/thanglequoc/vietnamese-provinces-database/blob/master/json/geojson/14_son_la/wards/03712_muong_sai.geojson","source_catalog":"https://github.com/thanglequoc/vietnamese-provinces-database"},"geometry":null},{"type":"Feature","id":"03721","properties":{"commune_code":"03721","commune_name":"Thuận Châu","commune_name_en":"Thuan Chau","commune_full_name":"Xã Thuận Châu","commune_full_name_en":"Thuan Chau Commune","commune_slug":"thuan_chau","unit_type":"Xã","unit_type_en":"Commune","admin_level":2,"province_code":"14","province_name":"Sơn La","province_full_name":"Tỉnh Sơn La","province_slug":"son_la","join_key":"03721","status":"active","dataset_effective_date":"2026-04-30","catalog_version":"2026-07-12","geometry_status":"not_embedded_boundary_available_by_url","boundary_source_url":"https://raw.githubusercontent.com/thanglequoc/vietnamese-provinces-database/master/json/geojson/14_son_la/wards/03721_thuan_chau.geojson","boundary_source_page":"https://github.com/thanglequoc/vietnamese-provinces-database/blob/master/json/geojson/14_son_la/wards/03721_thuan_chau.geojson","source_catalog":"https://github.com/thanglequoc/vietnamese-provinces-database"},"geometry":null},{"type":"Feature","id":"03724","properties":{"commune_code":"03724","commune_name":"Bình Thuận","commune_name_en":"Binh Thuan","commune_full_name":"Xã Bình Thuận","commune_full_name_en":"Binh Thuan Commune","commune_slug":"binh_thuan","unit_type":"Xã","unit_type_en":"Commune","admin_level":2,"province_code":"14","province_name":"Sơn La","province_full_name":"Tỉnh Sơn La","province_slug":"son_la","join_key":"03724","status":"active","dataset_effective_date":"2026-04-30","catalog_version":"2026-07-12","geometry_status":"not_embedded_boundary_available_by_url","boundary_source_url":"https://raw.githubusercontent.com/thanglequoc/vietnamese-provinces-database/master/json/geojson/14_son_la/wards/03724_binh_thuan.geojson","boundary_source_page":"https://github.com/thanglequoc/vietnamese-provinces-database/blob/master/json/geojson/14_son_la/wards/03724_binh_thuan.geojson","source_catalog":"https://github.com/thanglequoc/vietnamese-provinces-database"},"geometry":null},{"type":"Feature","id":"03727","properties":{"commune_code":"03727","commune_name":"Mường É","commune_name_en":"Muong E","commune_full_name":"Xã Mường É","commune_full_name_en":"Muong E Commune","commune_slug":"muong_e","unit_type":"Xã","unit_type_en":"Commune","admin_level":2,"province_code":"14","province_name":"Sơn La","province_full_name":"Tỉnh Sơn La","province_slug":"son_la","join_key":"03727","status":"active","dataset_effective_date":"2026-04-30","catalog_version":"2026-07-12","geometry_status":"not_embedded_boundary_available_by_url","boundary_source_url":"https://raw.githubusercontent.com/thanglequoc/vietnamese-provinces-database/master/json/geojson/14_son_la/wards/03727_muong_e.geojson","boundary_source_page":"https://github.com/thanglequoc/vietnamese-provinces-database/blob/master/json/geojson/14_son_la/wards/03727_muong_e.geojson","source_catalog":"https://github.com/thanglequoc/vietnamese-provinces-database"},"geometry":null},{"type":"Feature","id":"03754","properties":{"commune_code":"03754","commune_name":"Chiềng La","commune_name_en":"Chieng La","commune_full_name":"Xã Chiềng La","commune_full_name_en":"Chieng La Commune","commune_slug":"chieng_la","unit_type":"Xã","unit_type_en":"Commune","admin_level":2,"province_code":"14","province_name":"Sơn La","province_full_name":"Tỉnh Sơn La","province_slug":"son_la","join_key":"03754","status":"active","dataset_effective_date":"2026-04-30","catalog_version":"2026-07-12","geometry_status":"not_embedded_boundary_available_by_url","boundary_source_url":"https://raw.githubusercontent.com/thanglequoc/vietnamese-provinces-database/master/json/geojson/14_son_la/wards/03754_chieng_la.geojson","boundary_source_page":"https://github.com/thanglequoc/vietnamese-provinces-database/blob/master/json/geojson/14_son_la/wards/03754_chieng_la.geojson","source_catalog":"https://github.com/thanglequoc/vietnamese-provinces-database"},"geometry":null},{"type":"Feature","id":"03757","properties":{"commune_code":"03757","commune_name":"Mường Khiêng","commune_name_en":"Muong Khieng","commune_full_name":"Xã Mường Khiêng","commune_full_name_en":"Muong Khieng Commune","commune_slug":"muong_khieng","unit_type":"Xã","unit_type_en":"Commune","admin_level":2,"province_code":"14","province_name":"Sơn La","province_full_name":"Tỉnh Sơn La","province_slug":"son_la","join_key":"03757","status":"active","dataset_effective_date":"2026-04-30","catalog_version":"2026-07-12","geometry_status":"not_embedded_boundary_available_by_url","boundary_source_url":"https://raw.githubusercontent.com/thanglequoc/vietnamese-provinces-database/master/json/geojson/14_son_la/wards/03757_muong_khieng.geojson","boundary_source_page":"https://github.com/thanglequoc/vietnamese-provinces-database/blob/master/json/geojson/14_son_la/wards/03757_muong_khieng.geojson","source_catalog":"https://github.com/thanglequoc/vietnamese-provinces-database"},"geometry":null},{"type":"Feature","id":"03760","properties":{"commune_code":"03760","commune_name":"Mường Bám","commune_name_en":"Muong Bam","commune_full_name":"Xã Mường Bám","commune_full_name_en":"Muong Bam Commune","commune_slug":"muong_bam","unit_type":"Xã","unit_type_en":"Commune","admin_level":2,"province_code":"14","province_name":"Sơn La","province_full_name":"Tỉnh Sơn La","province_slug":"son_la","join_key":"03760","status":"active","dataset_effective_date":"2026-04-30","catalog_version":"2026-07-12","geometry_status":"not_embedded_boundary_available_by_url","boundary_source_url":"https://raw.githubusercontent.com/thanglequoc/vietnamese-provinces-database/master/json/geojson/14_son_la/wards/03760_muong_bam.geojson","boundary_source_page":"https://github.com/thanglequoc/vietnamese-provinces-database/blob/master/json/geojson/14_son_la/wards/03760_muong_bam.geojson","source_catalog":"https://github.com/thanglequoc/vietnamese-provinces-database"},"geometry":null},{"type":"Feature","id":"03763","properties":{"commune_code":"03763","commune_name":"Long Hẹ","commune_name_en":"Long He","commune_full_name":"Xã Long Hẹ","commune_full_name_en":"Long He Commune","commune_slug":"long_he","unit_type":"Xã","unit_type_en":"Commune","admin_level":2,"province_code":"14","province_name":"Sơn La","province_full_name":"Tỉnh Sơn La","province_slug":"son_la","join_key":"03763","status":"active","dataset_effective_date":"2026-04-30","catalog_version":"2026-07-12","geometry_status":"not_embedded_boundary_available_by_url","boundary_source_url":"https://raw.githubusercontent.com/thanglequoc/vietnamese-provinces-database/master/json/geojson/14_son_la/wards/03763_long_he.geojson","boundary_source_page":"https://github.com/thanglequoc/vietnamese-provinces-database/blob/master/json/geojson/14_son_la/wards/03763_long_he.geojson","source_catalog":"https://github.com/thanglequoc/vietnamese-provinces-database"},"geometry":null},{"type":"Feature","id":"03781","properties":{"commune_code":"03781","commune_name":"Co Mạ","commune_name_en":"Co Ma","commune_full_name":"Xã Co Mạ","commune_full_name_en":"Co Ma Commune","commune_slug":"co_ma","unit_type":"Xã","unit_type_en":"Commune","admin_level":2,"province_code":"14","province_name":"Sơn La","province_full_name":"Tỉnh Sơn La","province_slug":"son_la","join_key":"03781","status":"active","dataset_effective_date":"2026-04-30","catalog_version":"2026-07-12","geometry_status":"not_embedded_boundary_available_by_url","boundary_source_url":"https://raw.githubusercontent.com/thanglequoc/vietnamese-provinces-database/master/json/geojson/14_son_la/wards/03781_co_ma.geojson","boundary_source_page":"https://github.com/thanglequoc/vietnamese-provinces-database/blob/master/json/geojson/14_son_la/wards/03781_co_ma.geojson","source_catalog":"https://github.com/thanglequoc/vietnamese-provinces-database"},"geometry":null},{"type":"Feature","id":"03784","properties":{"commune_code":"03784","commune_name":"Nậm Lầu","commune_name_en":"Nam Lau","commune_full_name":"Xã Nậm Lầu","commune_full_name_en":"Nam Lau Commune","commune_slug":"nam_lau","unit_type":"Xã","unit_type_en":"Commune","admin_level":2,"province_code":"14","province_name":"Sơn La","province_full_name":"Tỉnh Sơn La","province_slug":"son_la","join_key":"03784","status":"active","dataset_effective_date":"2026-04-30","catalog_version":"2026-07-12","geometry_status":"not_embedded_boundary_available_by_url","boundary_source_url":"https://raw.githubusercontent.com/thanglequoc/vietnamese-provinces-database/master/json/geojson/14_son_la/wards/03784_nam_lau.geojson","boundary_source_page":"https://github.com/thanglequoc/vietnamese-provinces-database/blob/master/json/geojson/14_son_la/wards/03784_nam_lau.geojson","source_catalog":"https://github.com/thanglequoc/vietnamese-provinces-database"},"geometry":null},{"type":"Feature","id":"03799","properties":{"commune_code":"03799","commune_name":"Muổi Nọi","commune_name_en":"Muoi Noi","commune_full_name":"Xã Muổi Nọi","commune_full_name_en":"Muoi Noi Commune","commune_slug":"muoi_noi","unit_type":"Xã","unit_type_en":"Commune","admin_level":2,"province_code":"14","province_name":"Sơn La","province_full_name":"Tỉnh Sơn La","province_slug":"son_la","join_key":"03799","status":"active","dataset_effective_date":"2026-04-30","catalog_version":"2026-07-12","geometry_status":"not_embedded_boundary_available_by_url","boundary_source_url":"https://raw.githubusercontent.com/thanglequoc/vietnamese-provinces-database/master/json/geojson/14_son_la/wards/03799_muoi_noi.geojson","boundary_source_page":"https://github.com/thanglequoc/vietnamese-provinces-database/blob/master/json/geojson/14_son_la/wards/03799_muoi_noi.geojson","source_catalog":"https://github.com/thanglequoc/vietnamese-provinces-database"},"geometry":null},{"type":"Feature","id":"03808","properties":{"commune_code":"03808","commune_name":"Mường La","commune_name_en":"Muong La","commune_full_name":"Xã Mường La","commune_full_name_en":"Muong La Commune","commune_slug":"muong_la","unit_type":"Xã","unit_type_en":"Commune","admin_level":2,"province_code":"14","province_name":"Sơn La","province_full_name":"Tỉnh Sơn La","province_slug":"son_la","join_key":"03808","status":"active","dataset_effective_date":"2026-04-30","catalog_version":"2026-07-12","geometry_status":"not_embedded_boundary_available_by_url","boundary_source_url":"https://raw.githubusercontent.com/thanglequoc/vietnamese-provinces-database/master/json/geojson/14_son_la/wards/03808_muong_la.geojson","boundary_source_page":"https://github.com/thanglequoc/vietnamese-provinces-database/blob/master/json/geojson/14_son_la/wards/03808_muong_la.geojson","source_catalog":"https://github.com/thanglequoc/vietnamese-provinces-database"},"geometry":null},{"type":"Feature","id":"03814","properties":{"commune_code":"03814","commune_name":"Chiềng Lao","commune_name_en":"Chieng Lao","commune_full_name":"Xã Chiềng Lao","commune_full_name_en":"Chieng Lao Commune","commune_slug":"chieng_lao","unit_type":"Xã","unit_type_en":"Commune","admin_level":2,"province_code":"14","province_name":"Sơn La","province_full_name":"Tỉnh Sơn La","province_slug":"son_la","join_key":"03814","status":"active","dataset_effective_date":"2026-04-30","catalog_version":"2026-07-12","geometry_status":"not_embedded_boundary_available_by_url","boundary_source_url":"https://raw.githubusercontent.com/thanglequoc/vietnamese-provinces-database/master/json/geojson/14_son_la/wards/03814_chieng_lao.geojson","boundary_source_page":"https://github.com/thanglequoc/vietnamese-provinces-database/blob/master/json/geojson/14_son_la/wards/03814_chieng_lao.geojson","source_catalog":"https://github.com/thanglequoc/vietnamese-provinces-database"},"geometry":null},{"type":"Feature","id":"03820","properties":{"commune_code":"03820","commune_name":"Ngọc Chiến","commune_name_en":"Ngoc Chien","commune_full_name":"Xã Ngọc Chiến","commune_full_name_en":"Ngoc Chien Commune","commune_slug":"ngoc_chien","unit_type":"Xã","unit_type_en":"Commune","admin_level":2,"province_code":"14","province_name":"Sơn La","province_full_name":"Tỉnh Sơn La","province_slug":"son_la","join_key":"03820","status":"active","dataset_effective_date":"2026-04-30","catalog_version":"2026-07-12","geometry_status":"not_embedded_boundary_available_by_url","boundary_source_url":"https://raw.githubusercontent.com/thanglequoc/vietnamese-provinces-database/master/json/geojson/14_son_la/wards/03820_ngoc_chien.geojson","boundary_source_page":"https://github.com/thanglequoc/vietnamese-provinces-database/blob/master/json/geojson/14_son_la/wards/03820_ngoc_chien.geojson","source_catalog":"https://github.com/thanglequoc/vietnamese-provinces-database"},"geometry":null},{"type":"Feature","id":"03847","properties":{"commune_code":"03847","commune_name":"Mường Bú","commune_name_en":"Muong Bu","commune_full_name":"Xã Mường Bú","commune_full_name_en":"Muong Bu Commune","commune_slug":"muong_bu","unit_type":"Xã","unit_type_en":"Commune","admin_level":2,"province_code":"14","province_name":"Sơn La","province_full_name":"Tỉnh Sơn La","province_slug":"son_la","join_key":"03847","status":"active","dataset_effective_date":"2026-04-30","catalog_version":"2026-07-12","geometry_status":"not_embedded_boundary_available_by_url","boundary_source_url":"https://raw.githubusercontent.com/thanglequoc/vietnamese-provinces-database/master/json/geojson/14_son_la/wards/03847_muong_bu.geojson","boundary_source_page":"https://github.com/thanglequoc/vietnamese-provinces-database/blob/master/json/geojson/14_son_la/wards/03847_muong_bu.geojson","source_catalog":"https://github.com/thanglequoc/vietnamese-provinces-database"},"geometry":null},{"type":"Feature","id":"03850","properties":{"commune_code":"03850","commune_name":"Chiềng Hoa","commune_name_en":"Chieng Hoa","commune_full_name":"Xã Chiềng Hoa","commune_full_name_en":"Chieng Hoa Commune","commune_slug":"chieng_hoa","unit_type":"Xã","unit_type_en":"Commune","admin_level":2,"province_code":"14","province_name":"Sơn La","province_full_name":"Tỉnh Sơn La","province_slug":"son_la","join_key":"03850","status":"active","dataset_effective_date":"2026-04-30","catalog_version":"2026-07-12","geometry_status":"not_embedded_boundary_available_by_url","boundary_source_url":"https://raw.githubusercontent.com/thanglequoc/vietnamese-provinces-database/master/json/geojson/14_son_la/wards/03850_chieng_hoa.geojson","boundary_source_page":"https://github.com/thanglequoc/vietnamese-provinces-database/blob/master/json/geojson/14_son_la/wards/03850_chieng_hoa.geojson","source_catalog":"https://github.com/thanglequoc/vietnamese-provinces-database"},"geometry":null},{"type":"Feature","id":"03856","properties":{"commune_code":"03856","commune_name":"Bắc Yên","commune_name_en":"Bac Yen","commune_full_name":"Xã Bắc Yên","commune_full_name_en":"Bac Yen Commune","commune_slug":"bac_yen","unit_type":"Xã","unit_type_en":"Commune","admin_level":2,"province_code":"14","province_name":"Sơn La","province_full_name":"Tỉnh Sơn La","province_slug":"son_la","join_key":"03856","status":"active","dataset_effective_date":"2026-04-30","catalog_version":"2026-07-12","geometry_status":"not_embedded_boundary_available_by_url","boundary_source_url":"https://raw.githubusercontent.com/thanglequoc/vietnamese-provinces-database/master/json/geojson/14_son_la/wards/03856_bac_yen.geojson","boundary_source_page":"https://github.com/thanglequoc/vietnamese-provinces-database/blob/master/json/geojson/14_son_la/wards/03856_bac_yen.geojson","source_catalog":"https://github.com/thanglequoc/vietnamese-provinces-database"},"geometry":null},{"type":"Feature","id":"03862","properties":{"commune_code":"03862","commune_name":"Xím Vàng","commune_name_en":"Xim Vang","commune_full_name":"Xã Xím Vàng","commune_full_name_en":"Xim Vang Commune","commune_slug":"xim_vang","unit_type":"Xã","unit_type_en":"Commune","admin_level":2,"province_code":"14","province_name":"Sơn La","province_full_name":"Tỉnh Sơn La","province_slug":"son_la","join_key":"03862","status":"active","dataset_effective_date":"2026-04-30","catalog_version":"2026-07-12","geometry_status":"not_embedded_boundary_available_by_url","boundary_source_url":"https://raw.githubusercontent.com/thanglequoc/vietnamese-provinces-database/master/json/geojson/14_son_la/wards/03862_xim_vang.geojson","boundary_source_page":"https://github.com/thanglequoc/vietnamese-provinces-database/blob/master/json/geojson/14_son_la/wards/03862_xim_vang.geojson","source_catalog":"https://github.com/thanglequoc/vietnamese-provinces-database"},"geometry":null},{"type":"Feature","id":"03868","properties":{"commune_code":"03868","commune_name":"Tà Xùa","commune_name_en":"Ta Xua","commune_full_name":"Xã Tà Xùa","commune_full_name_en":"Ta Xua Commune","commune_slug":"ta_xua","unit_type":"Xã","unit_type_en":"Commune","admin_level":2,"province_code":"14","province_name":"Sơn La","province_full_name":"Tỉnh Sơn La","province_slug":"son_la","join_key":"03868","status":"active","dataset_effective_date":"2026-04-30","catalog_version":"2026-07-12","geometry_status":"not_embedded_boundary_available_by_url","boundary_source_url":"https://raw.githubusercontent.com/thanglequoc/vietnamese-provinces-database/master/json/geojson/14_son_la/wards/03868_ta_xua.geojson","boundary_source_page":"https://github.com/thanglequoc/vietnamese-provinces-database/blob/master/json/geojson/14_son_la/wards/03868_ta_xua.geojson","source_catalog":"https://github.com/thanglequoc/vietnamese-provinces-database"},"geometry":null},{"type":"Feature","id":"03871","properties":{"commune_code":"03871","commune_name":"Pắc Ngà","commune_name_en":"Pac Nga","commune_full_name":"Xã Pắc Ngà","commune_full_name_en":"Pac Nga Commune","commune_slug":"pac_nga","unit_type":"Xã","unit_type_en":"Commune","admin_level":2,"province_code":"14","province_name":"Sơn La","province_full_name":"Tỉnh Sơn La","province_slug":"son_la","join_key":"03871","status":"active","dataset_effective_date":"2026-04-30","catalog_version":"2026-07-12","geometry_status":"not_embedded_boundary_available_by_url","boundary_source_url":"https://raw.githubusercontent.com/thanglequoc/vietnamese-provinces-database/master/json/geojson/14_son_la/wards/03871_pac_nga.geojson","boundary_source_page":"https://github.com/thanglequoc/vietnamese-provinces-database/blob/master/json/geojson/14_son_la/wards/03871_pac_nga.geojson","source_catalog":"https://github.com/thanglequoc/vietnamese-provinces-database"},"geometry":null},{"type":"Feature","id":"03880","properties":{"commune_code":"03880","commune_name":"Tạ Khoa","commune_name_en":"Ta Khoa","commune_full_name":"Xã Tạ Khoa","commune_full_name_en":"Ta Khoa Commune","commune_slug":"ta_khoa","unit_type":"Xã","unit_type_en":"Commune","admin_level":2,"province_code":"14","province_name":"Sơn La","province_full_name":"Tỉnh Sơn La","province_slug":"son_la","join_key":"03880","status":"active","dataset_effective_date":"2026-04-30","catalog_version":"2026-07-12","geometry_status":"not_embedded_boundary_available_by_url","boundary_source_url":"https://raw.githubusercontent.com/thanglequoc/vietnamese-provinces-database/master/json/geojson/14_son_la/wards/03880_ta_khoa.geojson","boundary_source_page":"https://github.com/thanglequoc/vietnamese-provinces-database/blob/master/json/geojson/14_son_la/wards/03880_ta_khoa.geojson","source_catalog":"https://github.com/thanglequoc/vietnamese-provinces-database"},"geometry":null},{"type":"Feature","id":"03892","properties":{"commune_code":"03892","commune_name":"Chiềng Sại","commune_name_en":"Chieng Sai","commune_full_name":"Xã Chiềng Sại","commune_full_name_en":"Chieng Sai Commune","commune_slug":"chieng_sai","unit_type":"Xã","unit_type_en":"Commune","admin_level":2,"province_code":"14","province_name":"Sơn La","province_full_name":"Tỉnh Sơn La","province_slug":"son_la","join_key":"03892","status":"active","dataset_effective_date":"2026-04-30","catalog_version":"2026-07-12","geometry_status":"not_embedded_boundary_available_by_url","boundary_source_url":"https://raw.githubusercontent.com/thanglequoc/vietnamese-provinces-database/master/json/geojson/14_son_la/wards/03892_chieng_sai.geojson","boundary_source_page":"https://github.com/thanglequoc/vietnamese-provinces-database/blob/master/json/geojson/14_son_la/wards/03892_chieng_sai.geojson","source_catalog":"https://github.com/thanglequoc/vietnamese-provinces-database"},"geometry":null},{"type":"Feature","id":"03901","properties":{"commune_code":"03901","commune_name":"Suối Tọ","commune_name_en":"Suoi To","commune_full_name":"Xã Suối Tọ","commune_full_name_en":"Suoi To Commune","commune_slug":"suoi_to","unit_type":"Xã","unit_type_en":"Commune","admin_level":2,"province_code":"14","province_name":"Sơn La","province_full_name":"Tỉnh Sơn La","province_slug":"son_la","join_key":"03901","status":"active","dataset_effective_date":"2026-04-30","catalog_version":"2026-07-12","geometry_status":"not_embedded_boundary_available_by_url","boundary_source_url":"https://raw.githubusercontent.com/thanglequoc/vietnamese-provinces-database/master/json/geojson/14_son_la/wards/03901_suoi_to.geojson","boundary_source_page":"https://github.com/thanglequoc/vietnamese-provinces-database/blob/master/json/geojson/14_son_la/wards/03901_suoi_to.geojson","source_catalog":"https://github.com/thanglequoc/vietnamese-provinces-database"},"geometry":null},{"type":"Feature","id":"03907","properties":{"commune_code":"03907","commune_name":"Mường Cơi","commune_name_en":"Muong Coi","commune_full_name":"Xã Mường Cơi","commune_full_name_en":"Muong Coi Commune","commune_slug":"muong_coi","unit_type":"Xã","unit_type_en":"Commune","admin_level":2,"province_code":"14","province_name":"Sơn La","province_full_name":"Tỉnh Sơn La","province_slug":"son_la","join_key":"03907","status":"active","dataset_effective_date":"2026-04-30","catalog_version":"2026-07-12","geometry_status":"not_embedded_boundary_available_by_url","boundary_source_url":"https://raw.githubusercontent.com/thanglequoc/vietnamese-provinces-database/master/json/geojson/14_son_la/wards/03907_muong_coi.geojson","boundary_source_page":"https://github.com/thanglequoc/vietnamese-provinces-database/blob/master/json/geojson/14_son_la/wards/03907_muong_coi.geojson","source_catalog":"https://github.com/thanglequoc/vietnamese-provinces-database"},"geometry":null},{"type":"Feature","id":"03910","properties":{"commune_code":"03910","commune_name":"Phù Yên","commune_name_en":"Phu Yen","commune_full_name":"Xã Phù Yên","commune_full_name_en":"Phu Yen Commune","commune_slug":"phu_yen","unit_type":"Xã","unit_type_en":"Commune","admin_level":2,"province_code":"14","province_name":"Sơn La","province_full_name":"Tỉnh Sơn La","province_slug":"son_la","join_key":"03910","status":"active","dataset_effective_date":"2026-04-30","catalog_version":"2026-07-12","geometry_status":"not_embedded_boundary_available_by_url","boundary_source_url":"https://raw.githubusercontent.com/thanglequoc/vietnamese-provinces-database/master/json/geojson/14_son_la/wards/03910_phu_yen.geojson","boundary_source_page":"https://github.com/thanglequoc/vietnamese-provinces-database/blob/master/json/geojson/14_son_la/wards/03910_phu_yen.geojson","source_catalog":"https://github.com/thanglequoc/vietnamese-provinces-database"},"geometry":null},{"type":"Feature","id":"03922","properties":{"commune_code":"03922","commune_name":"Gia Phù","commune_name_en":"Gia Phu","commune_full_name":"Xã Gia Phù","commune_full_name_en":"Gia Phu Commune","commune_slug":"gia_phu","unit_type":"Xã","unit_type_en":"Commune","admin_level":2,"province_code":"14","province_name":"Sơn La","province_full_name":"Tỉnh Sơn La","province_slug":"son_la","join_key":"03922","status":"active","dataset_effective_date":"2026-04-30","catalog_version":"2026-07-12","geometry_status":"not_embedded_boundary_available_by_url","boundary_source_url":"https://raw.githubusercontent.com/thanglequoc/vietnamese-provinces-database/master/json/geojson/14_son_la/wards/03922_gia_phu.geojson","boundary_source_page":"https://github.com/thanglequoc/vietnamese-provinces-database/blob/master/json/geojson/14_son_la/wards/03922_gia_phu.geojson","source_catalog":"https://github.com/thanglequoc/vietnamese-provinces-database"},"geometry":null},{"type":"Feature","id":"03943","properties":{"commune_code":"03943","commune_name":"Mường Bang","commune_name_en":"Muong Bang","commune_full_name":"Xã Mường Bang","commune_full_name_en":"Muong Bang Commune","commune_slug":"muong_bang","unit_type":"Xã","unit_type_en":"Commune","admin_level":2,"province_code":"14","province_name":"Sơn La","province_full_name":"Tỉnh Sơn La","province_slug":"son_la","join_key":"03943","status":"active","dataset_effective_date":"2026-04-30","catalog_version":"2026-07-12","geometry_status":"not_embedded_boundary_available_by_url","boundary_source_url":"https://raw.githubusercontent.com/thanglequoc/vietnamese-provinces-database/master/json/geojson/14_son_la/wards/03943_muong_bang.geojson","boundary_source_page":"https://github.com/thanglequoc/vietnamese-provinces-database/blob/master/json/geojson/14_son_la/wards/03943_muong_bang.geojson","source_catalog":"https://github.com/thanglequoc/vietnamese-provinces-database"},"geometry":null},{"type":"Feature","id":"03958","properties":{"commune_code":"03958","commune_name":"Tường Hạ","commune_name_en":"Tuong Ha","commune_full_name":"Xã Tường Hạ","commune_full_name_en":"Tuong Ha Commune","commune_slug":"tuong_ha","unit_type":"Xã","unit_type_en":"Commune","admin_level":2,"province_code":"14","province_name":"Sơn La","province_full_name":"Tỉnh Sơn La","province_slug":"son_la","join_key":"03958","status":"active","dataset_effective_date":"2026-04-30","catalog_version":"2026-07-12","geometry_status":"not_embedded_boundary_available_by_url","boundary_source_url":"https://raw.githubusercontent.com/thanglequoc/vietnamese-provinces-database/master/json/geojson/14_son_la/wards/03958_tuong_ha.geojson","boundary_source_page":"https://github.com/thanglequoc/vietnamese-provinces-database/blob/master/json/geojson/14_son_la/wards/03958_tuong_ha.geojson","source_catalog":"https://github.com/thanglequoc/vietnamese-provinces-database"},"geometry":null},{"type":"Feature","id":"03961","properties":{"commune_code":"03961","commune_name":"Kim Bon","commune_name_en":"Kim Bon","commune_full_name":"Xã Kim Bon","commune_full_name_en":"Kim Bon Commune","commune_slug":"kim_bon","unit_type":"Xã","unit_type_en":"Commune","admin_level":2,"province_code":"14","province_name":"Sơn La","province_full_name":"Tỉnh Sơn La","province_slug":"son_la","join_key":"03961","status":"active","dataset_effective_date":"2026-04-30","catalog_version":"2026-07-12","geometry_status":"not_embedded_boundary_available_by_url","boundary_source_url":"https://raw.githubusercontent.com/thanglequoc/vietnamese-provinces-database/master/json/geojson/14_son_la/wards/03961_kim_bon.geojson","boundary_source_page":"https://github.com/thanglequoc/vietnamese-provinces-database/blob/master/json/geojson/14_son_la/wards/03961_kim_bon.geojson","source_catalog":"https://github.com/thanglequoc/vietnamese-provinces-database"},"geometry":null},{"type":"Feature","id":"03970","properties":{"commune_code":"03970","commune_name":"Tân Phong","commune_name_en":"Tan Phong","commune_full_name":"Xã Tân Phong","commune_full_name_en":"Tan Phong Commune","commune_slug":"tan_phong","unit_type":"Xã","unit_type_en":"Commune","admin_level":2,"province_code":"14","province_name":"Sơn La","province_full_name":"Tỉnh Sơn La","province_slug":"son_la","join_key":"03970","status":"active","dataset_effective_date":"2026-04-30","catalog_version":"2026-07-12","geometry_status":"not_embedded_boundary_available_by_url","boundary_source_url":"https://raw.githubusercontent.com/thanglequoc/vietnamese-provinces-database/master/json/geojson/14_son_la/wards/03970_tan_phong.geojson","boundary_source_page":"https://github.com/thanglequoc/vietnamese-provinces-database/blob/master/json/geojson/14_son_la/wards/03970_tan_phong.geojson","source_catalog":"https://github.com/thanglequoc/vietnamese-provinces-database"},"geometry":null},{"type":"Feature","id":"03979","properties":{"commune_code":"03979","commune_name":"Mộc Sơn","commune_name_en":"Moc Son","commune_full_name":"Phường Mộc Sơn","commune_full_name_en":"Moc Son Ward","commune_slug":"moc_son","unit_type":"Phường","unit_type_en":"Ward","admin_level":2,"province_code":"14","province_name":"Sơn La","province_full_name":"Tỉnh Sơn La","province_slug":"son_la","join_key":"03979","status":"active","dataset_effective_date":"2026-04-30","catalog_version":"2026-07-12","geometry_status":"not_embedded_boundary_available_by_url","boundary_source_url":"https://raw.githubusercontent.com/thanglequoc/vietnamese-provinces-database/master/json/geojson/14_son_la/wards/03979_moc_son.geojson","boundary_source_page":"https://github.com/thanglequoc/vietnamese-provinces-database/blob/master/json/geojson/14_son_la/wards/03979_moc_son.geojson","source_catalog":"https://github.com/thanglequoc/vietnamese-provinces-database"},"geometry":null},{"type":"Feature","id":"03980","properties":{"commune_code":"03980","commune_name":"Mộc Châu","commune_name_en":"Moc Chau","commune_full_name":"Phường Mộc Châu","commune_full_name_en":"Moc Chau Ward","commune_slug":"moc_chau","unit_type":"Phường","unit_type_en":"Ward","admin_level":2,"province_code":"14","province_name":"Sơn La","province_full_name":"Tỉnh Sơn La","province_slug":"son_la","join_key":"03980","status":"active","dataset_effective_date":"2026-04-30","catalog_version":"2026-07-12","geometry_status":"not_embedded_boundary_available_by_url","boundary_source_url":"https://raw.githubusercontent.com/thanglequoc/vietnamese-provinces-database/master/json/geojson/14_son_la/wards/03980_moc_chau.geojson","boundary_source_page":"https://github.com/thanglequoc/vietnamese-provinces-database/blob/master/json/geojson/14_son_la/wards/03980_moc_chau.geojson","source_catalog":"https://github.com/thanglequoc/vietnamese-provinces-database"},"geometry":null},{"type":"Feature","id":"03982","properties":{"commune_code":"03982","commune_name":"Thảo Nguyên","commune_name_en":"Thao Nguyen","commune_full_name":"Phường Thảo Nguyên","commune_full_name_en":"Thao Nguyen Ward","commune_slug":"thao_nguyen","unit_type":"Phường","unit_type_en":"Ward","admin_level":2,"province_code":"14","province_name":"Sơn La","province_full_name":"Tỉnh Sơn La","province_slug":"son_la","join_key":"03982","status":"active","dataset_effective_date":"2026-04-30","catalog_version":"2026-07-12","geometry_status":"not_embedded_boundary_available_by_url","boundary_source_url":"https://raw.githubusercontent.com/thanglequoc/vietnamese-provinces-database/master/json/geojson/14_son_la/wards/03982_thao_nguyen.geojson","boundary_source_page":"https://github.com/thanglequoc/vietnamese-provinces-database/blob/master/json/geojson/14_son_la/wards/03982_thao_nguyen.geojson","source_catalog":"https://github.com/thanglequoc/vietnamese-provinces-database"},"geometry":null},{"type":"Feature","id":"03985","properties":{"commune_code":"03985","commune_name":"Chiềng Sơn","commune_name_en":"Chieng Son","commune_full_name":"Xã Chiềng Sơn","commune_full_name_en":"Chieng Son Commune","commune_slug":"chieng_son","unit_type":"Xã","unit_type_en":"Commune","admin_level":2,"province_code":"14","province_name":"Sơn La","province_full_name":"Tỉnh Sơn La","province_slug":"son_la","join_key":"03985","status":"active","dataset_effective_date":"2026-04-30","catalog_version":"2026-07-12","geometry_status":"not_embedded_boundary_available_by_url","boundary_source_url":"https://raw.githubusercontent.com/thanglequoc/vietnamese-provinces-database/master/json/geojson/14_son_la/wards/03985_chieng_son.geojson","boundary_source_page":"https://github.com/thanglequoc/vietnamese-provinces-database/blob/master/json/geojson/14_son_la/wards/03985_chieng_son.geojson","source_catalog":"https://github.com/thanglequoc/vietnamese-provinces-database"},"geometry":null},{"type":"Feature","id":"03997","properties":{"commune_code":"03997","commune_name":"Tân Yên","commune_name_en":"Tan Yen","commune_full_name":"Xã Tân Yên","commune_full_name_en":"Tan Yen Commune","commune_slug":"tan_yen","unit_type":"Xã","unit_type_en":"Commune","admin_level":2,"province_code":"14","province_name":"Sơn La","province_full_name":"Tỉnh Sơn La","province_slug":"son_la","join_key":"03997","status":"active","dataset_effective_date":"2026-04-30","catalog_version":"2026-07-12","geometry_status":"not_embedded_boundary_available_by_url","boundary_source_url":"https://raw.githubusercontent.com/thanglequoc/vietnamese-provinces-database/master/json/geojson/14_son_la/wards/03997_tan_yen.geojson","boundary_source_page":"https://github.com/thanglequoc/vietnamese-provinces-database/blob/master/json/geojson/14_son_la/wards/03997_tan_yen.geojson","source_catalog":"https://github.com/thanglequoc/vietnamese-provinces-database"},"geometry":null},{"type":"Feature","id":"04000","properties":{"commune_code":"04000","commune_name":"Đoàn Kết","commune_name_en":"Doan Ket","commune_full_name":"Xã Đoàn Kết","commune_full_name_en":"Doan Ket Commune","commune_slug":"doan_ket","unit_type":"Xã","unit_type_en":"Commune","admin_level":2,"province_code":"14","province_name":"Sơn La","province_full_name":"Tỉnh Sơn La","province_slug":"son_la","join_key":"04000","status":"active","dataset_effective_date":"2026-04-30","catalog_version":"2026-07-12","geometry_status":"not_embedded_boundary_available_by_url","boundary_source_url":"https://raw.githubusercontent.com/thanglequoc/vietnamese-provinces-database/master/json/geojson/14_son_la/wards/04000_doan_ket.geojson","boundary_source_page":"https://github.com/thanglequoc/vietnamese-provinces-database/blob/master/json/geojson/14_son_la/wards/04000_doan_ket.geojson","source_catalog":"https://github.com/thanglequoc/vietnamese-provinces-database"},"geometry":null},{"type":"Feature","id":"04006","properties":{"commune_code":"04006","commune_name":"Song Khủa","commune_name_en":"Song Khua","commune_full_name":"Xã Song Khủa","commune_full_name_en":"Song Khua Commune","commune_slug":"song_khua","unit_type":"Xã","unit_type_en":"Commune","admin_level":2,"province_code":"14","province_name":"Sơn La","province_full_name":"Tỉnh Sơn La","province_slug":"son_la","join_key":"04006","status":"active","dataset_effective_date":"2026-04-30","catalog_version":"2026-07-12","geometry_status":"not_embedded_boundary_available_by_url","boundary_source_url":"https://raw.githubusercontent.com/thanglequoc/vietnamese-provinces-database/master/json/geojson/14_son_la/wards/04006_song_khua.geojson","boundary_source_page":"https://github.com/thanglequoc/vietnamese-provinces-database/blob/master/json/geojson/14_son_la/wards/04006_song_khua.geojson","source_catalog":"https://github.com/thanglequoc/vietnamese-provinces-database"},"geometry":null},{"type":"Feature","id":"04018","properties":{"commune_code":"04018","commune_name":"Tô Múa","commune_name_en":"To Mua","commune_full_name":"Xã Tô Múa","commune_full_name_en":"To Mua Commune","commune_slug":"to_mua","unit_type":"Xã","unit_type_en":"Commune","admin_level":2,"province_code":"14","province_name":"Sơn La","province_full_name":"Tỉnh Sơn La","province_slug":"son_la","join_key":"04018","status":"active","dataset_effective_date":"2026-04-30","catalog_version":"2026-07-12","geometry_status":"not_embedded_boundary_available_by_url","boundary_source_url":"https://raw.githubusercontent.com/thanglequoc/vietnamese-provinces-database/master/json/geojson/14_son_la/wards/04018_to_mua.geojson","boundary_source_page":"https://github.com/thanglequoc/vietnamese-provinces-database/blob/master/json/geojson/14_son_la/wards/04018_to_mua.geojson","source_catalog":"https://github.com/thanglequoc/vietnamese-provinces-database"},"geometry":null},{"type":"Feature","id":"04033","properties":{"commune_code":"04033","commune_name":"Vân Sơn","commune_name_en":"Van Son","commune_full_name":"Phường Vân Sơn","commune_full_name_en":"Van Son Ward","commune_slug":"van_son","unit_type":"Phường","unit_type_en":"Ward","admin_level":2,"province_code":"14","province_name":"Sơn La","province_full_name":"Tỉnh Sơn La","province_slug":"son_la","join_key":"04033","status":"active","dataset_effective_date":"2026-04-30","catalog_version":"2026-07-12","geometry_status":"not_embedded_boundary_available_by_url","boundary_source_url":"https://raw.githubusercontent.com/thanglequoc/vietnamese-provinces-database/master/json/geojson/14_son_la/wards/04033_van_son.geojson","boundary_source_page":"https://github.com/thanglequoc/vietnamese-provinces-database/blob/master/json/geojson/14_son_la/wards/04033_van_son.geojson","source_catalog":"https://github.com/thanglequoc/vietnamese-provinces-database"},"geometry":null},{"type":"Feature","id":"04045","properties":{"commune_code":"04045","commune_name":"Lóng Sập","commune_name_en":"Long Sap","commune_full_name":"Xã Lóng Sập","commune_full_name_en":"Long Sap Commune","commune_slug":"long_sap","unit_type":"Xã","unit_type_en":"Commune","admin_level":2,"province_code":"14","province_name":"Sơn La","province_full_name":"Tỉnh Sơn La","province_slug":"son_la","join_key":"04045","status":"active","dataset_effective_date":"2026-04-30","catalog_version":"2026-07-12","geometry_status":"not_embedded_boundary_available_by_url","boundary_source_url":"https://raw.githubusercontent.com/thanglequoc/vietnamese-provinces-database/master/json/geojson/14_son_la/wards/04045_long_sap.geojson","boundary_source_page":"https://github.com/thanglequoc/vietnamese-provinces-database/blob/master/json/geojson/14_son_la/wards/04045_long_sap.geojson","source_catalog":"https://github.com/thanglequoc/vietnamese-provinces-database"},"geometry":null},{"type":"Feature","id":"04048","properties":{"commune_code":"04048","commune_name":"Vân Hồ","commune_name_en":"Van Ho","commune_full_name":"Xã Vân Hồ","commune_full_name_en":"Van Ho Commune","commune_slug":"van_ho","unit_type":"Xã","unit_type_en":"Commune","admin_level":2,"province_code":"14","province_name":"Sơn La","province_full_name":"Tỉnh Sơn La","province_slug":"son_la","join_key":"04048","status":"active","dataset_effective_date":"2026-04-30","catalog_version":"2026-07-12","geometry_status":"not_embedded_boundary_available_by_url","boundary_source_url":"https://raw.githubusercontent.com/thanglequoc/vietnamese-provinces-database/master/json/geojson/14_son_la/wards/04048_van_ho.geojson","boundary_source_page":"https://github.com/thanglequoc/vietnamese-provinces-database/blob/master/json/geojson/14_son_la/wards/04048_van_ho.geojson","source_catalog":"https://github.com/thanglequoc/vietnamese-provinces-database"},"geometry":null},{"type":"Feature","id":"04057","properties":{"commune_code":"04057","commune_name":"Xuân Nha","commune_name_en":"Xuan Nha","commune_full_name":"Xã Xuân Nha","commune_full_name_en":"Xuan Nha Commune","commune_slug":"xuan_nha","unit_type":"Xã","unit_type_en":"Commune","admin_level":2,"province_code":"14","province_name":"Sơn La","province_full_name":"Tỉnh Sơn La","province_slug":"son_la","join_key":"04057","status":"active","dataset_effective_date":"2026-04-30","catalog_version":"2026-07-12","geometry_status":"not_embedded_boundary_available_by_url","boundary_source_url":"https://raw.githubusercontent.com/thanglequoc/vietnamese-provinces-database/master/json/geojson/14_son_la/wards/04057_xuan_nha.geojson","boundary_source_page":"https://github.com/thanglequoc/vietnamese-provinces-database/blob/master/json/geojson/14_son_la/wards/04057_xuan_nha.geojson","source_catalog":"https://github.com/thanglequoc/vietnamese-provinces-database"},"geometry":null},{"type":"Feature","id":"04075","properties":{"commune_code":"04075","commune_name":"Yên Châu","commune_name_en":"Yen Chau","commune_full_name":"Xã Yên Châu","commune_full_name_en":"Yen Chau Commune","commune_slug":"yen_chau","unit_type":"Xã","unit_type_en":"Commune","admin_level":2,"province_code":"14","province_name":"Sơn La","province_full_name":"Tỉnh Sơn La","province_slug":"son_la","join_key":"04075","status":"active","dataset_effective_date":"2026-04-30","catalog_version":"2026-07-12","geometry_status":"not_embedded_boundary_available_by_url","boundary_source_url":"https://raw.githubusercontent.com/thanglequoc/vietnamese-provinces-database/master/json/geojson/14_son_la/wards/04075_yen_chau.geojson","boundary_source_page":"https://github.com/thanglequoc/vietnamese-provinces-database/blob/master/json/geojson/14_son_la/wards/04075_yen_chau.geojson","source_catalog":"https://github.com/thanglequoc/vietnamese-provinces-database"},"geometry":null},{"type":"Feature","id":"04078","properties":{"commune_code":"04078","commune_name":"Chiềng Hặc","commune_name_en":"Chieng Hac","commune_full_name":"Xã Chiềng Hặc","commune_full_name_en":"Chieng Hac Commune","commune_slug":"chieng_hac","unit_type":"Xã","unit_type_en":"Commune","admin_level":2,"province_code":"14","province_name":"Sơn La","province_full_name":"Tỉnh Sơn La","province_slug":"son_la","join_key":"04078","status":"active","dataset_effective_date":"2026-04-30","catalog_version":"2026-07-12","geometry_status":"not_embedded_boundary_available_by_url","boundary_source_url":"https://raw.githubusercontent.com/thanglequoc/vietnamese-provinces-database/master/json/geojson/14_son_la/wards/04078_chieng_hac.geojson","boundary_source_page":"https://github.com/thanglequoc/vietnamese-provinces-database/blob/master/json/geojson/14_son_la/wards/04078_chieng_hac.geojson","source_catalog":"https://github.com/thanglequoc/vietnamese-provinces-database"},"geometry":null},{"type":"Feature","id":"04087","properties":{"commune_code":"04087","commune_name":"Yên Sơn","commune_name_en":"Yen Son","commune_full_name":"Xã Yên Sơn","commune_full_name_en":"Yen Son Commune","commune_slug":"yen_son","unit_type":"Xã","unit_type_en":"Commune","admin_level":2,"province_code":"14","province_name":"Sơn La","province_full_name":"Tỉnh Sơn La","province_slug":"son_la","join_key":"04087","status":"active","dataset_effective_date":"2026-04-30","catalog_version":"2026-07-12","geometry_status":"not_embedded_boundary_available_by_url","boundary_source_url":"https://raw.githubusercontent.com/thanglequoc/vietnamese-provinces-database/master/json/geojson/14_son_la/wards/04087_yen_son.geojson","boundary_source_page":"https://github.com/thanglequoc/vietnamese-provinces-database/blob/master/json/geojson/14_son_la/wards/04087_yen_son.geojson","source_catalog":"https://github.com/thanglequoc/vietnamese-provinces-database"},"geometry":null},{"type":"Feature","id":"04096","properties":{"commune_code":"04096","commune_name":"Lóng Phiêng","commune_name_en":"Long Phieng","commune_full_name":"Xã Lóng Phiêng","commune_full_name_en":"Long Phieng Commune","commune_slug":"long_phieng","unit_type":"Xã","unit_type_en":"Commune","admin_level":2,"province_code":"14","province_name":"Sơn La","province_full_name":"Tỉnh Sơn La","province_slug":"son_la","join_key":"04096","status":"active","dataset_effective_date":"2026-04-30","catalog_version":"2026-07-12","geometry_status":"not_embedded_boundary_available_by_url","boundary_source_url":"https://raw.githubusercontent.com/thanglequoc/vietnamese-provinces-database/master/json/geojson/14_son_la/wards/04096_long_phieng.geojson","boundary_source_page":"https://github.com/thanglequoc/vietnamese-provinces-database/blob/master/json/geojson/14_son_la/wards/04096_long_phieng.geojson","source_catalog":"https://github.com/thanglequoc/vietnamese-provinces-database"},"geometry":null},{"type":"Feature","id":"04099","properties":{"commune_code":"04099","commune_name":"Phiêng Khoài","commune_name_en":"Phieng Khoai","commune_full_name":"Xã Phiêng Khoài","commune_full_name_en":"Phieng Khoai Commune","commune_slug":"phieng_khoai","unit_type":"Xã","unit_type_en":"Commune","admin_level":2,"province_code":"14","province_name":"Sơn La","province_full_name":"Tỉnh Sơn La","province_slug":"son_la","join_key":"04099","status":"active","dataset_effective_date":"2026-04-30","catalog_version":"2026-07-12","geometry_status":"not_embedded_boundary_available_by_url","boundary_source_url":"https://raw.githubusercontent.com/thanglequoc/vietnamese-provinces-database/master/json/geojson/14_son_la/wards/04099_phieng_khoai.geojson","boundary_source_page":"https://github.com/thanglequoc/vietnamese-provinces-database/blob/master/json/geojson/14_son_la/wards/04099_phieng_khoai.geojson","source_catalog":"https://github.com/thanglequoc/vietnamese-provinces-database"},"geometry":null},{"type":"Feature","id":"04105","properties":{"commune_code":"04105","commune_name":"Mai Sơn","commune_name_en":"Mai Son","commune_full_name":"Xã Mai Sơn","commune_full_name_en":"Mai Son Commune","commune_slug":"mai_son","unit_type":"Xã","unit_type_en":"Commune","admin_level":2,"province_code":"14","province_name":"Sơn La","province_full_name":"Tỉnh Sơn La","province_slug":"son_la","join_key":"04105","status":"active","dataset_effective_date":"2026-04-30","catalog_version":"2026-07-12","geometry_status":"not_embedded_boundary_available_by_url","boundary_source_url":"https://raw.githubusercontent.com/thanglequoc/vietnamese-provinces-database/master/json/geojson/14_son_la/wards/04105_mai_son.geojson","boundary_source_page":"https://github.com/thanglequoc/vietnamese-provinces-database/blob/master/json/geojson/14_son_la/wards/04105_mai_son.geojson","source_catalog":"https://github.com/thanglequoc/vietnamese-provinces-database"},"geometry":null},{"type":"Feature","id":"04108","properties":{"commune_code":"04108","commune_name":"Chiềng Sung","commune_name_en":"Chieng Sung","commune_full_name":"Xã Chiềng Sung","commune_full_name_en":"Chieng Sung Commune","commune_slug":"chieng_sung","unit_type":"Xã","unit_type_en":"Commune","admin_level":2,"province_code":"14","province_name":"Sơn La","province_full_name":"Tỉnh Sơn La","province_slug":"son_la","join_key":"04108","status":"active","dataset_effective_date":"2026-04-30","catalog_version":"2026-07-12","geometry_status":"not_embedded_boundary_available_by_url","boundary_source_url":"https://raw.githubusercontent.com/thanglequoc/vietnamese-provinces-database/master/json/geojson/14_son_la/wards/04108_chieng_sung.geojson","boundary_source_page":"https://github.com/thanglequoc/vietnamese-provinces-database/blob/master/json/geojson/14_son_la/wards/04108_chieng_sung.geojson","source_catalog":"https://github.com/thanglequoc/vietnamese-provinces-database"},"geometry":null},{"type":"Feature","id":"04117","properties":{"commune_code":"04117","commune_name":"Mường Chanh","commune_name_en":"Muong Chanh","commune_full_name":"Xã Mường Chanh","commune_full_name_en":"Muong Chanh Commune","commune_slug":"muong_chanh","unit_type":"Xã","unit_type_en":"Commune","admin_level":2,"province_code":"14","province_name":"Sơn La","province_full_name":"Tỉnh Sơn La","province_slug":"son_la","join_key":"04117","status":"active","dataset_effective_date":"2026-04-30","catalog_version":"2026-07-12","geometry_status":"not_embedded_boundary_available_by_url","boundary_source_url":"https://raw.githubusercontent.com/thanglequoc/vietnamese-provinces-database/master/json/geojson/14_son_la/wards/04117_muong_chanh.geojson","boundary_source_page":"https://github.com/thanglequoc/vietnamese-provinces-database/blob/master/json/geojson/14_son_la/wards/04117_muong_chanh.geojson","source_catalog":"https://github.com/thanglequoc/vietnamese-provinces-database"},"geometry":null},{"type":"Feature","id":"04123","properties":{"commune_code":"04123","commune_name":"Chiềng Mung","commune_name_en":"Chieng Mung","commune_full_name":"Xã Chiềng Mung","commune_full_name_en":"Chieng Mung Commune","commune_slug":"chieng_mung","unit_type":"Xã","unit_type_en":"Commune","admin_level":2,"province_code":"14","province_name":"Sơn La","province_full_name":"Tỉnh Sơn La","province_slug":"son_la","join_key":"04123","status":"active","dataset_effective_date":"2026-04-30","catalog_version":"2026-07-12","geometry_status":"not_embedded_boundary_available_by_url","boundary_source_url":"https://raw.githubusercontent.com/thanglequoc/vietnamese-provinces-database/master/json/geojson/14_son_la/wards/04123_chieng_mung.geojson","boundary_source_page":"https://github.com/thanglequoc/vietnamese-provinces-database/blob/master/json/geojson/14_son_la/wards/04123_chieng_mung.geojson","source_catalog":"https://github.com/thanglequoc/vietnamese-provinces-database"},"geometry":null},{"type":"Feature","id":"04132","properties":{"commune_code":"04132","commune_name":"Chiềng Mai","commune_name_en":"Chieng Mai","commune_full_name":"Xã Chiềng Mai","commune_full_name_en":"Chieng Mai Commune","commune_slug":"chieng_mai","unit_type":"Xã","unit_type_en":"Commune","admin_level":2,"province_code":"14","province_name":"Sơn La","province_full_name":"Tỉnh Sơn La","province_slug":"son_la","join_key":"04132","status":"active","dataset_effective_date":"2026-04-30","catalog_version":"2026-07-12","geometry_status":"not_embedded_boundary_available_by_url","boundary_source_url":"https://raw.githubusercontent.com/thanglequoc/vietnamese-provinces-database/master/json/geojson/14_son_la/wards/04132_chieng_mai.geojson","boundary_source_page":"https://github.com/thanglequoc/vietnamese-provinces-database/blob/master/json/geojson/14_son_la/wards/04132_chieng_mai.geojson","source_catalog":"https://github.com/thanglequoc/vietnamese-provinces-database"},"geometry":null},{"type":"Feature","id":"04136","properties":{"commune_code":"04136","commune_name":"Tà Hộc","commune_name_en":"Ta Hoc","commune_full_name":"Xã Tà Hộc","commune_full_name_en":"Ta Hoc Commune","commune_slug":"ta_hoc","unit_type":"Xã","unit_type_en":"Commune","admin_level":2,"province_code":"14","province_name":"Sơn La","province_full_name":"Tỉnh Sơn La","province_slug":"son_la","join_key":"04136","status":"active","dataset_effective_date":"2026-04-30","catalog_version":"2026-07-12","geometry_status":"not_embedded_boundary_available_by_url","boundary_source_url":"https://raw.githubusercontent.com/thanglequoc/vietnamese-provinces-database/master/json/geojson/14_son_la/wards/04136_ta_hoc.geojson","boundary_source_page":"https://github.com/thanglequoc/vietnamese-provinces-database/blob/master/json/geojson/14_son_la/wards/04136_ta_hoc.geojson","source_catalog":"https://github.com/thanglequoc/vietnamese-provinces-database"},"geometry":null},{"type":"Feature","id":"04144","properties":{"commune_code":"04144","commune_name":"Phiêng Cằm","commune_name_en":"Phieng Cam","commune_full_name":"Xã Phiêng Cằm","commune_full_name_en":"Phieng Cam Commune","commune_slug":"phieng_cam","unit_type":"Xã","unit_type_en":"Commune","admin_level":2,"province_code":"14","province_name":"Sơn La","province_full_name":"Tỉnh Sơn La","province_slug":"son_la","join_key":"04144","status":"active","dataset_effective_date":"2026-04-30","catalog_version":"2026-07-12","geometry_status":"not_embedded_boundary_available_by_url","boundary_source_url":"https://raw.githubusercontent.com/thanglequoc/vietnamese-provinces-database/master/json/geojson/14_son_la/wards/04144_phieng_cam.geojson","boundary_source_page":"https://github.com/thanglequoc/vietnamese-provinces-database/blob/master/json/geojson/14_son_la/wards/04144_phieng_cam.geojson","source_catalog":"https://github.com/thanglequoc/vietnamese-provinces-database"},"geometry":null},{"type":"Feature","id":"04159","properties":{"commune_code":"04159","commune_name":"Phiêng Pằn","commune_name_en":"Phieng Pan","commune_full_name":"Xã Phiêng Pằn","commune_full_name_en":"Phieng Pan Commune","commune_slug":"phieng_pan","unit_type":"Xã","unit_type_en":"Commune","admin_level":2,"province_code":"14","province_name":"Sơn La","province_full_name":"Tỉnh Sơn La","province_slug":"son_la","join_key":"04159","status":"active","dataset_effective_date":"2026-04-30","catalog_version":"2026-07-12","geometry_status":"not_embedded_boundary_available_by_url","boundary_source_url":"https://raw.githubusercontent.com/thanglequoc/vietnamese-provinces-database/master/json/geojson/14_son_la/wards/04159_phieng_pan.geojson","boundary_source_page":"https://github.com/thanglequoc/vietnamese-provinces-database/blob/master/json/geojson/14_son_la/wards/04159_phieng_pan.geojson","source_catalog":"https://github.com/thanglequoc/vietnamese-provinces-database"},"geometry":null},{"type":"Feature","id":"04168","properties":{"commune_code":"04168","commune_name":"Sông Mã","commune_name_en":"Song Ma","commune_full_name":"Xã Sông Mã","commune_full_name_en":"Song Ma Commune","commune_slug":"song_ma","unit_type":"Xã","unit_type_en":"Commune","admin_level":2,"province_code":"14","province_name":"Sơn La","province_full_name":"Tỉnh Sơn La","province_slug":"son_la","join_key":"04168","status":"active","dataset_effective_date":"2026-04-30","catalog_version":"2026-07-12","geometry_status":"not_embedded_boundary_available_by_url","boundary_source_url":"https://raw.githubusercontent.com/thanglequoc/vietnamese-provinces-database/master/json/geojson/14_son_la/wards/04168_song_ma.geojson","boundary_source_page":"https://github.com/thanglequoc/vietnamese-provinces-database/blob/master/json/geojson/14_son_la/wards/04168_song_ma.geojson","source_catalog":"https://github.com/thanglequoc/vietnamese-provinces-database"},"geometry":null},{"type":"Feature","id":"04171","properties":{"commune_code":"04171","commune_name":"Bó Sinh","commune_name_en":"Bo Sinh","commune_full_name":"Xã Bó Sinh","commune_full_name_en":"Bo Sinh Commune","commune_slug":"bo_sinh","unit_type":"Xã","unit_type_en":"Commune","admin_level":2,"province_code":"14","province_name":"Sơn La","province_full_name":"Tỉnh Sơn La","province_slug":"son_la","join_key":"04171","status":"active","dataset_effective_date":"2026-04-30","catalog_version":"2026-07-12","geometry_status":"not_embedded_boundary_available_by_url","boundary_source_url":"https://raw.githubusercontent.com/thanglequoc/vietnamese-provinces-database/master/json/geojson/14_son_la/wards/04171_bo_sinh.geojson","boundary_source_page":"https://github.com/thanglequoc/vietnamese-provinces-database/blob/master/json/geojson/14_son_la/wards/04171_bo_sinh.geojson","source_catalog":"https://github.com/thanglequoc/vietnamese-provinces-database"},"geometry":null},{"type":"Feature","id":"04183","properties":{"commune_code":"04183","commune_name":"Mường Lầm","commune_name_en":"Muong Lam","commune_full_name":"Xã Mường Lầm","commune_full_name_en":"Muong Lam Commune","commune_slug":"muong_lam","unit_type":"Xã","unit_type_en":"Commune","admin_level":2,"province_code":"14","province_name":"Sơn La","province_full_name":"Tỉnh Sơn La","province_slug":"son_la","join_key":"04183","status":"active","dataset_effective_date":"2026-04-30","catalog_version":"2026-07-12","geometry_status":"not_embedded_boundary_available_by_url","boundary_source_url":"https://raw.githubusercontent.com/thanglequoc/vietnamese-provinces-database/master/json/geojson/14_son_la/wards/04183_muong_lam.geojson","boundary_source_page":"https://github.com/thanglequoc/vietnamese-provinces-database/blob/master/json/geojson/14_son_la/wards/04183_muong_lam.geojson","source_catalog":"https://github.com/thanglequoc/vietnamese-provinces-database"},"geometry":null},{"type":"Feature","id":"04186","properties":{"commune_code":"04186","commune_name":"Nậm Ty","commune_name_en":"Nam Ty","commune_full_name":"Xã Nậm Ty","commune_full_name_en":"Nam Ty Commune","commune_slug":"nam_ty","unit_type":"Xã","unit_type_en":"Commune","admin_level":2,"province_code":"14","province_name":"Sơn La","province_full_name":"Tỉnh Sơn La","province_slug":"son_la","join_key":"04186","status":"active","dataset_effective_date":"2026-04-30","catalog_version":"2026-07-12","geometry_status":"not_embedded_boundary_available_by_url","boundary_source_url":"https://raw.githubusercontent.com/thanglequoc/vietnamese-provinces-database/master/json/geojson/14_son_la/wards/04186_nam_ty.geojson","boundary_source_page":"https://github.com/thanglequoc/vietnamese-provinces-database/blob/master/json/geojson/14_son_la/wards/04186_nam_ty.geojson","source_catalog":"https://github.com/thanglequoc/vietnamese-provinces-database"},"geometry":null},{"type":"Feature","id":"04195","properties":{"commune_code":"04195","commune_name":"Chiềng Sơ","commune_name_en":"Chieng So","commune_full_name":"Xã Chiềng Sơ","commune_full_name_en":"Chieng So Commune","commune_slug":"chieng_so","unit_type":"Xã","unit_type_en":"Commune","admin_level":2,"province_code":"14","province_name":"Sơn La","province_full_name":"Tỉnh Sơn La","province_slug":"son_la","join_key":"04195","status":"active","dataset_effective_date":"2026-04-30","catalog_version":"2026-07-12","geometry_status":"not_embedded_boundary_available_by_url","boundary_source_url":"https://raw.githubusercontent.com/thanglequoc/vietnamese-provinces-database/master/json/geojson/14_son_la/wards/04195_chieng_so.geojson","boundary_source_page":"https://github.com/thanglequoc/vietnamese-provinces-database/blob/master/json/geojson/14_son_la/wards/04195_chieng_so.geojson","source_catalog":"https://github.com/thanglequoc/vietnamese-provinces-database"},"geometry":null},{"type":"Feature","id":"04204","properties":{"commune_code":"04204","commune_name":"Chiềng Khoong","commune_name_en":"Chieng Khoong","commune_full_name":"Xã Chiềng Khoong","commune_full_name_en":"Chieng Khoong Commune","commune_slug":"chieng_khoong","unit_type":"Xã","unit_type_en":"Commune","admin_level":2,"province_code":"14","province_name":"Sơn La","province_full_name":"Tỉnh Sơn La","province_slug":"son_la","join_key":"04204","status":"active","dataset_effective_date":"2026-04-30","catalog_version":"2026-07-12","geometry_status":"not_embedded_boundary_available_by_url","boundary_source_url":"https://raw.githubusercontent.com/thanglequoc/vietnamese-provinces-database/master/json/geojson/14_son_la/wards/04204_chieng_khoong.geojson","boundary_source_page":"https://github.com/thanglequoc/vietnamese-provinces-database/blob/master/json/geojson/14_son_la/wards/04204_chieng_khoong.geojson","source_catalog":"https://github.com/thanglequoc/vietnamese-provinces-database"},"geometry":null},{"type":"Feature","id":"04210","properties":{"commune_code":"04210","commune_name":"Huổi Một","commune_name_en":"Huoi Mot","commune_full_name":"Xã Huổi Một","commune_full_name_en":"Huoi Mot Commune","commune_slug":"huoi_mot","unit_type":"Xã","unit_type_en":"Commune","admin_level":2,"province_code":"14","province_name":"Sơn La","province_full_name":"Tỉnh Sơn La","province_slug":"son_la","join_key":"04210","status":"active","dataset_effective_date":"2026-04-30","catalog_version":"2026-07-12","geometry_status":"not_embedded_boundary_available_by_url","boundary_source_url":"https://raw.githubusercontent.com/thanglequoc/vietnamese-provinces-database/master/json/geojson/14_son_la/wards/04210_huoi_mot.geojson","boundary_source_page":"https://github.com/thanglequoc/vietnamese-provinces-database/blob/master/json/geojson/14_son_la/wards/04210_huoi_mot.geojson","source_catalog":"https://github.com/thanglequoc/vietnamese-provinces-database"},"geometry":null},{"type":"Feature","id":"04219","properties":{"commune_code":"04219","commune_name":"Mường Hung","commune_name_en":"Muong Hung","commune_full_name":"Xã Mường Hung","commune_full_name_en":"Muong Hung Commune","commune_slug":"muong_hung","unit_type":"Xã","unit_type_en":"Commune","admin_level":2,"province_code":"14","province_name":"Sơn La","province_full_name":"Tỉnh Sơn La","province_slug":"son_la","join_key":"04219","status":"active","dataset_effective_date":"2026-04-30","catalog_version":"2026-07-12","geometry_status":"not_embedded_boundary_available_by_url","boundary_source_url":"https://raw.githubusercontent.com/thanglequoc/vietnamese-provinces-database/master/json/geojson/14_son_la/wards/04219_muong_hung.geojson","boundary_source_page":"https://github.com/thanglequoc/vietnamese-provinces-database/blob/master/json/geojson/14_son_la/wards/04219_muong_hung.geojson","source_catalog":"https://github.com/thanglequoc/vietnamese-provinces-database"},"geometry":null},{"type":"Feature","id":"04222","properties":{"commune_code":"04222","commune_name":"Chiềng Khương","commune_name_en":"Chieng Khuong","commune_full_name":"Xã Chiềng Khương","commune_full_name_en":"Chieng Khuong Commune","commune_slug":"chieng_khuong","unit_type":"Xã","unit_type_en":"Commune","admin_level":2,"province_code":"14","province_name":"Sơn La","province_full_name":"Tỉnh Sơn La","province_slug":"son_la","join_key":"04222","status":"active","dataset_effective_date":"2026-04-30","catalog_version":"2026-07-12","geometry_status":"not_embedded_boundary_available_by_url","boundary_source_url":"https://raw.githubusercontent.com/thanglequoc/vietnamese-provinces-database/master/json/geojson/14_son_la/wards/04222_chieng_khuong.geojson","boundary_source_page":"https://github.com/thanglequoc/vietnamese-provinces-database/blob/master/json/geojson/14_son_la/wards/04222_chieng_khuong.geojson","source_catalog":"https://github.com/thanglequoc/vietnamese-provinces-database"},"geometry":null},{"type":"Feature","id":"04228","properties":{"commune_code":"04228","commune_name":"Púng Bánh","commune_name_en":"Pung Banh","commune_full_name":"Xã Púng Bánh","commune_full_name_en":"Pung Banh Commune","commune_slug":"pung_banh","unit_type":"Xã","unit_type_en":"Commune","admin_level":2,"province_code":"14","province_name":"Sơn La","province_full_name":"Tỉnh Sơn La","province_slug":"son_la","join_key":"04228","status":"active","dataset_effective_date":"2026-04-30","catalog_version":"2026-07-12","geometry_status":"not_embedded_boundary_available_by_url","boundary_source_url":"https://raw.githubusercontent.com/thanglequoc/vietnamese-provinces-database/master/json/geojson/14_son_la/wards/04228_pung_banh.geojson","boundary_source_page":"https://github.com/thanglequoc/vietnamese-provinces-database/blob/master/json/geojson/14_son_la/wards/04228_pung_banh.geojson","source_catalog":"https://github.com/thanglequoc/vietnamese-provinces-database"},"geometry":null},{"type":"Feature","id":"04231","properties":{"commune_code":"04231","commune_name":"Sốp Cộp","commune_name_en":"Sop Cop","commune_full_name":"Xã Sốp Cộp","commune_full_name_en":"Sop Cop Commune","commune_slug":"sop_cop","unit_type":"Xã","unit_type_en":"Commune","admin_level":2,"province_code":"14","province_name":"Sơn La","province_full_name":"Tỉnh Sơn La","province_slug":"son_la","join_key":"04231","status":"active","dataset_effective_date":"2026-04-30","catalog_version":"2026-07-12","geometry_status":"not_embedded_boundary_available_by_url","boundary_source_url":"https://raw.githubusercontent.com/thanglequoc/vietnamese-provinces-database/master/json/geojson/14_son_la/wards/04231_sop_cop.geojson","boundary_source_page":"https://github.com/thanglequoc/vietnamese-provinces-database/blob/master/json/geojson/14_son_la/wards/04231_sop_cop.geojson","source_catalog":"https://github.com/thanglequoc/vietnamese-provinces-database"},"geometry":null},{"type":"Feature","id":"04240","properties":{"commune_code":"04240","commune_name":"Mường Lèo","commune_name_en":"Muong Leo","commune_full_name":"Xã Mường Lèo","commune_full_name_en":"Muong Leo Commune","commune_slug":"muong_leo","unit_type":"Xã","unit_type_en":"Commune","admin_level":2,"province_code":"14","province_name":"Sơn La","province_full_name":"Tỉnh Sơn La","province_slug":"son_la","join_key":"04240","status":"active","dataset_effective_date":"2026-04-30","catalog_version":"2026-07-12","geometry_status":"not_embedded_boundary_available_by_url","boundary_source_url":"https://raw.githubusercontent.com/thanglequoc/vietnamese-provinces-database/master/json/geojson/14_son_la/wards/04240_muong_leo.geojson","boundary_source_page":"https://github.com/thanglequoc/vietnamese-provinces-database/blob/master/json/geojson/14_son_la/wards/04240_muong_leo.geojson","source_catalog":"https://github.com/thanglequoc/vietnamese-provinces-database"},"geometry":null},{"type":"Feature","id":"04246","properties":{"commune_code":"04246","commune_name":"Mường Lạn","commune_name_en":"Muong Lan","commune_full_name":"Xã Mường Lạn","commune_full_name_en":"Muong Lan Commune","commune_slug":"muong_lan","unit_type":"Xã","unit_type_en":"Commune","admin_level":2,"province_code":"14","province_name":"Sơn La","province_full_name":"Tỉnh Sơn La","province_slug":"son_la","join_key":"04246","status":"active","dataset_effective_date":"2026-04-30","catalog_version":"2026-07-12","geometry_status":"not_embedded_boundary_available_by_url","boundary_source_url":"https://raw.githubusercontent.com/thanglequoc/vietnamese-provinces-database/master/json/geojson/14_son_la/wards/04246_muong_lan.geojson","boundary_source_page":"https://github.com/thanglequoc/vietnamese-provinces-database/blob/master/json/geojson/14_son_la/wards/04246_muong_lan.geojson","source_catalog":"https://github.com/thanglequoc/vietnamese-provinces-database"},"geometry":null}]}