{"type":"FeatureCollection","name":"15_lao_cai_communes_attributes","metadata":{"province_code":"15","province_name":"Lào Cai","feature_count":99,"geometry":null,"join_key":"commune_code"},"features":[{"type":"Feature","id":"02647","properties":{"commune_code":"02647","commune_name":"Lào Cai","commune_name_en":"Lao Cai","commune_full_name":"Phường Lào Cai","commune_full_name_en":"Lao Cai Ward","commune_slug":"lao_cai","unit_type":"Phường","unit_type_en":"Ward","admin_level":2,"province_code":"15","province_name":"Lào Cai","province_full_name":"Tỉnh Lào Cai","province_slug":"lao_cai","join_key":"02647","status":"active","dataset_effective_date":"2026-04-30","catalog_version":"2026-07-12","geometry_status":"not_embedded_boundary_available_by_url","boundary_source_url":"https://raw.githubusercontent.com/thanglequoc/vietnamese-provinces-database/master/json/geojson/15_lao_cai/wards/02647_lao_cai.geojson","boundary_source_page":"https://github.com/thanglequoc/vietnamese-provinces-database/blob/master/json/geojson/15_lao_cai/wards/02647_lao_cai.geojson","source_catalog":"https://github.com/thanglequoc/vietnamese-provinces-database"},"geometry":null},{"type":"Feature","id":"02671","properties":{"commune_code":"02671","commune_name":"Cam Đường","commune_name_en":"Cam Duong","commune_full_name":"Phường Cam Đường","commune_full_name_en":"Cam Duong Ward","commune_slug":"cam_duong","unit_type":"Phường","unit_type_en":"Ward","admin_level":2,"province_code":"15","province_name":"Lào Cai","province_full_name":"Tỉnh Lào Cai","province_slug":"lao_cai","join_key":"02671","status":"active","dataset_effective_date":"2026-04-30","catalog_version":"2026-07-12","geometry_status":"not_embedded_boundary_available_by_url","boundary_source_url":"https://raw.githubusercontent.com/thanglequoc/vietnamese-provinces-database/master/json/geojson/15_lao_cai/wards/02671_cam_duong.geojson","boundary_source_page":"https://github.com/thanglequoc/vietnamese-provinces-database/blob/master/json/geojson/15_lao_cai/wards/02671_cam_duong.geojson","source_catalog":"https://github.com/thanglequoc/vietnamese-provinces-database"},"geometry":null},{"type":"Feature","id":"02680","properties":{"commune_code":"02680","commune_name":"Hợp Thành","commune_name_en":"Hop Thanh","commune_full_name":"Xã Hợp Thành","commune_full_name_en":"Hop Thanh Commune","commune_slug":"hop_thanh","unit_type":"Xã","unit_type_en":"Commune","admin_level":2,"province_code":"15","province_name":"Lào Cai","province_full_name":"Tỉnh Lào Cai","province_slug":"lao_cai","join_key":"02680","status":"active","dataset_effective_date":"2026-04-30","catalog_version":"2026-07-12","geometry_status":"not_embedded_boundary_available_by_url","boundary_source_url":"https://raw.githubusercontent.com/thanglequoc/vietnamese-provinces-database/master/json/geojson/15_lao_cai/wards/02680_hop_thanh.geojson","boundary_source_page":"https://github.com/thanglequoc/vietnamese-provinces-database/blob/master/json/geojson/15_lao_cai/wards/02680_hop_thanh.geojson","source_catalog":"https://github.com/thanglequoc/vietnamese-provinces-database"},"geometry":null},{"type":"Feature","id":"02683","properties":{"commune_code":"02683","commune_name":"Bát Xát","commune_name_en":"Bat Xat","commune_full_name":"Xã Bát Xát","commune_full_name_en":"Bat Xat Commune","commune_slug":"bat_xat","unit_type":"Xã","unit_type_en":"Commune","admin_level":2,"province_code":"15","province_name":"Lào Cai","province_full_name":"Tỉnh Lào Cai","province_slug":"lao_cai","join_key":"02683","status":"active","dataset_effective_date":"2026-04-30","catalog_version":"2026-07-12","geometry_status":"not_embedded_boundary_available_by_url","boundary_source_url":"https://raw.githubusercontent.com/thanglequoc/vietnamese-provinces-database/master/json/geojson/15_lao_cai/wards/02683_bat_xat.geojson","boundary_source_page":"https://github.com/thanglequoc/vietnamese-provinces-database/blob/master/json/geojson/15_lao_cai/wards/02683_bat_xat.geojson","source_catalog":"https://github.com/thanglequoc/vietnamese-provinces-database"},"geometry":null},{"type":"Feature","id":"02686","properties":{"commune_code":"02686","commune_name":"A Mú Sung","commune_name_en":"A Mu Sung","commune_full_name":"Xã A Mú Sung","commune_full_name_en":"A Mu Sung Commune","commune_slug":"a_mu_sung","unit_type":"Xã","unit_type_en":"Commune","admin_level":2,"province_code":"15","province_name":"Lào Cai","province_full_name":"Tỉnh Lào Cai","province_slug":"lao_cai","join_key":"02686","status":"active","dataset_effective_date":"2026-04-30","catalog_version":"2026-07-12","geometry_status":"not_embedded_boundary_available_by_url","boundary_source_url":"https://raw.githubusercontent.com/thanglequoc/vietnamese-provinces-database/master/json/geojson/15_lao_cai/wards/02686_a_mu_sung.geojson","boundary_source_page":"https://github.com/thanglequoc/vietnamese-provinces-database/blob/master/json/geojson/15_lao_cai/wards/02686_a_mu_sung.geojson","source_catalog":"https://github.com/thanglequoc/vietnamese-provinces-database"},"geometry":null},{"type":"Feature","id":"02695","properties":{"commune_code":"02695","commune_name":"Trịnh Tường","commune_name_en":"Trinh Tuong","commune_full_name":"Xã Trịnh Tường","commune_full_name_en":"Trinh Tuong Commune","commune_slug":"trinh_tuong","unit_type":"Xã","unit_type_en":"Commune","admin_level":2,"province_code":"15","province_name":"Lào Cai","province_full_name":"Tỉnh Lào Cai","province_slug":"lao_cai","join_key":"02695","status":"active","dataset_effective_date":"2026-04-30","catalog_version":"2026-07-12","geometry_status":"not_embedded_boundary_available_by_url","boundary_source_url":"https://raw.githubusercontent.com/thanglequoc/vietnamese-provinces-database/master/json/geojson/15_lao_cai/wards/02695_trinh_tuong.geojson","boundary_source_page":"https://github.com/thanglequoc/vietnamese-provinces-database/blob/master/json/geojson/15_lao_cai/wards/02695_trinh_tuong.geojson","source_catalog":"https://github.com/thanglequoc/vietnamese-provinces-database"},"geometry":null},{"type":"Feature","id":"02701","properties":{"commune_code":"02701","commune_name":"Y Tý","commune_name_en":"Y Ty","commune_full_name":"Xã Y Tý","commune_full_name_en":"Y Ty Commune","commune_slug":"y_ty","unit_type":"Xã","unit_type_en":"Commune","admin_level":2,"province_code":"15","province_name":"Lào Cai","province_full_name":"Tỉnh Lào Cai","province_slug":"lao_cai","join_key":"02701","status":"active","dataset_effective_date":"2026-04-30","catalog_version":"2026-07-12","geometry_status":"not_embedded_boundary_available_by_url","boundary_source_url":"https://raw.githubusercontent.com/thanglequoc/vietnamese-provinces-database/master/json/geojson/15_lao_cai/wards/02701_y_ty.geojson","boundary_source_page":"https://github.com/thanglequoc/vietnamese-provinces-database/blob/master/json/geojson/15_lao_cai/wards/02701_y_ty.geojson","source_catalog":"https://github.com/thanglequoc/vietnamese-provinces-database"},"geometry":null},{"type":"Feature","id":"02707","properties":{"commune_code":"02707","commune_name":"Dền Sáng","commune_name_en":"Den Sang","commune_full_name":"Xã Dền Sáng","commune_full_name_en":"Den Sang Commune","commune_slug":"den_sang","unit_type":"Xã","unit_type_en":"Commune","admin_level":2,"province_code":"15","province_name":"Lào Cai","province_full_name":"Tỉnh Lào Cai","province_slug":"lao_cai","join_key":"02707","status":"active","dataset_effective_date":"2026-04-30","catalog_version":"2026-07-12","geometry_status":"not_embedded_boundary_available_by_url","boundary_source_url":"https://raw.githubusercontent.com/thanglequoc/vietnamese-provinces-database/master/json/geojson/15_lao_cai/wards/02707_den_sang.geojson","boundary_source_page":"https://github.com/thanglequoc/vietnamese-provinces-database/blob/master/json/geojson/15_lao_cai/wards/02707_den_sang.geojson","source_catalog":"https://github.com/thanglequoc/vietnamese-provinces-database"},"geometry":null},{"type":"Feature","id":"02725","properties":{"commune_code":"02725","commune_name":"Bản Xèo","commune_name_en":"Ban Xeo","commune_full_name":"Xã Bản Xèo","commune_full_name_en":"Ban Xeo Commune","commune_slug":"ban_xeo","unit_type":"Xã","unit_type_en":"Commune","admin_level":2,"province_code":"15","province_name":"Lào Cai","province_full_name":"Tỉnh Lào Cai","province_slug":"lao_cai","join_key":"02725","status":"active","dataset_effective_date":"2026-04-30","catalog_version":"2026-07-12","geometry_status":"not_embedded_boundary_available_by_url","boundary_source_url":"https://raw.githubusercontent.com/thanglequoc/vietnamese-provinces-database/master/json/geojson/15_lao_cai/wards/02725_ban_xeo.geojson","boundary_source_page":"https://github.com/thanglequoc/vietnamese-provinces-database/blob/master/json/geojson/15_lao_cai/wards/02725_ban_xeo.geojson","source_catalog":"https://github.com/thanglequoc/vietnamese-provinces-database"},"geometry":null},{"type":"Feature","id":"02728","properties":{"commune_code":"02728","commune_name":"Mường Hum","commune_name_en":"Muong Hum","commune_full_name":"Xã Mường Hum","commune_full_name_en":"Muong Hum Commune","commune_slug":"muong_hum","unit_type":"Xã","unit_type_en":"Commune","admin_level":2,"province_code":"15","province_name":"Lào Cai","province_full_name":"Tỉnh Lào Cai","province_slug":"lao_cai","join_key":"02728","status":"active","dataset_effective_date":"2026-04-30","catalog_version":"2026-07-12","geometry_status":"not_embedded_boundary_available_by_url","boundary_source_url":"https://raw.githubusercontent.com/thanglequoc/vietnamese-provinces-database/master/json/geojson/15_lao_cai/wards/02728_muong_hum.geojson","boundary_source_page":"https://github.com/thanglequoc/vietnamese-provinces-database/blob/master/json/geojson/15_lao_cai/wards/02728_muong_hum.geojson","source_catalog":"https://github.com/thanglequoc/vietnamese-provinces-database"},"geometry":null},{"type":"Feature","id":"02746","properties":{"commune_code":"02746","commune_name":"Cốc San","commune_name_en":"Coc San","commune_full_name":"Xã Cốc San","commune_full_name_en":"Coc San Commune","commune_slug":"coc_san","unit_type":"Xã","unit_type_en":"Commune","admin_level":2,"province_code":"15","province_name":"Lào Cai","province_full_name":"Tỉnh Lào Cai","province_slug":"lao_cai","join_key":"02746","status":"active","dataset_effective_date":"2026-04-30","catalog_version":"2026-07-12","geometry_status":"not_embedded_boundary_available_by_url","boundary_source_url":"https://raw.githubusercontent.com/thanglequoc/vietnamese-provinces-database/master/json/geojson/15_lao_cai/wards/02746_coc_san.geojson","boundary_source_page":"https://github.com/thanglequoc/vietnamese-provinces-database/blob/master/json/geojson/15_lao_cai/wards/02746_coc_san.geojson","source_catalog":"https://github.com/thanglequoc/vietnamese-provinces-database"},"geometry":null},{"type":"Feature","id":"02752","properties":{"commune_code":"02752","commune_name":"Pha Long","commune_name_en":"Pha Long","commune_full_name":"Xã Pha Long","commune_full_name_en":"Pha Long Commune","commune_slug":"pha_long","unit_type":"Xã","unit_type_en":"Commune","admin_level":2,"province_code":"15","province_name":"Lào Cai","province_full_name":"Tỉnh Lào Cai","province_slug":"lao_cai","join_key":"02752","status":"active","dataset_effective_date":"2026-04-30","catalog_version":"2026-07-12","geometry_status":"not_embedded_boundary_available_by_url","boundary_source_url":"https://raw.githubusercontent.com/thanglequoc/vietnamese-provinces-database/master/json/geojson/15_lao_cai/wards/02752_pha_long.geojson","boundary_source_page":"https://github.com/thanglequoc/vietnamese-provinces-database/blob/master/json/geojson/15_lao_cai/wards/02752_pha_long.geojson","source_catalog":"https://github.com/thanglequoc/vietnamese-provinces-database"},"geometry":null},{"type":"Feature","id":"02761","properties":{"commune_code":"02761","commune_name":"Mường Khương","commune_name_en":"Muong Khuong","commune_full_name":"Xã Mường Khương","commune_full_name_en":"Muong Khuong Commune","commune_slug":"muong_khuong","unit_type":"Xã","unit_type_en":"Commune","admin_level":2,"province_code":"15","province_name":"Lào Cai","province_full_name":"Tỉnh Lào Cai","province_slug":"lao_cai","join_key":"02761","status":"active","dataset_effective_date":"2026-04-30","catalog_version":"2026-07-12","geometry_status":"not_embedded_boundary_available_by_url","boundary_source_url":"https://raw.githubusercontent.com/thanglequoc/vietnamese-provinces-database/master/json/geojson/15_lao_cai/wards/02761_muong_khuong.geojson","boundary_source_page":"https://github.com/thanglequoc/vietnamese-provinces-database/blob/master/json/geojson/15_lao_cai/wards/02761_muong_khuong.geojson","source_catalog":"https://github.com/thanglequoc/vietnamese-provinces-database"},"geometry":null},{"type":"Feature","id":"02782","properties":{"commune_code":"02782","commune_name":"Cao Sơn","commune_name_en":"Cao Son","commune_full_name":"Xã Cao Sơn","commune_full_name_en":"Cao Son Commune","commune_slug":"cao_son","unit_type":"Xã","unit_type_en":"Commune","admin_level":2,"province_code":"15","province_name":"Lào Cai","province_full_name":"Tỉnh Lào Cai","province_slug":"lao_cai","join_key":"02782","status":"active","dataset_effective_date":"2026-04-30","catalog_version":"2026-07-12","geometry_status":"not_embedded_boundary_available_by_url","boundary_source_url":"https://raw.githubusercontent.com/thanglequoc/vietnamese-provinces-database/master/json/geojson/15_lao_cai/wards/02782_cao_son.geojson","boundary_source_page":"https://github.com/thanglequoc/vietnamese-provinces-database/blob/master/json/geojson/15_lao_cai/wards/02782_cao_son.geojson","source_catalog":"https://github.com/thanglequoc/vietnamese-provinces-database"},"geometry":null},{"type":"Feature","id":"02788","properties":{"commune_code":"02788","commune_name":"Bản Lầu","commune_name_en":"Ban Lau","commune_full_name":"Xã Bản Lầu","commune_full_name_en":"Ban Lau Commune","commune_slug":"ban_lau","unit_type":"Xã","unit_type_en":"Commune","admin_level":2,"province_code":"15","province_name":"Lào Cai","province_full_name":"Tỉnh Lào Cai","province_slug":"lao_cai","join_key":"02788","status":"active","dataset_effective_date":"2026-04-30","catalog_version":"2026-07-12","geometry_status":"not_embedded_boundary_available_by_url","boundary_source_url":"https://raw.githubusercontent.com/thanglequoc/vietnamese-provinces-database/master/json/geojson/15_lao_cai/wards/02788_ban_lau.geojson","boundary_source_page":"https://github.com/thanglequoc/vietnamese-provinces-database/blob/master/json/geojson/15_lao_cai/wards/02788_ban_lau.geojson","source_catalog":"https://github.com/thanglequoc/vietnamese-provinces-database"},"geometry":null},{"type":"Feature","id":"02809","properties":{"commune_code":"02809","commune_name":"Si Ma Cai","commune_name_en":"Si Ma Cai","commune_full_name":"Xã Si Ma Cai","commune_full_name_en":"Si Ma Cai Commune","commune_slug":"si_ma_cai","unit_type":"Xã","unit_type_en":"Commune","admin_level":2,"province_code":"15","province_name":"Lào Cai","province_full_name":"Tỉnh Lào Cai","province_slug":"lao_cai","join_key":"02809","status":"active","dataset_effective_date":"2026-04-30","catalog_version":"2026-07-12","geometry_status":"not_embedded_boundary_available_by_url","boundary_source_url":"https://raw.githubusercontent.com/thanglequoc/vietnamese-provinces-database/master/json/geojson/15_lao_cai/wards/02809_si_ma_cai.geojson","boundary_source_page":"https://github.com/thanglequoc/vietnamese-provinces-database/blob/master/json/geojson/15_lao_cai/wards/02809_si_ma_cai.geojson","source_catalog":"https://github.com/thanglequoc/vietnamese-provinces-database"},"geometry":null},{"type":"Feature","id":"02824","properties":{"commune_code":"02824","commune_name":"Sín Chéng","commune_name_en":"Sin Cheng","commune_full_name":"Xã Sín Chéng","commune_full_name_en":"Sin Cheng Commune","commune_slug":"sin_cheng","unit_type":"Xã","unit_type_en":"Commune","admin_level":2,"province_code":"15","province_name":"Lào Cai","province_full_name":"Tỉnh Lào Cai","province_slug":"lao_cai","join_key":"02824","status":"active","dataset_effective_date":"2026-04-30","catalog_version":"2026-07-12","geometry_status":"not_embedded_boundary_available_by_url","boundary_source_url":"https://raw.githubusercontent.com/thanglequoc/vietnamese-provinces-database/master/json/geojson/15_lao_cai/wards/02824_sin_cheng.geojson","boundary_source_page":"https://github.com/thanglequoc/vietnamese-provinces-database/blob/master/json/geojson/15_lao_cai/wards/02824_sin_cheng.geojson","source_catalog":"https://github.com/thanglequoc/vietnamese-provinces-database"},"geometry":null},{"type":"Feature","id":"02839","properties":{"commune_code":"02839","commune_name":"Bắc Hà","commune_name_en":"Bac Ha","commune_full_name":"Xã Bắc Hà","commune_full_name_en":"Bac Ha Commune","commune_slug":"bac_ha","unit_type":"Xã","unit_type_en":"Commune","admin_level":2,"province_code":"15","province_name":"Lào Cai","province_full_name":"Tỉnh Lào Cai","province_slug":"lao_cai","join_key":"02839","status":"active","dataset_effective_date":"2026-04-30","catalog_version":"2026-07-12","geometry_status":"not_embedded_boundary_available_by_url","boundary_source_url":"https://raw.githubusercontent.com/thanglequoc/vietnamese-provinces-database/master/json/geojson/15_lao_cai/wards/02839_bac_ha.geojson","boundary_source_page":"https://github.com/thanglequoc/vietnamese-provinces-database/blob/master/json/geojson/15_lao_cai/wards/02839_bac_ha.geojson","source_catalog":"https://github.com/thanglequoc/vietnamese-provinces-database"},"geometry":null},{"type":"Feature","id":"02842","properties":{"commune_code":"02842","commune_name":"Tả Củ Tỷ","commune_name_en":"Ta Cu Ty","commune_full_name":"Xã Tả Củ Tỷ","commune_full_name_en":"Ta Cu Ty Commune","commune_slug":"ta_cu_ty","unit_type":"Xã","unit_type_en":"Commune","admin_level":2,"province_code":"15","province_name":"Lào Cai","province_full_name":"Tỉnh Lào Cai","province_slug":"lao_cai","join_key":"02842","status":"active","dataset_effective_date":"2026-04-30","catalog_version":"2026-07-12","geometry_status":"not_embedded_boundary_available_by_url","boundary_source_url":"https://raw.githubusercontent.com/thanglequoc/vietnamese-provinces-database/master/json/geojson/15_lao_cai/wards/02842_ta_cu_ty.geojson","boundary_source_page":"https://github.com/thanglequoc/vietnamese-provinces-database/blob/master/json/geojson/15_lao_cai/wards/02842_ta_cu_ty.geojson","source_catalog":"https://github.com/thanglequoc/vietnamese-provinces-database"},"geometry":null},{"type":"Feature","id":"02848","properties":{"commune_code":"02848","commune_name":"Lùng Phình","commune_name_en":"Lung Phinh","commune_full_name":"Xã Lùng Phình","commune_full_name_en":"Lung Phinh Commune","commune_slug":"lung_phinh","unit_type":"Xã","unit_type_en":"Commune","admin_level":2,"province_code":"15","province_name":"Lào Cai","province_full_name":"Tỉnh Lào Cai","province_slug":"lao_cai","join_key":"02848","status":"active","dataset_effective_date":"2026-04-30","catalog_version":"2026-07-12","geometry_status":"not_embedded_boundary_available_by_url","boundary_source_url":"https://raw.githubusercontent.com/thanglequoc/vietnamese-provinces-database/master/json/geojson/15_lao_cai/wards/02848_lung_phinh.geojson","boundary_source_page":"https://github.com/thanglequoc/vietnamese-provinces-database/blob/master/json/geojson/15_lao_cai/wards/02848_lung_phinh.geojson","source_catalog":"https://github.com/thanglequoc/vietnamese-provinces-database"},"geometry":null},{"type":"Feature","id":"02869","properties":{"commune_code":"02869","commune_name":"Bản Liền","commune_name_en":"Ban Lien","commune_full_name":"Xã Bản Liền","commune_full_name_en":"Ban Lien Commune","commune_slug":"ban_lien","unit_type":"Xã","unit_type_en":"Commune","admin_level":2,"province_code":"15","province_name":"Lào Cai","province_full_name":"Tỉnh Lào Cai","province_slug":"lao_cai","join_key":"02869","status":"active","dataset_effective_date":"2026-04-30","catalog_version":"2026-07-12","geometry_status":"not_embedded_boundary_available_by_url","boundary_source_url":"https://raw.githubusercontent.com/thanglequoc/vietnamese-provinces-database/master/json/geojson/15_lao_cai/wards/02869_ban_lien.geojson","boundary_source_page":"https://github.com/thanglequoc/vietnamese-provinces-database/blob/master/json/geojson/15_lao_cai/wards/02869_ban_lien.geojson","source_catalog":"https://github.com/thanglequoc/vietnamese-provinces-database"},"geometry":null},{"type":"Feature","id":"02890","properties":{"commune_code":"02890","commune_name":"Bảo Nhai","commune_name_en":"Bao Nhai","commune_full_name":"Xã Bảo Nhai","commune_full_name_en":"Bao Nhai Commune","commune_slug":"bao_nhai","unit_type":"Xã","unit_type_en":"Commune","admin_level":2,"province_code":"15","province_name":"Lào Cai","province_full_name":"Tỉnh Lào Cai","province_slug":"lao_cai","join_key":"02890","status":"active","dataset_effective_date":"2026-04-30","catalog_version":"2026-07-12","geometry_status":"not_embedded_boundary_available_by_url","boundary_source_url":"https://raw.githubusercontent.com/thanglequoc/vietnamese-provinces-database/master/json/geojson/15_lao_cai/wards/02890_bao_nhai.geojson","boundary_source_page":"https://github.com/thanglequoc/vietnamese-provinces-database/blob/master/json/geojson/15_lao_cai/wards/02890_bao_nhai.geojson","source_catalog":"https://github.com/thanglequoc/vietnamese-provinces-database"},"geometry":null},{"type":"Feature","id":"02896","properties":{"commune_code":"02896","commune_name":"Cốc Lầu","commune_name_en":"Coc Lau","commune_full_name":"Xã Cốc Lầu","commune_full_name_en":"Coc Lau Commune","commune_slug":"coc_lau","unit_type":"Xã","unit_type_en":"Commune","admin_level":2,"province_code":"15","province_name":"Lào Cai","province_full_name":"Tỉnh Lào Cai","province_slug":"lao_cai","join_key":"02896","status":"active","dataset_effective_date":"2026-04-30","catalog_version":"2026-07-12","geometry_status":"not_embedded_boundary_available_by_url","boundary_source_url":"https://raw.githubusercontent.com/thanglequoc/vietnamese-provinces-database/master/json/geojson/15_lao_cai/wards/02896_coc_lau.geojson","boundary_source_page":"https://github.com/thanglequoc/vietnamese-provinces-database/blob/master/json/geojson/15_lao_cai/wards/02896_coc_lau.geojson","source_catalog":"https://github.com/thanglequoc/vietnamese-provinces-database"},"geometry":null},{"type":"Feature","id":"02902","properties":{"commune_code":"02902","commune_name":"Phong Hải","commune_name_en":"Phong Hai","commune_full_name":"Xã Phong Hải","commune_full_name_en":"Phong Hai Commune","commune_slug":"phong_hai","unit_type":"Xã","unit_type_en":"Commune","admin_level":2,"province_code":"15","province_name":"Lào Cai","province_full_name":"Tỉnh Lào Cai","province_slug":"lao_cai","join_key":"02902","status":"active","dataset_effective_date":"2026-04-30","catalog_version":"2026-07-12","geometry_status":"not_embedded_boundary_available_by_url","boundary_source_url":"https://raw.githubusercontent.com/thanglequoc/vietnamese-provinces-database/master/json/geojson/15_lao_cai/wards/02902_phong_hai.geojson","boundary_source_page":"https://github.com/thanglequoc/vietnamese-provinces-database/blob/master/json/geojson/15_lao_cai/wards/02902_phong_hai.geojson","source_catalog":"https://github.com/thanglequoc/vietnamese-provinces-database"},"geometry":null},{"type":"Feature","id":"02905","properties":{"commune_code":"02905","commune_name":"Bảo Thắng","commune_name_en":"Bao Thang","commune_full_name":"Xã Bảo Thắng","commune_full_name_en":"Bao Thang Commune","commune_slug":"bao_thang","unit_type":"Xã","unit_type_en":"Commune","admin_level":2,"province_code":"15","province_name":"Lào Cai","province_full_name":"Tỉnh Lào Cai","province_slug":"lao_cai","join_key":"02905","status":"active","dataset_effective_date":"2026-04-30","catalog_version":"2026-07-12","geometry_status":"not_embedded_boundary_available_by_url","boundary_source_url":"https://raw.githubusercontent.com/thanglequoc/vietnamese-provinces-database/master/json/geojson/15_lao_cai/wards/02905_bao_thang.geojson","boundary_source_page":"https://github.com/thanglequoc/vietnamese-provinces-database/blob/master/json/geojson/15_lao_cai/wards/02905_bao_thang.geojson","source_catalog":"https://github.com/thanglequoc/vietnamese-provinces-database"},"geometry":null},{"type":"Feature","id":"02908","properties":{"commune_code":"02908","commune_name":"Tằng Loỏng","commune_name_en":"Tang Loong","commune_full_name":"Xã Tằng Loỏng","commune_full_name_en":"Tang Loong Commune","commune_slug":"tang_loong","unit_type":"Xã","unit_type_en":"Commune","admin_level":2,"province_code":"15","province_name":"Lào Cai","province_full_name":"Tỉnh Lào Cai","province_slug":"lao_cai","join_key":"02908","status":"active","dataset_effective_date":"2026-04-30","catalog_version":"2026-07-12","geometry_status":"not_embedded_boundary_available_by_url","boundary_source_url":"https://raw.githubusercontent.com/thanglequoc/vietnamese-provinces-database/master/json/geojson/15_lao_cai/wards/02908_tang_loong.geojson","boundary_source_page":"https://github.com/thanglequoc/vietnamese-provinces-database/blob/master/json/geojson/15_lao_cai/wards/02908_tang_loong.geojson","source_catalog":"https://github.com/thanglequoc/vietnamese-provinces-database"},"geometry":null},{"type":"Feature","id":"02923","properties":{"commune_code":"02923","commune_name":"Gia Phú","commune_name_en":"Gia Phu","commune_full_name":"Xã Gia Phú","commune_full_name_en":"Gia Phu Commune","commune_slug":"gia_phu","unit_type":"Xã","unit_type_en":"Commune","admin_level":2,"province_code":"15","province_name":"Lào Cai","province_full_name":"Tỉnh Lào Cai","province_slug":"lao_cai","join_key":"02923","status":"active","dataset_effective_date":"2026-04-30","catalog_version":"2026-07-12","geometry_status":"not_embedded_boundary_available_by_url","boundary_source_url":"https://raw.githubusercontent.com/thanglequoc/vietnamese-provinces-database/master/json/geojson/15_lao_cai/wards/02923_gia_phu.geojson","boundary_source_page":"https://github.com/thanglequoc/vietnamese-provinces-database/blob/master/json/geojson/15_lao_cai/wards/02923_gia_phu.geojson","source_catalog":"https://github.com/thanglequoc/vietnamese-provinces-database"},"geometry":null},{"type":"Feature","id":"02926","properties":{"commune_code":"02926","commune_name":"Xuân Quang","commune_name_en":"Xuan Quang","commune_full_name":"Xã Xuân Quang","commune_full_name_en":"Xuan Quang Commune","commune_slug":"xuan_quang","unit_type":"Xã","unit_type_en":"Commune","admin_level":2,"province_code":"15","province_name":"Lào Cai","province_full_name":"Tỉnh Lào Cai","province_slug":"lao_cai","join_key":"02926","status":"active","dataset_effective_date":"2026-04-30","catalog_version":"2026-07-12","geometry_status":"not_embedded_boundary_available_by_url","boundary_source_url":"https://raw.githubusercontent.com/thanglequoc/vietnamese-provinces-database/master/json/geojson/15_lao_cai/wards/02926_xuan_quang.geojson","boundary_source_page":"https://github.com/thanglequoc/vietnamese-provinces-database/blob/master/json/geojson/15_lao_cai/wards/02926_xuan_quang.geojson","source_catalog":"https://github.com/thanglequoc/vietnamese-provinces-database"},"geometry":null},{"type":"Feature","id":"02947","properties":{"commune_code":"02947","commune_name":"Bảo Yên","commune_name_en":"Bao Yen","commune_full_name":"Xã Bảo Yên","commune_full_name_en":"Bao Yen Commune","commune_slug":"bao_yen","unit_type":"Xã","unit_type_en":"Commune","admin_level":2,"province_code":"15","province_name":"Lào Cai","province_full_name":"Tỉnh Lào Cai","province_slug":"lao_cai","join_key":"02947","status":"active","dataset_effective_date":"2026-04-30","catalog_version":"2026-07-12","geometry_status":"not_embedded_boundary_available_by_url","boundary_source_url":"https://raw.githubusercontent.com/thanglequoc/vietnamese-provinces-database/master/json/geojson/15_lao_cai/wards/02947_bao_yen.geojson","boundary_source_page":"https://github.com/thanglequoc/vietnamese-provinces-database/blob/master/json/geojson/15_lao_cai/wards/02947_bao_yen.geojson","source_catalog":"https://github.com/thanglequoc/vietnamese-provinces-database"},"geometry":null},{"type":"Feature","id":"02953","properties":{"commune_code":"02953","commune_name":"Nghĩa Đô","commune_name_en":"Nghia Do","commune_full_name":"Xã Nghĩa Đô","commune_full_name_en":"Nghia Do Commune","commune_slug":"nghia_do","unit_type":"Xã","unit_type_en":"Commune","admin_level":2,"province_code":"15","province_name":"Lào Cai","province_full_name":"Tỉnh Lào Cai","province_slug":"lao_cai","join_key":"02953","status":"active","dataset_effective_date":"2026-04-30","catalog_version":"2026-07-12","geometry_status":"not_embedded_boundary_available_by_url","boundary_source_url":"https://raw.githubusercontent.com/thanglequoc/vietnamese-provinces-database/master/json/geojson/15_lao_cai/wards/02953_nghia_do.geojson","boundary_source_page":"https://github.com/thanglequoc/vietnamese-provinces-database/blob/master/json/geojson/15_lao_cai/wards/02953_nghia_do.geojson","source_catalog":"https://github.com/thanglequoc/vietnamese-provinces-database"},"geometry":null},{"type":"Feature","id":"02962","properties":{"commune_code":"02962","commune_name":"Xuân Hoà","commune_name_en":"Xuan Hoa","commune_full_name":"Xã Xuân Hoà","commune_full_name_en":"Xuan Hoa Commune","commune_slug":"xuan_hoa","unit_type":"Xã","unit_type_en":"Commune","admin_level":2,"province_code":"15","province_name":"Lào Cai","province_full_name":"Tỉnh Lào Cai","province_slug":"lao_cai","join_key":"02962","status":"active","dataset_effective_date":"2026-04-30","catalog_version":"2026-07-12","geometry_status":"not_embedded_boundary_available_by_url","boundary_source_url":"https://raw.githubusercontent.com/thanglequoc/vietnamese-provinces-database/master/json/geojson/15_lao_cai/wards/02962_xuan_hoa.geojson","boundary_source_page":"https://github.com/thanglequoc/vietnamese-provinces-database/blob/master/json/geojson/15_lao_cai/wards/02962_xuan_hoa.geojson","source_catalog":"https://github.com/thanglequoc/vietnamese-provinces-database"},"geometry":null},{"type":"Feature","id":"02968","properties":{"commune_code":"02968","commune_name":"Thượng Hà","commune_name_en":"Thuong Ha","commune_full_name":"Xã Thượng Hà","commune_full_name_en":"Thuong Ha Commune","commune_slug":"thuong_ha","unit_type":"Xã","unit_type_en":"Commune","admin_level":2,"province_code":"15","province_name":"Lào Cai","province_full_name":"Tỉnh Lào Cai","province_slug":"lao_cai","join_key":"02968","status":"active","dataset_effective_date":"2026-04-30","catalog_version":"2026-07-12","geometry_status":"not_embedded_boundary_available_by_url","boundary_source_url":"https://raw.githubusercontent.com/thanglequoc/vietnamese-provinces-database/master/json/geojson/15_lao_cai/wards/02968_thuong_ha.geojson","boundary_source_page":"https://github.com/thanglequoc/vietnamese-provinces-database/blob/master/json/geojson/15_lao_cai/wards/02968_thuong_ha.geojson","source_catalog":"https://github.com/thanglequoc/vietnamese-provinces-database"},"geometry":null},{"type":"Feature","id":"02989","properties":{"commune_code":"02989","commune_name":"Bảo Hà","commune_name_en":"Bao Ha","commune_full_name":"Xã Bảo Hà","commune_full_name_en":"Bao Ha Commune","commune_slug":"bao_ha","unit_type":"Xã","unit_type_en":"Commune","admin_level":2,"province_code":"15","province_name":"Lào Cai","province_full_name":"Tỉnh Lào Cai","province_slug":"lao_cai","join_key":"02989","status":"active","dataset_effective_date":"2026-04-30","catalog_version":"2026-07-12","geometry_status":"not_embedded_boundary_available_by_url","boundary_source_url":"https://raw.githubusercontent.com/thanglequoc/vietnamese-provinces-database/master/json/geojson/15_lao_cai/wards/02989_bao_ha.geojson","boundary_source_page":"https://github.com/thanglequoc/vietnamese-provinces-database/blob/master/json/geojson/15_lao_cai/wards/02989_bao_ha.geojson","source_catalog":"https://github.com/thanglequoc/vietnamese-provinces-database"},"geometry":null},{"type":"Feature","id":"02998","properties":{"commune_code":"02998","commune_name":"Phúc Khánh","commune_name_en":"Phuc Khanh","commune_full_name":"Xã Phúc Khánh","commune_full_name_en":"Phuc Khanh Commune","commune_slug":"phuc_khanh","unit_type":"Xã","unit_type_en":"Commune","admin_level":2,"province_code":"15","province_name":"Lào Cai","province_full_name":"Tỉnh Lào Cai","province_slug":"lao_cai","join_key":"02998","status":"active","dataset_effective_date":"2026-04-30","catalog_version":"2026-07-12","geometry_status":"not_embedded_boundary_available_by_url","boundary_source_url":"https://raw.githubusercontent.com/thanglequoc/vietnamese-provinces-database/master/json/geojson/15_lao_cai/wards/02998_phuc_khanh.geojson","boundary_source_page":"https://github.com/thanglequoc/vietnamese-provinces-database/blob/master/json/geojson/15_lao_cai/wards/02998_phuc_khanh.geojson","source_catalog":"https://github.com/thanglequoc/vietnamese-provinces-database"},"geometry":null},{"type":"Feature","id":"03004","properties":{"commune_code":"03004","commune_name":"Ngũ Chỉ Sơn","commune_name_en":"Ngu Chi Son","commune_full_name":"Xã Ngũ Chỉ Sơn","commune_full_name_en":"Ngu Chi Son Commune","commune_slug":"ngu_chi_son","unit_type":"Xã","unit_type_en":"Commune","admin_level":2,"province_code":"15","province_name":"Lào Cai","province_full_name":"Tỉnh Lào Cai","province_slug":"lao_cai","join_key":"03004","status":"active","dataset_effective_date":"2026-04-30","catalog_version":"2026-07-12","geometry_status":"not_embedded_boundary_available_by_url","boundary_source_url":"https://raw.githubusercontent.com/thanglequoc/vietnamese-provinces-database/master/json/geojson/15_lao_cai/wards/03004_ngu_chi_son.geojson","boundary_source_page":"https://github.com/thanglequoc/vietnamese-provinces-database/blob/master/json/geojson/15_lao_cai/wards/03004_ngu_chi_son.geojson","source_catalog":"https://github.com/thanglequoc/vietnamese-provinces-database"},"geometry":null},{"type":"Feature","id":"03006","properties":{"commune_code":"03006","commune_name":"Sa Pa","commune_name_en":"Sa Pa","commune_full_name":"Phường Sa Pa","commune_full_name_en":"Sa Pa Ward","commune_slug":"sa_pa","unit_type":"Phường","unit_type_en":"Ward","admin_level":2,"province_code":"15","province_name":"Lào Cai","province_full_name":"Tỉnh Lào Cai","province_slug":"lao_cai","join_key":"03006","status":"active","dataset_effective_date":"2026-04-30","catalog_version":"2026-07-12","geometry_status":"not_embedded_boundary_available_by_url","boundary_source_url":"https://raw.githubusercontent.com/thanglequoc/vietnamese-provinces-database/master/json/geojson/15_lao_cai/wards/03006_sa_pa.geojson","boundary_source_page":"https://github.com/thanglequoc/vietnamese-provinces-database/blob/master/json/geojson/15_lao_cai/wards/03006_sa_pa.geojson","source_catalog":"https://github.com/thanglequoc/vietnamese-provinces-database"},"geometry":null},{"type":"Feature","id":"03013","properties":{"commune_code":"03013","commune_name":"Tả Phìn","commune_name_en":"Ta Phin","commune_full_name":"Xã Tả Phìn","commune_full_name_en":"Ta Phin Commune","commune_slug":"ta_phin","unit_type":"Xã","unit_type_en":"Commune","admin_level":2,"province_code":"15","province_name":"Lào Cai","province_full_name":"Tỉnh Lào Cai","province_slug":"lao_cai","join_key":"03013","status":"active","dataset_effective_date":"2026-04-30","catalog_version":"2026-07-12","geometry_status":"not_embedded_boundary_available_by_url","boundary_source_url":"https://raw.githubusercontent.com/thanglequoc/vietnamese-provinces-database/master/json/geojson/15_lao_cai/wards/03013_ta_phin.geojson","boundary_source_page":"https://github.com/thanglequoc/vietnamese-provinces-database/blob/master/json/geojson/15_lao_cai/wards/03013_ta_phin.geojson","source_catalog":"https://github.com/thanglequoc/vietnamese-provinces-database"},"geometry":null},{"type":"Feature","id":"03037","properties":{"commune_code":"03037","commune_name":"Tả Van","commune_name_en":"Ta Van","commune_full_name":"Xã Tả Van","commune_full_name_en":"Ta Van Commune","commune_slug":"ta_van","unit_type":"Xã","unit_type_en":"Commune","admin_level":2,"province_code":"15","province_name":"Lào Cai","province_full_name":"Tỉnh Lào Cai","province_slug":"lao_cai","join_key":"03037","status":"active","dataset_effective_date":"2026-04-30","catalog_version":"2026-07-12","geometry_status":"not_embedded_boundary_available_by_url","boundary_source_url":"https://raw.githubusercontent.com/thanglequoc/vietnamese-provinces-database/master/json/geojson/15_lao_cai/wards/03037_ta_van.geojson","boundary_source_page":"https://github.com/thanglequoc/vietnamese-provinces-database/blob/master/json/geojson/15_lao_cai/wards/03037_ta_van.geojson","source_catalog":"https://github.com/thanglequoc/vietnamese-provinces-database"},"geometry":null},{"type":"Feature","id":"03043","properties":{"commune_code":"03043","commune_name":"Mường Bo","commune_name_en":"Muong Bo","commune_full_name":"Xã Mường Bo","commune_full_name_en":"Muong Bo Commune","commune_slug":"muong_bo","unit_type":"Xã","unit_type_en":"Commune","admin_level":2,"province_code":"15","province_name":"Lào Cai","province_full_name":"Tỉnh Lào Cai","province_slug":"lao_cai","join_key":"03043","status":"active","dataset_effective_date":"2026-04-30","catalog_version":"2026-07-12","geometry_status":"not_embedded_boundary_available_by_url","boundary_source_url":"https://raw.githubusercontent.com/thanglequoc/vietnamese-provinces-database/master/json/geojson/15_lao_cai/wards/03043_muong_bo.geojson","boundary_source_page":"https://github.com/thanglequoc/vietnamese-provinces-database/blob/master/json/geojson/15_lao_cai/wards/03043_muong_bo.geojson","source_catalog":"https://github.com/thanglequoc/vietnamese-provinces-database"},"geometry":null},{"type":"Feature","id":"03046","properties":{"commune_code":"03046","commune_name":"Bản Hồ","commune_name_en":"Ban Ho","commune_full_name":"Xã Bản Hồ","commune_full_name_en":"Ban Ho Commune","commune_slug":"ban_ho","unit_type":"Xã","unit_type_en":"Commune","admin_level":2,"province_code":"15","province_name":"Lào Cai","province_full_name":"Tỉnh Lào Cai","province_slug":"lao_cai","join_key":"03046","status":"active","dataset_effective_date":"2026-04-30","catalog_version":"2026-07-12","geometry_status":"not_embedded_boundary_available_by_url","boundary_source_url":"https://raw.githubusercontent.com/thanglequoc/vietnamese-provinces-database/master/json/geojson/15_lao_cai/wards/03046_ban_ho.geojson","boundary_source_page":"https://github.com/thanglequoc/vietnamese-provinces-database/blob/master/json/geojson/15_lao_cai/wards/03046_ban_ho.geojson","source_catalog":"https://github.com/thanglequoc/vietnamese-provinces-database"},"geometry":null},{"type":"Feature","id":"03061","properties":{"commune_code":"03061","commune_name":"Võ Lao","commune_name_en":"Vo Lao","commune_full_name":"Xã Võ Lao","commune_full_name_en":"Vo Lao Commune","commune_slug":"vo_lao","unit_type":"Xã","unit_type_en":"Commune","admin_level":2,"province_code":"15","province_name":"Lào Cai","province_full_name":"Tỉnh Lào Cai","province_slug":"lao_cai","join_key":"03061","status":"active","dataset_effective_date":"2026-04-30","catalog_version":"2026-07-12","geometry_status":"not_embedded_boundary_available_by_url","boundary_source_url":"https://raw.githubusercontent.com/thanglequoc/vietnamese-provinces-database/master/json/geojson/15_lao_cai/wards/03061_vo_lao.geojson","boundary_source_page":"https://github.com/thanglequoc/vietnamese-provinces-database/blob/master/json/geojson/15_lao_cai/wards/03061_vo_lao.geojson","source_catalog":"https://github.com/thanglequoc/vietnamese-provinces-database"},"geometry":null},{"type":"Feature","id":"03076","properties":{"commune_code":"03076","commune_name":"Nậm Chày","commune_name_en":"Nam Chay","commune_full_name":"Xã Nậm Chày","commune_full_name_en":"Nam Chay Commune","commune_slug":"nam_chay","unit_type":"Xã","unit_type_en":"Commune","admin_level":2,"province_code":"15","province_name":"Lào Cai","province_full_name":"Tỉnh Lào Cai","province_slug":"lao_cai","join_key":"03076","status":"active","dataset_effective_date":"2026-04-30","catalog_version":"2026-07-12","geometry_status":"not_embedded_boundary_available_by_url","boundary_source_url":"https://raw.githubusercontent.com/thanglequoc/vietnamese-provinces-database/master/json/geojson/15_lao_cai/wards/03076_nam_chay.geojson","boundary_source_page":"https://github.com/thanglequoc/vietnamese-provinces-database/blob/master/json/geojson/15_lao_cai/wards/03076_nam_chay.geojson","source_catalog":"https://github.com/thanglequoc/vietnamese-provinces-database"},"geometry":null},{"type":"Feature","id":"03082","properties":{"commune_code":"03082","commune_name":"Văn Bàn","commune_name_en":"Van Ban","commune_full_name":"Xã Văn Bàn","commune_full_name_en":"Van Ban Commune","commune_slug":"van_ban","unit_type":"Xã","unit_type_en":"Commune","admin_level":2,"province_code":"15","province_name":"Lào Cai","province_full_name":"Tỉnh Lào Cai","province_slug":"lao_cai","join_key":"03082","status":"active","dataset_effective_date":"2026-04-30","catalog_version":"2026-07-12","geometry_status":"not_embedded_boundary_available_by_url","boundary_source_url":"https://raw.githubusercontent.com/thanglequoc/vietnamese-provinces-database/master/json/geojson/15_lao_cai/wards/03082_van_ban.geojson","boundary_source_page":"https://github.com/thanglequoc/vietnamese-provinces-database/blob/master/json/geojson/15_lao_cai/wards/03082_van_ban.geojson","source_catalog":"https://github.com/thanglequoc/vietnamese-provinces-database"},"geometry":null},{"type":"Feature","id":"03085","properties":{"commune_code":"03085","commune_name":"Nậm Xé","commune_name_en":"Nam Xe","commune_full_name":"Xã Nậm Xé","commune_full_name_en":"Nam Xe Commune","commune_slug":"nam_xe","unit_type":"Xã","unit_type_en":"Commune","admin_level":2,"province_code":"15","province_name":"Lào Cai","province_full_name":"Tỉnh Lào Cai","province_slug":"lao_cai","join_key":"03085","status":"active","dataset_effective_date":"2026-04-30","catalog_version":"2026-07-12","geometry_status":"not_embedded_boundary_available_by_url","boundary_source_url":"https://raw.githubusercontent.com/thanglequoc/vietnamese-provinces-database/master/json/geojson/15_lao_cai/wards/03085_nam_xe.geojson","boundary_source_page":"https://github.com/thanglequoc/vietnamese-provinces-database/blob/master/json/geojson/15_lao_cai/wards/03085_nam_xe.geojson","source_catalog":"https://github.com/thanglequoc/vietnamese-provinces-database"},"geometry":null},{"type":"Feature","id":"03091","properties":{"commune_code":"03091","commune_name":"Chiềng Ken","commune_name_en":"Chieng Ken","commune_full_name":"Xã Chiềng Ken","commune_full_name_en":"Chieng Ken Commune","commune_slug":"chieng_ken","unit_type":"Xã","unit_type_en":"Commune","admin_level":2,"province_code":"15","province_name":"Lào Cai","province_full_name":"Tỉnh Lào Cai","province_slug":"lao_cai","join_key":"03091","status":"active","dataset_effective_date":"2026-04-30","catalog_version":"2026-07-12","geometry_status":"not_embedded_boundary_available_by_url","boundary_source_url":"https://raw.githubusercontent.com/thanglequoc/vietnamese-provinces-database/master/json/geojson/15_lao_cai/wards/03091_chieng_ken.geojson","boundary_source_page":"https://github.com/thanglequoc/vietnamese-provinces-database/blob/master/json/geojson/15_lao_cai/wards/03091_chieng_ken.geojson","source_catalog":"https://github.com/thanglequoc/vietnamese-provinces-database"},"geometry":null},{"type":"Feature","id":"03103","properties":{"commune_code":"03103","commune_name":"Khánh Yên","commune_name_en":"Khanh Yen","commune_full_name":"Xã Khánh Yên","commune_full_name_en":"Khanh Yen Commune","commune_slug":"khanh_yen","unit_type":"Xã","unit_type_en":"Commune","admin_level":2,"province_code":"15","province_name":"Lào Cai","province_full_name":"Tỉnh Lào Cai","province_slug":"lao_cai","join_key":"03103","status":"active","dataset_effective_date":"2026-04-30","catalog_version":"2026-07-12","geometry_status":"not_embedded_boundary_available_by_url","boundary_source_url":"https://raw.githubusercontent.com/thanglequoc/vietnamese-provinces-database/master/json/geojson/15_lao_cai/wards/03103_khanh_yen.geojson","boundary_source_page":"https://github.com/thanglequoc/vietnamese-provinces-database/blob/master/json/geojson/15_lao_cai/wards/03103_khanh_yen.geojson","source_catalog":"https://github.com/thanglequoc/vietnamese-provinces-database"},"geometry":null},{"type":"Feature","id":"03106","properties":{"commune_code":"03106","commune_name":"Dương Quỳ","commune_name_en":"Duong Quy","commune_full_name":"Xã Dương Quỳ","commune_full_name_en":"Duong Quy Commune","commune_slug":"duong_quy","unit_type":"Xã","unit_type_en":"Commune","admin_level":2,"province_code":"15","province_name":"Lào Cai","province_full_name":"Tỉnh Lào Cai","province_slug":"lao_cai","join_key":"03106","status":"active","dataset_effective_date":"2026-04-30","catalog_version":"2026-07-12","geometry_status":"not_embedded_boundary_available_by_url","boundary_source_url":"https://raw.githubusercontent.com/thanglequoc/vietnamese-provinces-database/master/json/geojson/15_lao_cai/wards/03106_duong_quy.geojson","boundary_source_page":"https://github.com/thanglequoc/vietnamese-provinces-database/blob/master/json/geojson/15_lao_cai/wards/03106_duong_quy.geojson","source_catalog":"https://github.com/thanglequoc/vietnamese-provinces-database"},"geometry":null},{"type":"Feature","id":"03121","properties":{"commune_code":"03121","commune_name":"Minh Lương","commune_name_en":"Minh Luong","commune_full_name":"Xã Minh Lương","commune_full_name_en":"Minh Luong Commune","commune_slug":"minh_luong","unit_type":"Xã","unit_type_en":"Commune","admin_level":2,"province_code":"15","province_name":"Lào Cai","province_full_name":"Tỉnh Lào Cai","province_slug":"lao_cai","join_key":"03121","status":"active","dataset_effective_date":"2026-04-30","catalog_version":"2026-07-12","geometry_status":"not_embedded_boundary_available_by_url","boundary_source_url":"https://raw.githubusercontent.com/thanglequoc/vietnamese-provinces-database/master/json/geojson/15_lao_cai/wards/03121_minh_luong.geojson","boundary_source_page":"https://github.com/thanglequoc/vietnamese-provinces-database/blob/master/json/geojson/15_lao_cai/wards/03121_minh_luong.geojson","source_catalog":"https://github.com/thanglequoc/vietnamese-provinces-database"},"geometry":null},{"type":"Feature","id":"04252","properties":{"commune_code":"04252","commune_name":"Yên Bái","commune_name_en":"Yen Bai","commune_full_name":"Phường Yên Bái","commune_full_name_en":"Yen Bai Ward","commune_slug":"yen_bai","unit_type":"Phường","unit_type_en":"Ward","admin_level":2,"province_code":"15","province_name":"Lào Cai","province_full_name":"Tỉnh Lào Cai","province_slug":"lao_cai","join_key":"04252","status":"active","dataset_effective_date":"2026-04-30","catalog_version":"2026-07-12","geometry_status":"not_embedded_boundary_available_by_url","boundary_source_url":"https://raw.githubusercontent.com/thanglequoc/vietnamese-provinces-database/master/json/geojson/15_lao_cai/wards/04252_yen_bai.geojson","boundary_source_page":"https://github.com/thanglequoc/vietnamese-provinces-database/blob/master/json/geojson/15_lao_cai/wards/04252_yen_bai.geojson","source_catalog":"https://github.com/thanglequoc/vietnamese-provinces-database"},"geometry":null},{"type":"Feature","id":"04273","properties":{"commune_code":"04273","commune_name":"Nam Cường","commune_name_en":"Nam Cuong","commune_full_name":"Phường Nam Cường","commune_full_name_en":"Nam Cuong Ward","commune_slug":"nam_cuong","unit_type":"Phường","unit_type_en":"Ward","admin_level":2,"province_code":"15","province_name":"Lào Cai","province_full_name":"Tỉnh Lào Cai","province_slug":"lao_cai","join_key":"04273","status":"active","dataset_effective_date":"2026-04-30","catalog_version":"2026-07-12","geometry_status":"not_embedded_boundary_available_by_url","boundary_source_url":"https://raw.githubusercontent.com/thanglequoc/vietnamese-provinces-database/master/json/geojson/15_lao_cai/wards/04273_nam_cuong.geojson","boundary_source_page":"https://github.com/thanglequoc/vietnamese-provinces-database/blob/master/json/geojson/15_lao_cai/wards/04273_nam_cuong.geojson","source_catalog":"https://github.com/thanglequoc/vietnamese-provinces-database"},"geometry":null},{"type":"Feature","id":"04279","properties":{"commune_code":"04279","commune_name":"Văn Phú","commune_name_en":"Van Phu","commune_full_name":"Phường Văn Phú","commune_full_name_en":"Van Phu Ward","commune_slug":"van_phu","unit_type":"Phường","unit_type_en":"Ward","admin_level":2,"province_code":"15","province_name":"Lào Cai","province_full_name":"Tỉnh Lào Cai","province_slug":"lao_cai","join_key":"04279","status":"active","dataset_effective_date":"2026-04-30","catalog_version":"2026-07-12","geometry_status":"not_embedded_boundary_available_by_url","boundary_source_url":"https://raw.githubusercontent.com/thanglequoc/vietnamese-provinces-database/master/json/geojson/15_lao_cai/wards/04279_van_phu.geojson","boundary_source_page":"https://github.com/thanglequoc/vietnamese-provinces-database/blob/master/json/geojson/15_lao_cai/wards/04279_van_phu.geojson","source_catalog":"https://github.com/thanglequoc/vietnamese-provinces-database"},"geometry":null},{"type":"Feature","id":"04288","properties":{"commune_code":"04288","commune_name":"Nghĩa Lộ","commune_name_en":"Nghia Lo","commune_full_name":"Phường Nghĩa Lộ","commune_full_name_en":"Nghia Lo Ward","commune_slug":"nghia_lo","unit_type":"Phường","unit_type_en":"Ward","admin_level":2,"province_code":"15","province_name":"Lào Cai","province_full_name":"Tỉnh Lào Cai","province_slug":"lao_cai","join_key":"04288","status":"active","dataset_effective_date":"2026-04-30","catalog_version":"2026-07-12","geometry_status":"not_embedded_boundary_available_by_url","boundary_source_url":"https://raw.githubusercontent.com/thanglequoc/vietnamese-provinces-database/master/json/geojson/15_lao_cai/wards/04288_nghia_lo.geojson","boundary_source_page":"https://github.com/thanglequoc/vietnamese-provinces-database/blob/master/json/geojson/15_lao_cai/wards/04288_nghia_lo.geojson","source_catalog":"https://github.com/thanglequoc/vietnamese-provinces-database"},"geometry":null},{"type":"Feature","id":"04303","properties":{"commune_code":"04303","commune_name":"Lục Yên","commune_name_en":"Luc Yen","commune_full_name":"Xã Lục Yên","commune_full_name_en":"Luc Yen Commune","commune_slug":"luc_yen","unit_type":"Xã","unit_type_en":"Commune","admin_level":2,"province_code":"15","province_name":"Lào Cai","province_full_name":"Tỉnh Lào Cai","province_slug":"lao_cai","join_key":"04303","status":"active","dataset_effective_date":"2026-04-30","catalog_version":"2026-07-12","geometry_status":"not_embedded_boundary_available_by_url","boundary_source_url":"https://raw.githubusercontent.com/thanglequoc/vietnamese-provinces-database/master/json/geojson/15_lao_cai/wards/04303_luc_yen.geojson","boundary_source_page":"https://github.com/thanglequoc/vietnamese-provinces-database/blob/master/json/geojson/15_lao_cai/wards/04303_luc_yen.geojson","source_catalog":"https://github.com/thanglequoc/vietnamese-provinces-database"},"geometry":null},{"type":"Feature","id":"04309","properties":{"commune_code":"04309","commune_name":"Lâm Thượng","commune_name_en":"Lam Thuong","commune_full_name":"Xã Lâm Thượng","commune_full_name_en":"Lam Thuong Commune","commune_slug":"lam_thuong","unit_type":"Xã","unit_type_en":"Commune","admin_level":2,"province_code":"15","province_name":"Lào Cai","province_full_name":"Tỉnh Lào Cai","province_slug":"lao_cai","join_key":"04309","status":"active","dataset_effective_date":"2026-04-30","catalog_version":"2026-07-12","geometry_status":"not_embedded_boundary_available_by_url","boundary_source_url":"https://raw.githubusercontent.com/thanglequoc/vietnamese-provinces-database/master/json/geojson/15_lao_cai/wards/04309_lam_thuong.geojson","boundary_source_page":"https://github.com/thanglequoc/vietnamese-provinces-database/blob/master/json/geojson/15_lao_cai/wards/04309_lam_thuong.geojson","source_catalog":"https://github.com/thanglequoc/vietnamese-provinces-database"},"geometry":null},{"type":"Feature","id":"04336","properties":{"commune_code":"04336","commune_name":"Tân Lĩnh","commune_name_en":"Tan Linh","commune_full_name":"Xã Tân Lĩnh","commune_full_name_en":"Tan Linh Commune","commune_slug":"tan_linh","unit_type":"Xã","unit_type_en":"Commune","admin_level":2,"province_code":"15","province_name":"Lào Cai","province_full_name":"Tỉnh Lào Cai","province_slug":"lao_cai","join_key":"04336","status":"active","dataset_effective_date":"2026-04-30","catalog_version":"2026-07-12","geometry_status":"not_embedded_boundary_available_by_url","boundary_source_url":"https://raw.githubusercontent.com/thanglequoc/vietnamese-provinces-database/master/json/geojson/15_lao_cai/wards/04336_tan_linh.geojson","boundary_source_page":"https://github.com/thanglequoc/vietnamese-provinces-database/blob/master/json/geojson/15_lao_cai/wards/04336_tan_linh.geojson","source_catalog":"https://github.com/thanglequoc/vietnamese-provinces-database"},"geometry":null},{"type":"Feature","id":"04342","properties":{"commune_code":"04342","commune_name":"Khánh Hoà","commune_name_en":"Khanh Hoa","commune_full_name":"Xã Khánh Hoà","commune_full_name_en":"Khanh Hoa Commune","commune_slug":"khanh_hoa","unit_type":"Xã","unit_type_en":"Commune","admin_level":2,"province_code":"15","province_name":"Lào Cai","province_full_name":"Tỉnh Lào Cai","province_slug":"lao_cai","join_key":"04342","status":"active","dataset_effective_date":"2026-04-30","catalog_version":"2026-07-12","geometry_status":"not_embedded_boundary_available_by_url","boundary_source_url":"https://raw.githubusercontent.com/thanglequoc/vietnamese-provinces-database/master/json/geojson/15_lao_cai/wards/04342_khanh_hoa.geojson","boundary_source_page":"https://github.com/thanglequoc/vietnamese-provinces-database/blob/master/json/geojson/15_lao_cai/wards/04342_khanh_hoa.geojson","source_catalog":"https://github.com/thanglequoc/vietnamese-provinces-database"},"geometry":null},{"type":"Feature","id":"04345","properties":{"commune_code":"04345","commune_name":"Mường Lai","commune_name_en":"Muong Lai","commune_full_name":"Xã Mường Lai","commune_full_name_en":"Muong Lai Commune","commune_slug":"muong_lai","unit_type":"Xã","unit_type_en":"Commune","admin_level":2,"province_code":"15","province_name":"Lào Cai","province_full_name":"Tỉnh Lào Cai","province_slug":"lao_cai","join_key":"04345","status":"active","dataset_effective_date":"2026-04-30","catalog_version":"2026-07-12","geometry_status":"not_embedded_boundary_available_by_url","boundary_source_url":"https://raw.githubusercontent.com/thanglequoc/vietnamese-provinces-database/master/json/geojson/15_lao_cai/wards/04345_muong_lai.geojson","boundary_source_page":"https://github.com/thanglequoc/vietnamese-provinces-database/blob/master/json/geojson/15_lao_cai/wards/04345_muong_lai.geojson","source_catalog":"https://github.com/thanglequoc/vietnamese-provinces-database"},"geometry":null},{"type":"Feature","id":"04363","properties":{"commune_code":"04363","commune_name":"Phúc Lợi","commune_name_en":"Phuc Loi","commune_full_name":"Xã Phúc Lợi","commune_full_name_en":"Phuc Loi Commune","commune_slug":"phuc_loi","unit_type":"Xã","unit_type_en":"Commune","admin_level":2,"province_code":"15","province_name":"Lào Cai","province_full_name":"Tỉnh Lào Cai","province_slug":"lao_cai","join_key":"04363","status":"active","dataset_effective_date":"2026-04-30","catalog_version":"2026-07-12","geometry_status":"not_embedded_boundary_available_by_url","boundary_source_url":"https://raw.githubusercontent.com/thanglequoc/vietnamese-provinces-database/master/json/geojson/15_lao_cai/wards/04363_phuc_loi.geojson","boundary_source_page":"https://github.com/thanglequoc/vietnamese-provinces-database/blob/master/json/geojson/15_lao_cai/wards/04363_phuc_loi.geojson","source_catalog":"https://github.com/thanglequoc/vietnamese-provinces-database"},"geometry":null},{"type":"Feature","id":"04375","properties":{"commune_code":"04375","commune_name":"Mậu A","commune_name_en":"Mau A","commune_full_name":"Xã Mậu A","commune_full_name_en":"Mau A Commune","commune_slug":"mau_a","unit_type":"Xã","unit_type_en":"Commune","admin_level":2,"province_code":"15","province_name":"Lào Cai","province_full_name":"Tỉnh Lào Cai","province_slug":"lao_cai","join_key":"04375","status":"active","dataset_effective_date":"2026-04-30","catalog_version":"2026-07-12","geometry_status":"not_embedded_boundary_available_by_url","boundary_source_url":"https://raw.githubusercontent.com/thanglequoc/vietnamese-provinces-database/master/json/geojson/15_lao_cai/wards/04375_mau_a.geojson","boundary_source_page":"https://github.com/thanglequoc/vietnamese-provinces-database/blob/master/json/geojson/15_lao_cai/wards/04375_mau_a.geojson","source_catalog":"https://github.com/thanglequoc/vietnamese-provinces-database"},"geometry":null},{"type":"Feature","id":"04381","properties":{"commune_code":"04381","commune_name":"Lâm Giang","commune_name_en":"Lam Giang","commune_full_name":"Xã Lâm Giang","commune_full_name_en":"Lam Giang Commune","commune_slug":"lam_giang","unit_type":"Xã","unit_type_en":"Commune","admin_level":2,"province_code":"15","province_name":"Lào Cai","province_full_name":"Tỉnh Lào Cai","province_slug":"lao_cai","join_key":"04381","status":"active","dataset_effective_date":"2026-04-30","catalog_version":"2026-07-12","geometry_status":"not_embedded_boundary_available_by_url","boundary_source_url":"https://raw.githubusercontent.com/thanglequoc/vietnamese-provinces-database/master/json/geojson/15_lao_cai/wards/04381_lam_giang.geojson","boundary_source_page":"https://github.com/thanglequoc/vietnamese-provinces-database/blob/master/json/geojson/15_lao_cai/wards/04381_lam_giang.geojson","source_catalog":"https://github.com/thanglequoc/vietnamese-provinces-database"},"geometry":null},{"type":"Feature","id":"04387","properties":{"commune_code":"04387","commune_name":"Châu Quế","commune_name_en":"Chau Que","commune_full_name":"Xã Châu Quế","commune_full_name_en":"Chau Que Commune","commune_slug":"chau_que","unit_type":"Xã","unit_type_en":"Commune","admin_level":2,"province_code":"15","province_name":"Lào Cai","province_full_name":"Tỉnh Lào Cai","province_slug":"lao_cai","join_key":"04387","status":"active","dataset_effective_date":"2026-04-30","catalog_version":"2026-07-12","geometry_status":"not_embedded_boundary_available_by_url","boundary_source_url":"https://raw.githubusercontent.com/thanglequoc/vietnamese-provinces-database/master/json/geojson/15_lao_cai/wards/04387_chau_que.geojson","boundary_source_page":"https://github.com/thanglequoc/vietnamese-provinces-database/blob/master/json/geojson/15_lao_cai/wards/04387_chau_que.geojson","source_catalog":"https://github.com/thanglequoc/vietnamese-provinces-database"},"geometry":null},{"type":"Feature","id":"04399","properties":{"commune_code":"04399","commune_name":"Đông Cuông","commune_name_en":"Dong Cuong","commune_full_name":"Xã Đông Cuông","commune_full_name_en":"Dong Cuong Commune","commune_slug":"dong_cuong","unit_type":"Xã","unit_type_en":"Commune","admin_level":2,"province_code":"15","province_name":"Lào Cai","province_full_name":"Tỉnh Lào Cai","province_slug":"lao_cai","join_key":"04399","status":"active","dataset_effective_date":"2026-04-30","catalog_version":"2026-07-12","geometry_status":"not_embedded_boundary_available_by_url","boundary_source_url":"https://raw.githubusercontent.com/thanglequoc/vietnamese-provinces-database/master/json/geojson/15_lao_cai/wards/04399_dong_cuong.geojson","boundary_source_page":"https://github.com/thanglequoc/vietnamese-provinces-database/blob/master/json/geojson/15_lao_cai/wards/04399_dong_cuong.geojson","source_catalog":"https://github.com/thanglequoc/vietnamese-provinces-database"},"geometry":null},{"type":"Feature","id":"04402","properties":{"commune_code":"04402","commune_name":"Phong Dụ Hạ","commune_name_en":"Phong Du Ha","commune_full_name":"Xã Phong Dụ Hạ","commune_full_name_en":"Phong Du Ha Commune","commune_slug":"phong_du_ha","unit_type":"Xã","unit_type_en":"Commune","admin_level":2,"province_code":"15","province_name":"Lào Cai","province_full_name":"Tỉnh Lào Cai","province_slug":"lao_cai","join_key":"04402","status":"active","dataset_effective_date":"2026-04-30","catalog_version":"2026-07-12","geometry_status":"not_embedded_boundary_available_by_url","boundary_source_url":"https://raw.githubusercontent.com/thanglequoc/vietnamese-provinces-database/master/json/geojson/15_lao_cai/wards/04402_phong_du_ha.geojson","boundary_source_page":"https://github.com/thanglequoc/vietnamese-provinces-database/blob/master/json/geojson/15_lao_cai/wards/04402_phong_du_ha.geojson","source_catalog":"https://github.com/thanglequoc/vietnamese-provinces-database"},"geometry":null},{"type":"Feature","id":"04423","properties":{"commune_code":"04423","commune_name":"Phong Dụ Thượng","commune_name_en":"Phong Du Thuong","commune_full_name":"Xã Phong Dụ Thượng","commune_full_name_en":"Phong Du Thuong Commune","commune_slug":"phong_du_thuong","unit_type":"Xã","unit_type_en":"Commune","admin_level":2,"province_code":"15","province_name":"Lào Cai","province_full_name":"Tỉnh Lào Cai","province_slug":"lao_cai","join_key":"04423","status":"active","dataset_effective_date":"2026-04-30","catalog_version":"2026-07-12","geometry_status":"not_embedded_boundary_available_by_url","boundary_source_url":"https://raw.githubusercontent.com/thanglequoc/vietnamese-provinces-database/master/json/geojson/15_lao_cai/wards/04423_phong_du_thuong.geojson","boundary_source_page":"https://github.com/thanglequoc/vietnamese-provinces-database/blob/master/json/geojson/15_lao_cai/wards/04423_phong_du_thuong.geojson","source_catalog":"https://github.com/thanglequoc/vietnamese-provinces-database"},"geometry":null},{"type":"Feature","id":"04429","properties":{"commune_code":"04429","commune_name":"Tân Hợp","commune_name_en":"Tan Hop","commune_full_name":"Xã Tân Hợp","commune_full_name_en":"Tan Hop Commune","commune_slug":"tan_hop","unit_type":"Xã","unit_type_en":"Commune","admin_level":2,"province_code":"15","province_name":"Lào Cai","province_full_name":"Tỉnh Lào Cai","province_slug":"lao_cai","join_key":"04429","status":"active","dataset_effective_date":"2026-04-30","catalog_version":"2026-07-12","geometry_status":"not_embedded_boundary_available_by_url","boundary_source_url":"https://raw.githubusercontent.com/thanglequoc/vietnamese-provinces-database/master/json/geojson/15_lao_cai/wards/04429_tan_hop.geojson","boundary_source_page":"https://github.com/thanglequoc/vietnamese-provinces-database/blob/master/json/geojson/15_lao_cai/wards/04429_tan_hop.geojson","source_catalog":"https://github.com/thanglequoc/vietnamese-provinces-database"},"geometry":null},{"type":"Feature","id":"04441","properties":{"commune_code":"04441","commune_name":"Xuân Ái","commune_name_en":"Xuan Ai","commune_full_name":"Xã Xuân Ái","commune_full_name_en":"Xuan Ai Commune","commune_slug":"xuan_ai","unit_type":"Xã","unit_type_en":"Commune","admin_level":2,"province_code":"15","province_name":"Lào Cai","province_full_name":"Tỉnh Lào Cai","province_slug":"lao_cai","join_key":"04441","status":"active","dataset_effective_date":"2026-04-30","catalog_version":"2026-07-12","geometry_status":"not_embedded_boundary_available_by_url","boundary_source_url":"https://raw.githubusercontent.com/thanglequoc/vietnamese-provinces-database/master/json/geojson/15_lao_cai/wards/04441_xuan_ai.geojson","boundary_source_page":"https://github.com/thanglequoc/vietnamese-provinces-database/blob/master/json/geojson/15_lao_cai/wards/04441_xuan_ai.geojson","source_catalog":"https://github.com/thanglequoc/vietnamese-provinces-database"},"geometry":null},{"type":"Feature","id":"04450","properties":{"commune_code":"04450","commune_name":"Mỏ Vàng","commune_name_en":"Mo Vang","commune_full_name":"Xã Mỏ Vàng","commune_full_name_en":"Mo Vang Commune","commune_slug":"mo_vang","unit_type":"Xã","unit_type_en":"Commune","admin_level":2,"province_code":"15","province_name":"Lào Cai","province_full_name":"Tỉnh Lào Cai","province_slug":"lao_cai","join_key":"04450","status":"active","dataset_effective_date":"2026-04-30","catalog_version":"2026-07-12","geometry_status":"not_embedded_boundary_available_by_url","boundary_source_url":"https://raw.githubusercontent.com/thanglequoc/vietnamese-provinces-database/master/json/geojson/15_lao_cai/wards/04450_mo_vang.geojson","boundary_source_page":"https://github.com/thanglequoc/vietnamese-provinces-database/blob/master/json/geojson/15_lao_cai/wards/04450_mo_vang.geojson","source_catalog":"https://github.com/thanglequoc/vietnamese-provinces-database"},"geometry":null},{"type":"Feature","id":"04456","properties":{"commune_code":"04456","commune_name":"Mù Cang Chải","commune_name_en":"Mu Cang Chai","commune_full_name":"Xã Mù Cang Chải","commune_full_name_en":"Mu Cang Chai Commune","commune_slug":"mu_cang_chai","unit_type":"Xã","unit_type_en":"Commune","admin_level":2,"province_code":"15","province_name":"Lào Cai","province_full_name":"Tỉnh Lào Cai","province_slug":"lao_cai","join_key":"04456","status":"active","dataset_effective_date":"2026-04-30","catalog_version":"2026-07-12","geometry_status":"not_embedded_boundary_available_by_url","boundary_source_url":"https://raw.githubusercontent.com/thanglequoc/vietnamese-provinces-database/master/json/geojson/15_lao_cai/wards/04456_mu_cang_chai.geojson","boundary_source_page":"https://github.com/thanglequoc/vietnamese-provinces-database/blob/master/json/geojson/15_lao_cai/wards/04456_mu_cang_chai.geojson","source_catalog":"https://github.com/thanglequoc/vietnamese-provinces-database"},"geometry":null},{"type":"Feature","id":"04462","properties":{"commune_code":"04462","commune_name":"Nậm Có","commune_name_en":"Nam Co","commune_full_name":"Xã Nậm Có","commune_full_name_en":"Nam Co Commune","commune_slug":"nam_co","unit_type":"Xã","unit_type_en":"Commune","admin_level":2,"province_code":"15","province_name":"Lào Cai","province_full_name":"Tỉnh Lào Cai","province_slug":"lao_cai","join_key":"04462","status":"active","dataset_effective_date":"2026-04-30","catalog_version":"2026-07-12","geometry_status":"not_embedded_boundary_available_by_url","boundary_source_url":"https://raw.githubusercontent.com/thanglequoc/vietnamese-provinces-database/master/json/geojson/15_lao_cai/wards/04462_nam_co.geojson","boundary_source_page":"https://github.com/thanglequoc/vietnamese-provinces-database/blob/master/json/geojson/15_lao_cai/wards/04462_nam_co.geojson","source_catalog":"https://github.com/thanglequoc/vietnamese-provinces-database"},"geometry":null},{"type":"Feature","id":"04465","properties":{"commune_code":"04465","commune_name":"Khao Mang","commune_name_en":"Khao Mang","commune_full_name":"Xã Khao Mang","commune_full_name_en":"Khao Mang Commune","commune_slug":"khao_mang","unit_type":"Xã","unit_type_en":"Commune","admin_level":2,"province_code":"15","province_name":"Lào Cai","province_full_name":"Tỉnh Lào Cai","province_slug":"lao_cai","join_key":"04465","status":"active","dataset_effective_date":"2026-04-30","catalog_version":"2026-07-12","geometry_status":"not_embedded_boundary_available_by_url","boundary_source_url":"https://raw.githubusercontent.com/thanglequoc/vietnamese-provinces-database/master/json/geojson/15_lao_cai/wards/04465_khao_mang.geojson","boundary_source_page":"https://github.com/thanglequoc/vietnamese-provinces-database/blob/master/json/geojson/15_lao_cai/wards/04465_khao_mang.geojson","source_catalog":"https://github.com/thanglequoc/vietnamese-provinces-database"},"geometry":null},{"type":"Feature","id":"04474","properties":{"commune_code":"04474","commune_name":"Lao Chải","commune_name_en":"Lao Chai","commune_full_name":"Xã Lao Chải","commune_full_name_en":"Lao Chai Commune","commune_slug":"lao_chai","unit_type":"Xã","unit_type_en":"Commune","admin_level":2,"province_code":"15","province_name":"Lào Cai","province_full_name":"Tỉnh Lào Cai","province_slug":"lao_cai","join_key":"04474","status":"active","dataset_effective_date":"2026-04-30","catalog_version":"2026-07-12","geometry_status":"not_embedded_boundary_available_by_url","boundary_source_url":"https://raw.githubusercontent.com/thanglequoc/vietnamese-provinces-database/master/json/geojson/15_lao_cai/wards/04474_lao_chai.geojson","boundary_source_page":"https://github.com/thanglequoc/vietnamese-provinces-database/blob/master/json/geojson/15_lao_cai/wards/04474_lao_chai.geojson","source_catalog":"https://github.com/thanglequoc/vietnamese-provinces-database"},"geometry":null},{"type":"Feature","id":"04489","properties":{"commune_code":"04489","commune_name":"Chế Tạo","commune_name_en":"Che Tao","commune_full_name":"Xã Chế Tạo","commune_full_name_en":"Che Tao Commune","commune_slug":"che_tao","unit_type":"Xã","unit_type_en":"Commune","admin_level":2,"province_code":"15","province_name":"Lào Cai","province_full_name":"Tỉnh Lào Cai","province_slug":"lao_cai","join_key":"04489","status":"active","dataset_effective_date":"2026-04-30","catalog_version":"2026-07-12","geometry_status":"not_embedded_boundary_available_by_url","boundary_source_url":"https://raw.githubusercontent.com/thanglequoc/vietnamese-provinces-database/master/json/geojson/15_lao_cai/wards/04489_che_tao.geojson","boundary_source_page":"https://github.com/thanglequoc/vietnamese-provinces-database/blob/master/json/geojson/15_lao_cai/wards/04489_che_tao.geojson","source_catalog":"https://github.com/thanglequoc/vietnamese-provinces-database"},"geometry":null},{"type":"Feature","id":"04492","properties":{"commune_code":"04492","commune_name":"Púng Luông","commune_name_en":"Pung Luong","commune_full_name":"Xã Púng Luông","commune_full_name_en":"Pung Luong Commune","commune_slug":"pung_luong","unit_type":"Xã","unit_type_en":"Commune","admin_level":2,"province_code":"15","province_name":"Lào Cai","province_full_name":"Tỉnh Lào Cai","province_slug":"lao_cai","join_key":"04492","status":"active","dataset_effective_date":"2026-04-30","catalog_version":"2026-07-12","geometry_status":"not_embedded_boundary_available_by_url","boundary_source_url":"https://raw.githubusercontent.com/thanglequoc/vietnamese-provinces-database/master/json/geojson/15_lao_cai/wards/04492_pung_luong.geojson","boundary_source_page":"https://github.com/thanglequoc/vietnamese-provinces-database/blob/master/json/geojson/15_lao_cai/wards/04492_pung_luong.geojson","source_catalog":"https://github.com/thanglequoc/vietnamese-provinces-database"},"geometry":null},{"type":"Feature","id":"04498","properties":{"commune_code":"04498","commune_name":"Trấn Yên","commune_name_en":"Tran Yen","commune_full_name":"Xã Trấn Yên","commune_full_name_en":"Tran Yen Commune","commune_slug":"tran_yen","unit_type":"Xã","unit_type_en":"Commune","admin_level":2,"province_code":"15","province_name":"Lào Cai","province_full_name":"Tỉnh Lào Cai","province_slug":"lao_cai","join_key":"04498","status":"active","dataset_effective_date":"2026-04-30","catalog_version":"2026-07-12","geometry_status":"not_embedded_boundary_available_by_url","boundary_source_url":"https://raw.githubusercontent.com/thanglequoc/vietnamese-provinces-database/master/json/geojson/15_lao_cai/wards/04498_tran_yen.geojson","boundary_source_page":"https://github.com/thanglequoc/vietnamese-provinces-database/blob/master/json/geojson/15_lao_cai/wards/04498_tran_yen.geojson","source_catalog":"https://github.com/thanglequoc/vietnamese-provinces-database"},"geometry":null},{"type":"Feature","id":"04531","properties":{"commune_code":"04531","commune_name":"Quy Mông","commune_name_en":"Quy Mong","commune_full_name":"Xã Quy Mông","commune_full_name_en":"Quy Mong Commune","commune_slug":"quy_mong","unit_type":"Xã","unit_type_en":"Commune","admin_level":2,"province_code":"15","province_name":"Lào Cai","province_full_name":"Tỉnh Lào Cai","province_slug":"lao_cai","join_key":"04531","status":"active","dataset_effective_date":"2026-04-30","catalog_version":"2026-07-12","geometry_status":"not_embedded_boundary_available_by_url","boundary_source_url":"https://raw.githubusercontent.com/thanglequoc/vietnamese-provinces-database/master/json/geojson/15_lao_cai/wards/04531_quy_mong.geojson","boundary_source_page":"https://github.com/thanglequoc/vietnamese-provinces-database/blob/master/json/geojson/15_lao_cai/wards/04531_quy_mong.geojson","source_catalog":"https://github.com/thanglequoc/vietnamese-provinces-database"},"geometry":null},{"type":"Feature","id":"04537","properties":{"commune_code":"04537","commune_name":"Lương Thịnh","commune_name_en":"Luong Thinh","commune_full_name":"Xã Lương Thịnh","commune_full_name_en":"Luong Thinh Commune","commune_slug":"luong_thinh","unit_type":"Xã","unit_type_en":"Commune","admin_level":2,"province_code":"15","province_name":"Lào Cai","province_full_name":"Tỉnh Lào Cai","province_slug":"lao_cai","join_key":"04537","status":"active","dataset_effective_date":"2026-04-30","catalog_version":"2026-07-12","geometry_status":"not_embedded_boundary_available_by_url","boundary_source_url":"https://raw.githubusercontent.com/thanglequoc/vietnamese-provinces-database/master/json/geojson/15_lao_cai/wards/04537_luong_thinh.geojson","boundary_source_page":"https://github.com/thanglequoc/vietnamese-provinces-database/blob/master/json/geojson/15_lao_cai/wards/04537_luong_thinh.geojson","source_catalog":"https://github.com/thanglequoc/vietnamese-provinces-database"},"geometry":null},{"type":"Feature","id":"04543","properties":{"commune_code":"04543","commune_name":"Âu Lâu","commune_name_en":"Au Lau","commune_full_name":"Phường Âu Lâu","commune_full_name_en":"Au Lau Ward","commune_slug":"au_lau","unit_type":"Phường","unit_type_en":"Ward","admin_level":2,"province_code":"15","province_name":"Lào Cai","province_full_name":"Tỉnh Lào Cai","province_slug":"lao_cai","join_key":"04543","status":"active","dataset_effective_date":"2026-04-30","catalog_version":"2026-07-12","geometry_status":"not_embedded_boundary_available_by_url","boundary_source_url":"https://raw.githubusercontent.com/thanglequoc/vietnamese-provinces-database/master/json/geojson/15_lao_cai/wards/04543_au_lau.geojson","boundary_source_page":"https://github.com/thanglequoc/vietnamese-provinces-database/blob/master/json/geojson/15_lao_cai/wards/04543_au_lau.geojson","source_catalog":"https://github.com/thanglequoc/vietnamese-provinces-database"},"geometry":null},{"type":"Feature","id":"04564","properties":{"commune_code":"04564","commune_name":"Việt Hồng","commune_name_en":"Viet Hong","commune_full_name":"Xã Việt Hồng","commune_full_name_en":"Viet Hong Commune","commune_slug":"viet_hong","unit_type":"Xã","unit_type_en":"Commune","admin_level":2,"province_code":"15","province_name":"Lào Cai","province_full_name":"Tỉnh Lào Cai","province_slug":"lao_cai","join_key":"04564","status":"active","dataset_effective_date":"2026-04-30","catalog_version":"2026-07-12","geometry_status":"not_embedded_boundary_available_by_url","boundary_source_url":"https://raw.githubusercontent.com/thanglequoc/vietnamese-provinces-database/master/json/geojson/15_lao_cai/wards/04564_viet_hong.geojson","boundary_source_page":"https://github.com/thanglequoc/vietnamese-provinces-database/blob/master/json/geojson/15_lao_cai/wards/04564_viet_hong.geojson","source_catalog":"https://github.com/thanglequoc/vietnamese-provinces-database"},"geometry":null},{"type":"Feature","id":"04576","properties":{"commune_code":"04576","commune_name":"Hưng Khánh","commune_name_en":"Hung Khanh","commune_full_name":"Xã Hưng Khánh","commune_full_name_en":"Hung Khanh Commune","commune_slug":"hung_khanh","unit_type":"Xã","unit_type_en":"Commune","admin_level":2,"province_code":"15","province_name":"Lào Cai","province_full_name":"Tỉnh Lào Cai","province_slug":"lao_cai","join_key":"04576","status":"active","dataset_effective_date":"2026-04-30","catalog_version":"2026-07-12","geometry_status":"not_embedded_boundary_available_by_url","boundary_source_url":"https://raw.githubusercontent.com/thanglequoc/vietnamese-provinces-database/master/json/geojson/15_lao_cai/wards/04576_hung_khanh.geojson","boundary_source_page":"https://github.com/thanglequoc/vietnamese-provinces-database/blob/master/json/geojson/15_lao_cai/wards/04576_hung_khanh.geojson","source_catalog":"https://github.com/thanglequoc/vietnamese-provinces-database"},"geometry":null},{"type":"Feature","id":"04585","properties":{"commune_code":"04585","commune_name":"Hạnh Phúc","commune_name_en":"Hanh Phuc","commune_full_name":"Xã Hạnh Phúc","commune_full_name_en":"Hanh Phuc Commune","commune_slug":"hanh_phuc","unit_type":"Xã","unit_type_en":"Commune","admin_level":2,"province_code":"15","province_name":"Lào Cai","province_full_name":"Tỉnh Lào Cai","province_slug":"lao_cai","join_key":"04585","status":"active","dataset_effective_date":"2026-04-30","catalog_version":"2026-07-12","geometry_status":"not_embedded_boundary_available_by_url","boundary_source_url":"https://raw.githubusercontent.com/thanglequoc/vietnamese-provinces-database/master/json/geojson/15_lao_cai/wards/04585_hanh_phuc.geojson","boundary_source_page":"https://github.com/thanglequoc/vietnamese-provinces-database/blob/master/json/geojson/15_lao_cai/wards/04585_hanh_phuc.geojson","source_catalog":"https://github.com/thanglequoc/vietnamese-provinces-database"},"geometry":null},{"type":"Feature","id":"04603","properties":{"commune_code":"04603","commune_name":"Tà Xi Láng","commune_name_en":"Ta Xi Lang","commune_full_name":"Xã Tà Xi Láng","commune_full_name_en":"Ta Xi Lang Commune","commune_slug":"ta_xi_lang","unit_type":"Xã","unit_type_en":"Commune","admin_level":2,"province_code":"15","province_name":"Lào Cai","province_full_name":"Tỉnh Lào Cai","province_slug":"lao_cai","join_key":"04603","status":"active","dataset_effective_date":"2026-04-30","catalog_version":"2026-07-12","geometry_status":"not_embedded_boundary_available_by_url","boundary_source_url":"https://raw.githubusercontent.com/thanglequoc/vietnamese-provinces-database/master/json/geojson/15_lao_cai/wards/04603_ta_xi_lang.geojson","boundary_source_page":"https://github.com/thanglequoc/vietnamese-provinces-database/blob/master/json/geojson/15_lao_cai/wards/04603_ta_xi_lang.geojson","source_catalog":"https://github.com/thanglequoc/vietnamese-provinces-database"},"geometry":null},{"type":"Feature","id":"04606","properties":{"commune_code":"04606","commune_name":"Trạm Tấu","commune_name_en":"Tram Tau","commune_full_name":"Xã Trạm Tấu","commune_full_name_en":"Tram Tau Commune","commune_slug":"tram_tau","unit_type":"Xã","unit_type_en":"Commune","admin_level":2,"province_code":"15","province_name":"Lào Cai","province_full_name":"Tỉnh Lào Cai","province_slug":"lao_cai","join_key":"04606","status":"active","dataset_effective_date":"2026-04-30","catalog_version":"2026-07-12","geometry_status":"not_embedded_boundary_available_by_url","boundary_source_url":"https://raw.githubusercontent.com/thanglequoc/vietnamese-provinces-database/master/json/geojson/15_lao_cai/wards/04606_tram_tau.geojson","boundary_source_page":"https://github.com/thanglequoc/vietnamese-provinces-database/blob/master/json/geojson/15_lao_cai/wards/04606_tram_tau.geojson","source_catalog":"https://github.com/thanglequoc/vietnamese-provinces-database"},"geometry":null},{"type":"Feature","id":"04609","properties":{"commune_code":"04609","commune_name":"Phình Hồ","commune_name_en":"Phinh Ho","commune_full_name":"Xã Phình Hồ","commune_full_name_en":"Phinh Ho Commune","commune_slug":"phinh_ho","unit_type":"Xã","unit_type_en":"Commune","admin_level":2,"province_code":"15","province_name":"Lào Cai","province_full_name":"Tỉnh Lào Cai","province_slug":"lao_cai","join_key":"04609","status":"active","dataset_effective_date":"2026-04-30","catalog_version":"2026-07-12","geometry_status":"not_embedded_boundary_available_by_url","boundary_source_url":"https://raw.githubusercontent.com/thanglequoc/vietnamese-provinces-database/master/json/geojson/15_lao_cai/wards/04609_phinh_ho.geojson","boundary_source_page":"https://github.com/thanglequoc/vietnamese-provinces-database/blob/master/json/geojson/15_lao_cai/wards/04609_phinh_ho.geojson","source_catalog":"https://github.com/thanglequoc/vietnamese-provinces-database"},"geometry":null},{"type":"Feature","id":"04630","properties":{"commune_code":"04630","commune_name":"Tú Lệ","commune_name_en":"Tu Le","commune_full_name":"Xã Tú Lệ","commune_full_name_en":"Tu Le Commune","commune_slug":"tu_le","unit_type":"Xã","unit_type_en":"Commune","admin_level":2,"province_code":"15","province_name":"Lào Cai","province_full_name":"Tỉnh Lào Cai","province_slug":"lao_cai","join_key":"04630","status":"active","dataset_effective_date":"2026-04-30","catalog_version":"2026-07-12","geometry_status":"not_embedded_boundary_available_by_url","boundary_source_url":"https://raw.githubusercontent.com/thanglequoc/vietnamese-provinces-database/master/json/geojson/15_lao_cai/wards/04630_tu_le.geojson","boundary_source_page":"https://github.com/thanglequoc/vietnamese-provinces-database/blob/master/json/geojson/15_lao_cai/wards/04630_tu_le.geojson","source_catalog":"https://github.com/thanglequoc/vietnamese-provinces-database"},"geometry":null},{"type":"Feature","id":"04636","properties":{"commune_code":"04636","commune_name":"Gia Hội","commune_name_en":"Gia Hoi","commune_full_name":"Xã Gia Hội","commune_full_name_en":"Gia Hoi Commune","commune_slug":"gia_hoi","unit_type":"Xã","unit_type_en":"Commune","admin_level":2,"province_code":"15","province_name":"Lào Cai","province_full_name":"Tỉnh Lào Cai","province_slug":"lao_cai","join_key":"04636","status":"active","dataset_effective_date":"2026-04-30","catalog_version":"2026-07-12","geometry_status":"not_embedded_boundary_available_by_url","boundary_source_url":"https://raw.githubusercontent.com/thanglequoc/vietnamese-provinces-database/master/json/geojson/15_lao_cai/wards/04636_gia_hoi.geojson","boundary_source_page":"https://github.com/thanglequoc/vietnamese-provinces-database/blob/master/json/geojson/15_lao_cai/wards/04636_gia_hoi.geojson","source_catalog":"https://github.com/thanglequoc/vietnamese-provinces-database"},"geometry":null},{"type":"Feature","id":"04651","properties":{"commune_code":"04651","commune_name":"Sơn Lương","commune_name_en":"Son Luong","commune_full_name":"Xã Sơn Lương","commune_full_name_en":"Son Luong Commune","commune_slug":"son_luong","unit_type":"Xã","unit_type_en":"Commune","admin_level":2,"province_code":"15","province_name":"Lào Cai","province_full_name":"Tỉnh Lào Cai","province_slug":"lao_cai","join_key":"04651","status":"active","dataset_effective_date":"2026-04-30","catalog_version":"2026-07-12","geometry_status":"not_embedded_boundary_available_by_url","boundary_source_url":"https://raw.githubusercontent.com/thanglequoc/vietnamese-provinces-database/master/json/geojson/15_lao_cai/wards/04651_son_luong.geojson","boundary_source_page":"https://github.com/thanglequoc/vietnamese-provinces-database/blob/master/json/geojson/15_lao_cai/wards/04651_son_luong.geojson","source_catalog":"https://github.com/thanglequoc/vietnamese-provinces-database"},"geometry":null},{"type":"Feature","id":"04660","properties":{"commune_code":"04660","commune_name":"Liên Sơn","commune_name_en":"Lien Son","commune_full_name":"Xã Liên Sơn","commune_full_name_en":"Lien Son Commune","commune_slug":"lien_son","unit_type":"Xã","unit_type_en":"Commune","admin_level":2,"province_code":"15","province_name":"Lào Cai","province_full_name":"Tỉnh Lào Cai","province_slug":"lao_cai","join_key":"04660","status":"active","dataset_effective_date":"2026-04-30","catalog_version":"2026-07-12","geometry_status":"not_embedded_boundary_available_by_url","boundary_source_url":"https://raw.githubusercontent.com/thanglequoc/vietnamese-provinces-database/master/json/geojson/15_lao_cai/wards/04660_lien_son.geojson","boundary_source_page":"https://github.com/thanglequoc/vietnamese-provinces-database/blob/master/json/geojson/15_lao_cai/wards/04660_lien_son.geojson","source_catalog":"https://github.com/thanglequoc/vietnamese-provinces-database"},"geometry":null},{"type":"Feature","id":"04663","properties":{"commune_code":"04663","commune_name":"Trung Tâm","commune_name_en":"Trung Tam","commune_full_name":"Phường Trung Tâm","commune_full_name_en":"Trung Tam Ward","commune_slug":"trung_tam","unit_type":"Phường","unit_type_en":"Ward","admin_level":2,"province_code":"15","province_name":"Lào Cai","province_full_name":"Tỉnh Lào Cai","province_slug":"lao_cai","join_key":"04663","status":"active","dataset_effective_date":"2026-04-30","catalog_version":"2026-07-12","geometry_status":"not_embedded_boundary_available_by_url","boundary_source_url":"https://raw.githubusercontent.com/thanglequoc/vietnamese-provinces-database/master/json/geojson/15_lao_cai/wards/04663_trung_tam.geojson","boundary_source_page":"https://github.com/thanglequoc/vietnamese-provinces-database/blob/master/json/geojson/15_lao_cai/wards/04663_trung_tam.geojson","source_catalog":"https://github.com/thanglequoc/vietnamese-provinces-database"},"geometry":null},{"type":"Feature","id":"04672","properties":{"commune_code":"04672","commune_name":"Văn Chấn","commune_name_en":"Van Chan","commune_full_name":"Xã Văn Chấn","commune_full_name_en":"Van Chan Commune","commune_slug":"van_chan","unit_type":"Xã","unit_type_en":"Commune","admin_level":2,"province_code":"15","province_name":"Lào Cai","province_full_name":"Tỉnh Lào Cai","province_slug":"lao_cai","join_key":"04672","status":"active","dataset_effective_date":"2026-04-30","catalog_version":"2026-07-12","geometry_status":"not_embedded_boundary_available_by_url","boundary_source_url":"https://raw.githubusercontent.com/thanglequoc/vietnamese-provinces-database/master/json/geojson/15_lao_cai/wards/04672_van_chan.geojson","boundary_source_page":"https://github.com/thanglequoc/vietnamese-provinces-database/blob/master/json/geojson/15_lao_cai/wards/04672_van_chan.geojson","source_catalog":"https://github.com/thanglequoc/vietnamese-provinces-database"},"geometry":null},{"type":"Feature","id":"04681","properties":{"commune_code":"04681","commune_name":"Cầu Thia","commune_name_en":"Cau Thia","commune_full_name":"Phường Cầu Thia","commune_full_name_en":"Cau Thia Ward","commune_slug":"cau_thia","unit_type":"Phường","unit_type_en":"Ward","admin_level":2,"province_code":"15","province_name":"Lào Cai","province_full_name":"Tỉnh Lào Cai","province_slug":"lao_cai","join_key":"04681","status":"active","dataset_effective_date":"2026-04-30","catalog_version":"2026-07-12","geometry_status":"not_embedded_boundary_available_by_url","boundary_source_url":"https://raw.githubusercontent.com/thanglequoc/vietnamese-provinces-database/master/json/geojson/15_lao_cai/wards/04681_cau_thia.geojson","boundary_source_page":"https://github.com/thanglequoc/vietnamese-provinces-database/blob/master/json/geojson/15_lao_cai/wards/04681_cau_thia.geojson","source_catalog":"https://github.com/thanglequoc/vietnamese-provinces-database"},"geometry":null},{"type":"Feature","id":"04693","properties":{"commune_code":"04693","commune_name":"Cát Thịnh","commune_name_en":"Cat Thinh","commune_full_name":"Xã Cát Thịnh","commune_full_name_en":"Cat Thinh Commune","commune_slug":"cat_thinh","unit_type":"Xã","unit_type_en":"Commune","admin_level":2,"province_code":"15","province_name":"Lào Cai","province_full_name":"Tỉnh Lào Cai","province_slug":"lao_cai","join_key":"04693","status":"active","dataset_effective_date":"2026-04-30","catalog_version":"2026-07-12","geometry_status":"not_embedded_boundary_available_by_url","boundary_source_url":"https://raw.githubusercontent.com/thanglequoc/vietnamese-provinces-database/master/json/geojson/15_lao_cai/wards/04693_cat_thinh.geojson","boundary_source_page":"https://github.com/thanglequoc/vietnamese-provinces-database/blob/master/json/geojson/15_lao_cai/wards/04693_cat_thinh.geojson","source_catalog":"https://github.com/thanglequoc/vietnamese-provinces-database"},"geometry":null},{"type":"Feature","id":"04699","properties":{"commune_code":"04699","commune_name":"Chấn Thịnh","commune_name_en":"Chan Thinh","commune_full_name":"Xã Chấn Thịnh","commune_full_name_en":"Chan Thinh Commune","commune_slug":"chan_thinh","unit_type":"Xã","unit_type_en":"Commune","admin_level":2,"province_code":"15","province_name":"Lào Cai","province_full_name":"Tỉnh Lào Cai","province_slug":"lao_cai","join_key":"04699","status":"active","dataset_effective_date":"2026-04-30","catalog_version":"2026-07-12","geometry_status":"not_embedded_boundary_available_by_url","boundary_source_url":"https://raw.githubusercontent.com/thanglequoc/vietnamese-provinces-database/master/json/geojson/15_lao_cai/wards/04699_chan_thinh.geojson","boundary_source_page":"https://github.com/thanglequoc/vietnamese-provinces-database/blob/master/json/geojson/15_lao_cai/wards/04699_chan_thinh.geojson","source_catalog":"https://github.com/thanglequoc/vietnamese-provinces-database"},"geometry":null},{"type":"Feature","id":"04705","properties":{"commune_code":"04705","commune_name":"Thượng Bằng La","commune_name_en":"Thuong Bang La","commune_full_name":"Xã Thượng Bằng La","commune_full_name_en":"Thuong Bang La Commune","commune_slug":"thuong_bang_la","unit_type":"Xã","unit_type_en":"Commune","admin_level":2,"province_code":"15","province_name":"Lào Cai","province_full_name":"Tỉnh Lào Cai","province_slug":"lao_cai","join_key":"04705","status":"active","dataset_effective_date":"2026-04-30","catalog_version":"2026-07-12","geometry_status":"not_embedded_boundary_available_by_url","boundary_source_url":"https://raw.githubusercontent.com/thanglequoc/vietnamese-provinces-database/master/json/geojson/15_lao_cai/wards/04705_thuong_bang_la.geojson","boundary_source_page":"https://github.com/thanglequoc/vietnamese-provinces-database/blob/master/json/geojson/15_lao_cai/wards/04705_thuong_bang_la.geojson","source_catalog":"https://github.com/thanglequoc/vietnamese-provinces-database"},"geometry":null},{"type":"Feature","id":"04711","properties":{"commune_code":"04711","commune_name":"Nghĩa Tâm","commune_name_en":"Nghia Tam","commune_full_name":"Xã Nghĩa Tâm","commune_full_name_en":"Nghia Tam Commune","commune_slug":"nghia_tam","unit_type":"Xã","unit_type_en":"Commune","admin_level":2,"province_code":"15","province_name":"Lào Cai","province_full_name":"Tỉnh Lào Cai","province_slug":"lao_cai","join_key":"04711","status":"active","dataset_effective_date":"2026-04-30","catalog_version":"2026-07-12","geometry_status":"not_embedded_boundary_available_by_url","boundary_source_url":"https://raw.githubusercontent.com/thanglequoc/vietnamese-provinces-database/master/json/geojson/15_lao_cai/wards/04711_nghia_tam.geojson","boundary_source_page":"https://github.com/thanglequoc/vietnamese-provinces-database/blob/master/json/geojson/15_lao_cai/wards/04711_nghia_tam.geojson","source_catalog":"https://github.com/thanglequoc/vietnamese-provinces-database"},"geometry":null},{"type":"Feature","id":"04714","properties":{"commune_code":"04714","commune_name":"Yên Bình","commune_name_en":"Yen Binh","commune_full_name":"Xã Yên Bình","commune_full_name_en":"Yen Binh Commune","commune_slug":"yen_binh","unit_type":"Xã","unit_type_en":"Commune","admin_level":2,"province_code":"15","province_name":"Lào Cai","province_full_name":"Tỉnh Lào Cai","province_slug":"lao_cai","join_key":"04714","status":"active","dataset_effective_date":"2026-04-30","catalog_version":"2026-07-12","geometry_status":"not_embedded_boundary_available_by_url","boundary_source_url":"https://raw.githubusercontent.com/thanglequoc/vietnamese-provinces-database/master/json/geojson/15_lao_cai/wards/04714_yen_binh.geojson","boundary_source_page":"https://github.com/thanglequoc/vietnamese-provinces-database/blob/master/json/geojson/15_lao_cai/wards/04714_yen_binh.geojson","source_catalog":"https://github.com/thanglequoc/vietnamese-provinces-database"},"geometry":null},{"type":"Feature","id":"04717","properties":{"commune_code":"04717","commune_name":"Thác Bà","commune_name_en":"Thac Ba","commune_full_name":"Xã Thác Bà","commune_full_name_en":"Thac Ba Commune","commune_slug":"thac_ba","unit_type":"Xã","unit_type_en":"Commune","admin_level":2,"province_code":"15","province_name":"Lào Cai","province_full_name":"Tỉnh Lào Cai","province_slug":"lao_cai","join_key":"04717","status":"active","dataset_effective_date":"2026-04-30","catalog_version":"2026-07-12","geometry_status":"not_embedded_boundary_available_by_url","boundary_source_url":"https://raw.githubusercontent.com/thanglequoc/vietnamese-provinces-database/master/json/geojson/15_lao_cai/wards/04717_thac_ba.geojson","boundary_source_page":"https://github.com/thanglequoc/vietnamese-provinces-database/blob/master/json/geojson/15_lao_cai/wards/04717_thac_ba.geojson","source_catalog":"https://github.com/thanglequoc/vietnamese-provinces-database"},"geometry":null},{"type":"Feature","id":"04726","properties":{"commune_code":"04726","commune_name":"Cảm Nhân","commune_name_en":"Cam Nhan","commune_full_name":"Xã Cảm Nhân","commune_full_name_en":"Cam Nhan Commune","commune_slug":"cam_nhan","unit_type":"Xã","unit_type_en":"Commune","admin_level":2,"province_code":"15","province_name":"Lào Cai","province_full_name":"Tỉnh Lào Cai","province_slug":"lao_cai","join_key":"04726","status":"active","dataset_effective_date":"2026-04-30","catalog_version":"2026-07-12","geometry_status":"not_embedded_boundary_available_by_url","boundary_source_url":"https://raw.githubusercontent.com/thanglequoc/vietnamese-provinces-database/master/json/geojson/15_lao_cai/wards/04726_cam_nhan.geojson","boundary_source_page":"https://github.com/thanglequoc/vietnamese-provinces-database/blob/master/json/geojson/15_lao_cai/wards/04726_cam_nhan.geojson","source_catalog":"https://github.com/thanglequoc/vietnamese-provinces-database"},"geometry":null},{"type":"Feature","id":"04744","properties":{"commune_code":"04744","commune_name":"Yên Thành","commune_name_en":"Yen Thanh","commune_full_name":"Xã Yên Thành","commune_full_name_en":"Yen Thanh Commune","commune_slug":"yen_thanh","unit_type":"Xã","unit_type_en":"Commune","admin_level":2,"province_code":"15","province_name":"Lào Cai","province_full_name":"Tỉnh Lào Cai","province_slug":"lao_cai","join_key":"04744","status":"active","dataset_effective_date":"2026-04-30","catalog_version":"2026-07-12","geometry_status":"not_embedded_boundary_available_by_url","boundary_source_url":"https://raw.githubusercontent.com/thanglequoc/vietnamese-provinces-database/master/json/geojson/15_lao_cai/wards/04744_yen_thanh.geojson","boundary_source_page":"https://github.com/thanglequoc/vietnamese-provinces-database/blob/master/json/geojson/15_lao_cai/wards/04744_yen_thanh.geojson","source_catalog":"https://github.com/thanglequoc/vietnamese-provinces-database"},"geometry":null},{"type":"Feature","id":"04750","properties":{"commune_code":"04750","commune_name":"Bảo Ái","commune_name_en":"Bao Ai","commune_full_name":"Xã Bảo Ái","commune_full_name_en":"Bao Ai Commune","commune_slug":"bao_ai","unit_type":"Xã","unit_type_en":"Commune","admin_level":2,"province_code":"15","province_name":"Lào Cai","province_full_name":"Tỉnh Lào Cai","province_slug":"lao_cai","join_key":"04750","status":"active","dataset_effective_date":"2026-04-30","catalog_version":"2026-07-12","geometry_status":"not_embedded_boundary_available_by_url","boundary_source_url":"https://raw.githubusercontent.com/thanglequoc/vietnamese-provinces-database/master/json/geojson/15_lao_cai/wards/04750_bao_ai.geojson","boundary_source_page":"https://github.com/thanglequoc/vietnamese-provinces-database/blob/master/json/geojson/15_lao_cai/wards/04750_bao_ai.geojson","source_catalog":"https://github.com/thanglequoc/vietnamese-provinces-database"},"geometry":null}]}