{"type":"FeatureCollection","name":"19_thai_nguyen_communes_attributes","metadata":{"province_code":"19","province_name":"Thái Nguyên","feature_count":92,"geometry":null,"join_key":"commune_code"},"features":[{"type":"Feature","id":"01840","properties":{"commune_code":"01840","commune_name":"Đức Xuân","commune_name_en":"Duc Xuan","commune_full_name":"Phường Đức Xuân","commune_full_name_en":"Duc Xuan Ward","commune_slug":"duc_xuan","unit_type":"Phường","unit_type_en":"Ward","admin_level":2,"province_code":"19","province_name":"Thái Nguyên","province_full_name":"Tỉnh Thái Nguyên","province_slug":"thai_nguyen","join_key":"01840","status":"active","dataset_effective_date":"2026-04-30","catalog_version":"2026-07-12","geometry_status":"not_embedded_boundary_available_by_url","boundary_source_url":"https://raw.githubusercontent.com/thanglequoc/vietnamese-provinces-database/master/json/geojson/19_thai_nguyen/wards/01840_duc_xuan.geojson","boundary_source_page":"https://github.com/thanglequoc/vietnamese-provinces-database/blob/master/json/geojson/19_thai_nguyen/wards/01840_duc_xuan.geojson","source_catalog":"https://github.com/thanglequoc/vietnamese-provinces-database"},"geometry":null},{"type":"Feature","id":"01843","properties":{"commune_code":"01843","commune_name":"Bắc Kạn","commune_name_en":"Bac Kan","commune_full_name":"Phường Bắc Kạn","commune_full_name_en":"Bac Kan Ward","commune_slug":"bac_kan","unit_type":"Phường","unit_type_en":"Ward","admin_level":2,"province_code":"19","province_name":"Thái Nguyên","province_full_name":"Tỉnh Thái Nguyên","province_slug":"thai_nguyen","join_key":"01843","status":"active","dataset_effective_date":"2026-04-30","catalog_version":"2026-07-12","geometry_status":"not_embedded_boundary_available_by_url","boundary_source_url":"https://raw.githubusercontent.com/thanglequoc/vietnamese-provinces-database/master/json/geojson/19_thai_nguyen/wards/01843_bac_kan.geojson","boundary_source_page":"https://github.com/thanglequoc/vietnamese-provinces-database/blob/master/json/geojson/19_thai_nguyen/wards/01843_bac_kan.geojson","source_catalog":"https://github.com/thanglequoc/vietnamese-provinces-database"},"geometry":null},{"type":"Feature","id":"01849","properties":{"commune_code":"01849","commune_name":"Phong Quang","commune_name_en":"Phong Quang","commune_full_name":"Xã Phong Quang","commune_full_name_en":"Phong Quang Commune","commune_slug":"phong_quang","unit_type":"Xã","unit_type_en":"Commune","admin_level":2,"province_code":"19","province_name":"Thái Nguyên","province_full_name":"Tỉnh Thái Nguyên","province_slug":"thai_nguyen","join_key":"01849","status":"active","dataset_effective_date":"2026-04-30","catalog_version":"2026-07-12","geometry_status":"not_embedded_boundary_available_by_url","boundary_source_url":"https://raw.githubusercontent.com/thanglequoc/vietnamese-provinces-database/master/json/geojson/19_thai_nguyen/wards/01849_phong_quang.geojson","boundary_source_page":"https://github.com/thanglequoc/vietnamese-provinces-database/blob/master/json/geojson/19_thai_nguyen/wards/01849_phong_quang.geojson","source_catalog":"https://github.com/thanglequoc/vietnamese-provinces-database"},"geometry":null},{"type":"Feature","id":"01864","properties":{"commune_code":"01864","commune_name":"Bằng Thành","commune_name_en":"Bang Thanh","commune_full_name":"Xã Bằng Thành","commune_full_name_en":"Bang Thanh Commune","commune_slug":"bang_thanh","unit_type":"Xã","unit_type_en":"Commune","admin_level":2,"province_code":"19","province_name":"Thái Nguyên","province_full_name":"Tỉnh Thái Nguyên","province_slug":"thai_nguyen","join_key":"01864","status":"active","dataset_effective_date":"2026-04-30","catalog_version":"2026-07-12","geometry_status":"not_embedded_boundary_available_by_url","boundary_source_url":"https://raw.githubusercontent.com/thanglequoc/vietnamese-provinces-database/master/json/geojson/19_thai_nguyen/wards/01864_bang_thanh.geojson","boundary_source_page":"https://github.com/thanglequoc/vietnamese-provinces-database/blob/master/json/geojson/19_thai_nguyen/wards/01864_bang_thanh.geojson","source_catalog":"https://github.com/thanglequoc/vietnamese-provinces-database"},"geometry":null},{"type":"Feature","id":"01879","properties":{"commune_code":"01879","commune_name":"Cao Minh","commune_name_en":"Cao Minh","commune_full_name":"Xã Cao Minh","commune_full_name_en":"Cao Minh Commune","commune_slug":"cao_minh","unit_type":"Xã","unit_type_en":"Commune","admin_level":2,"province_code":"19","province_name":"Thái Nguyên","province_full_name":"Tỉnh Thái Nguyên","province_slug":"thai_nguyen","join_key":"01879","status":"active","dataset_effective_date":"2026-04-30","catalog_version":"2026-07-12","geometry_status":"not_embedded_boundary_available_by_url","boundary_source_url":"https://raw.githubusercontent.com/thanglequoc/vietnamese-provinces-database/master/json/geojson/19_thai_nguyen/wards/01879_cao_minh.geojson","boundary_source_page":"https://github.com/thanglequoc/vietnamese-provinces-database/blob/master/json/geojson/19_thai_nguyen/wards/01879_cao_minh.geojson","source_catalog":"https://github.com/thanglequoc/vietnamese-provinces-database"},"geometry":null},{"type":"Feature","id":"01882","properties":{"commune_code":"01882","commune_name":"Nghiên Loan","commune_name_en":"Nghien Loan","commune_full_name":"Xã Nghiên Loan","commune_full_name_en":"Nghien Loan Commune","commune_slug":"nghien_loan","unit_type":"Xã","unit_type_en":"Commune","admin_level":2,"province_code":"19","province_name":"Thái Nguyên","province_full_name":"Tỉnh Thái Nguyên","province_slug":"thai_nguyen","join_key":"01882","status":"active","dataset_effective_date":"2026-04-30","catalog_version":"2026-07-12","geometry_status":"not_embedded_boundary_available_by_url","boundary_source_url":"https://raw.githubusercontent.com/thanglequoc/vietnamese-provinces-database/master/json/geojson/19_thai_nguyen/wards/01882_nghien_loan.geojson","boundary_source_page":"https://github.com/thanglequoc/vietnamese-provinces-database/blob/master/json/geojson/19_thai_nguyen/wards/01882_nghien_loan.geojson","source_catalog":"https://github.com/thanglequoc/vietnamese-provinces-database"},"geometry":null},{"type":"Feature","id":"01894","properties":{"commune_code":"01894","commune_name":"Phúc Lộc","commune_name_en":"Phuc Loc","commune_full_name":"Xã Phúc Lộc","commune_full_name_en":"Phuc Loc Commune","commune_slug":"phuc_loc","unit_type":"Xã","unit_type_en":"Commune","admin_level":2,"province_code":"19","province_name":"Thái Nguyên","province_full_name":"Tỉnh Thái Nguyên","province_slug":"thai_nguyen","join_key":"01894","status":"active","dataset_effective_date":"2026-04-30","catalog_version":"2026-07-12","geometry_status":"not_embedded_boundary_available_by_url","boundary_source_url":"https://raw.githubusercontent.com/thanglequoc/vietnamese-provinces-database/master/json/geojson/19_thai_nguyen/wards/01894_phuc_loc.geojson","boundary_source_page":"https://github.com/thanglequoc/vietnamese-provinces-database/blob/master/json/geojson/19_thai_nguyen/wards/01894_phuc_loc.geojson","source_catalog":"https://github.com/thanglequoc/vietnamese-provinces-database"},"geometry":null},{"type":"Feature","id":"01906","properties":{"commune_code":"01906","commune_name":"Ba Bể","commune_name_en":"Ba Be","commune_full_name":"Xã Ba Bể","commune_full_name_en":"Ba Be Commune","commune_slug":"ba_be","unit_type":"Xã","unit_type_en":"Commune","admin_level":2,"province_code":"19","province_name":"Thái Nguyên","province_full_name":"Tỉnh Thái Nguyên","province_slug":"thai_nguyen","join_key":"01906","status":"active","dataset_effective_date":"2026-04-30","catalog_version":"2026-07-12","geometry_status":"not_embedded_boundary_available_by_url","boundary_source_url":"https://raw.githubusercontent.com/thanglequoc/vietnamese-provinces-database/master/json/geojson/19_thai_nguyen/wards/01906_ba_be.geojson","boundary_source_page":"https://github.com/thanglequoc/vietnamese-provinces-database/blob/master/json/geojson/19_thai_nguyen/wards/01906_ba_be.geojson","source_catalog":"https://github.com/thanglequoc/vietnamese-provinces-database"},"geometry":null},{"type":"Feature","id":"01912","properties":{"commune_code":"01912","commune_name":"Chợ Rã","commune_name_en":"Cho Ra","commune_full_name":"Xã Chợ Rã","commune_full_name_en":"Cho Ra Commune","commune_slug":"cho_ra","unit_type":"Xã","unit_type_en":"Commune","admin_level":2,"province_code":"19","province_name":"Thái Nguyên","province_full_name":"Tỉnh Thái Nguyên","province_slug":"thai_nguyen","join_key":"01912","status":"active","dataset_effective_date":"2026-04-30","catalog_version":"2026-07-12","geometry_status":"not_embedded_boundary_available_by_url","boundary_source_url":"https://raw.githubusercontent.com/thanglequoc/vietnamese-provinces-database/master/json/geojson/19_thai_nguyen/wards/01912_cho_ra.geojson","boundary_source_page":"https://github.com/thanglequoc/vietnamese-provinces-database/blob/master/json/geojson/19_thai_nguyen/wards/01912_cho_ra.geojson","source_catalog":"https://github.com/thanglequoc/vietnamese-provinces-database"},"geometry":null},{"type":"Feature","id":"01921","properties":{"commune_code":"01921","commune_name":"Thượng Minh","commune_name_en":"Thuong Minh","commune_full_name":"Xã Thượng Minh","commune_full_name_en":"Thuong Minh Commune","commune_slug":"thuong_minh","unit_type":"Xã","unit_type_en":"Commune","admin_level":2,"province_code":"19","province_name":"Thái Nguyên","province_full_name":"Tỉnh Thái Nguyên","province_slug":"thai_nguyen","join_key":"01921","status":"active","dataset_effective_date":"2026-04-30","catalog_version":"2026-07-12","geometry_status":"not_embedded_boundary_available_by_url","boundary_source_url":"https://raw.githubusercontent.com/thanglequoc/vietnamese-provinces-database/master/json/geojson/19_thai_nguyen/wards/01921_thuong_minh.geojson","boundary_source_page":"https://github.com/thanglequoc/vietnamese-provinces-database/blob/master/json/geojson/19_thai_nguyen/wards/01921_thuong_minh.geojson","source_catalog":"https://github.com/thanglequoc/vietnamese-provinces-database"},"geometry":null},{"type":"Feature","id":"01933","properties":{"commune_code":"01933","commune_name":"Đồng Phúc","commune_name_en":"Dong Phuc","commune_full_name":"Xã Đồng Phúc","commune_full_name_en":"Dong Phuc Commune","commune_slug":"dong_phuc","unit_type":"Xã","unit_type_en":"Commune","admin_level":2,"province_code":"19","province_name":"Thái Nguyên","province_full_name":"Tỉnh Thái Nguyên","province_slug":"thai_nguyen","join_key":"01933","status":"active","dataset_effective_date":"2026-04-30","catalog_version":"2026-07-12","geometry_status":"not_embedded_boundary_available_by_url","boundary_source_url":"https://raw.githubusercontent.com/thanglequoc/vietnamese-provinces-database/master/json/geojson/19_thai_nguyen/wards/01933_dong_phuc.geojson","boundary_source_page":"https://github.com/thanglequoc/vietnamese-provinces-database/blob/master/json/geojson/19_thai_nguyen/wards/01933_dong_phuc.geojson","source_catalog":"https://github.com/thanglequoc/vietnamese-provinces-database"},"geometry":null},{"type":"Feature","id":"01936","properties":{"commune_code":"01936","commune_name":"Nà Phặc","commune_name_en":"Na Phac","commune_full_name":"Xã Nà Phặc","commune_full_name_en":"Na Phac Commune","commune_slug":"na_phac","unit_type":"Xã","unit_type_en":"Commune","admin_level":2,"province_code":"19","province_name":"Thái Nguyên","province_full_name":"Tỉnh Thái Nguyên","province_slug":"thai_nguyen","join_key":"01936","status":"active","dataset_effective_date":"2026-04-30","catalog_version":"2026-07-12","geometry_status":"not_embedded_boundary_available_by_url","boundary_source_url":"https://raw.githubusercontent.com/thanglequoc/vietnamese-provinces-database/master/json/geojson/19_thai_nguyen/wards/01936_na_phac.geojson","boundary_source_page":"https://github.com/thanglequoc/vietnamese-provinces-database/blob/master/json/geojson/19_thai_nguyen/wards/01936_na_phac.geojson","source_catalog":"https://github.com/thanglequoc/vietnamese-provinces-database"},"geometry":null},{"type":"Feature","id":"01942","properties":{"commune_code":"01942","commune_name":"Bằng Vân","commune_name_en":"Bang Van","commune_full_name":"Xã Bằng Vân","commune_full_name_en":"Bang Van Commune","commune_slug":"bang_van","unit_type":"Xã","unit_type_en":"Commune","admin_level":2,"province_code":"19","province_name":"Thái Nguyên","province_full_name":"Tỉnh Thái Nguyên","province_slug":"thai_nguyen","join_key":"01942","status":"active","dataset_effective_date":"2026-04-30","catalog_version":"2026-07-12","geometry_status":"not_embedded_boundary_available_by_url","boundary_source_url":"https://raw.githubusercontent.com/thanglequoc/vietnamese-provinces-database/master/json/geojson/19_thai_nguyen/wards/01942_bang_van.geojson","boundary_source_page":"https://github.com/thanglequoc/vietnamese-provinces-database/blob/master/json/geojson/19_thai_nguyen/wards/01942_bang_van.geojson","source_catalog":"https://github.com/thanglequoc/vietnamese-provinces-database"},"geometry":null},{"type":"Feature","id":"01954","properties":{"commune_code":"01954","commune_name":"Ngân Sơn","commune_name_en":"Ngan Son","commune_full_name":"Xã Ngân Sơn","commune_full_name_en":"Ngan Son Commune","commune_slug":"ngan_son","unit_type":"Xã","unit_type_en":"Commune","admin_level":2,"province_code":"19","province_name":"Thái Nguyên","province_full_name":"Tỉnh Thái Nguyên","province_slug":"thai_nguyen","join_key":"01954","status":"active","dataset_effective_date":"2026-04-30","catalog_version":"2026-07-12","geometry_status":"not_embedded_boundary_available_by_url","boundary_source_url":"https://raw.githubusercontent.com/thanglequoc/vietnamese-provinces-database/master/json/geojson/19_thai_nguyen/wards/01954_ngan_son.geojson","boundary_source_page":"https://github.com/thanglequoc/vietnamese-provinces-database/blob/master/json/geojson/19_thai_nguyen/wards/01954_ngan_son.geojson","source_catalog":"https://github.com/thanglequoc/vietnamese-provinces-database"},"geometry":null},{"type":"Feature","id":"01957","properties":{"commune_code":"01957","commune_name":"Thượng Quan","commune_name_en":"Thuong Quan","commune_full_name":"Xã Thượng Quan","commune_full_name_en":"Thuong Quan Commune","commune_slug":"thuong_quan","unit_type":"Xã","unit_type_en":"Commune","admin_level":2,"province_code":"19","province_name":"Thái Nguyên","province_full_name":"Tỉnh Thái Nguyên","province_slug":"thai_nguyen","join_key":"01957","status":"active","dataset_effective_date":"2026-04-30","catalog_version":"2026-07-12","geometry_status":"not_embedded_boundary_available_by_url","boundary_source_url":"https://raw.githubusercontent.com/thanglequoc/vietnamese-provinces-database/master/json/geojson/19_thai_nguyen/wards/01957_thuong_quan.geojson","boundary_source_page":"https://github.com/thanglequoc/vietnamese-provinces-database/blob/master/json/geojson/19_thai_nguyen/wards/01957_thuong_quan.geojson","source_catalog":"https://github.com/thanglequoc/vietnamese-provinces-database"},"geometry":null},{"type":"Feature","id":"01960","properties":{"commune_code":"01960","commune_name":"Hiệp Lực","commune_name_en":"Hiep Luc","commune_full_name":"Xã Hiệp Lực","commune_full_name_en":"Hiep Luc Commune","commune_slug":"hiep_luc","unit_type":"Xã","unit_type_en":"Commune","admin_level":2,"province_code":"19","province_name":"Thái Nguyên","province_full_name":"Tỉnh Thái Nguyên","province_slug":"thai_nguyen","join_key":"01960","status":"active","dataset_effective_date":"2026-04-30","catalog_version":"2026-07-12","geometry_status":"not_embedded_boundary_available_by_url","boundary_source_url":"https://raw.githubusercontent.com/thanglequoc/vietnamese-provinces-database/master/json/geojson/19_thai_nguyen/wards/01960_hiep_luc.geojson","boundary_source_page":"https://github.com/thanglequoc/vietnamese-provinces-database/blob/master/json/geojson/19_thai_nguyen/wards/01960_hiep_luc.geojson","source_catalog":"https://github.com/thanglequoc/vietnamese-provinces-database"},"geometry":null},{"type":"Feature","id":"01969","properties":{"commune_code":"01969","commune_name":"Phủ Thông","commune_name_en":"Phu Thong","commune_full_name":"Xã Phủ Thông","commune_full_name_en":"Phu Thong Commune","commune_slug":"phu_thong","unit_type":"Xã","unit_type_en":"Commune","admin_level":2,"province_code":"19","province_name":"Thái Nguyên","province_full_name":"Tỉnh Thái Nguyên","province_slug":"thai_nguyen","join_key":"01969","status":"active","dataset_effective_date":"2026-04-30","catalog_version":"2026-07-12","geometry_status":"not_embedded_boundary_available_by_url","boundary_source_url":"https://raw.githubusercontent.com/thanglequoc/vietnamese-provinces-database/master/json/geojson/19_thai_nguyen/wards/01969_phu_thong.geojson","boundary_source_page":"https://github.com/thanglequoc/vietnamese-provinces-database/blob/master/json/geojson/19_thai_nguyen/wards/01969_phu_thong.geojson","source_catalog":"https://github.com/thanglequoc/vietnamese-provinces-database"},"geometry":null},{"type":"Feature","id":"01981","properties":{"commune_code":"01981","commune_name":"Vĩnh Thông","commune_name_en":"Vinh Thong","commune_full_name":"Xã Vĩnh Thông","commune_full_name_en":"Vinh Thong Commune","commune_slug":"vinh_thong","unit_type":"Xã","unit_type_en":"Commune","admin_level":2,"province_code":"19","province_name":"Thái Nguyên","province_full_name":"Tỉnh Thái Nguyên","province_slug":"thai_nguyen","join_key":"01981","status":"active","dataset_effective_date":"2026-04-30","catalog_version":"2026-07-12","geometry_status":"not_embedded_boundary_available_by_url","boundary_source_url":"https://raw.githubusercontent.com/thanglequoc/vietnamese-provinces-database/master/json/geojson/19_thai_nguyen/wards/01981_vinh_thong.geojson","boundary_source_page":"https://github.com/thanglequoc/vietnamese-provinces-database/blob/master/json/geojson/19_thai_nguyen/wards/01981_vinh_thong.geojson","source_catalog":"https://github.com/thanglequoc/vietnamese-provinces-database"},"geometry":null},{"type":"Feature","id":"02008","properties":{"commune_code":"02008","commune_name":"Cẩm Giàng","commune_name_en":"Cam Giang","commune_full_name":"Xã Cẩm Giàng","commune_full_name_en":"Cam Giang Commune","commune_slug":"cam_giang","unit_type":"Xã","unit_type_en":"Commune","admin_level":2,"province_code":"19","province_name":"Thái Nguyên","province_full_name":"Tỉnh Thái Nguyên","province_slug":"thai_nguyen","join_key":"02008","status":"active","dataset_effective_date":"2026-04-30","catalog_version":"2026-07-12","geometry_status":"not_embedded_boundary_available_by_url","boundary_source_url":"https://raw.githubusercontent.com/thanglequoc/vietnamese-provinces-database/master/json/geojson/19_thai_nguyen/wards/02008_cam_giang.geojson","boundary_source_page":"https://github.com/thanglequoc/vietnamese-provinces-database/blob/master/json/geojson/19_thai_nguyen/wards/02008_cam_giang.geojson","source_catalog":"https://github.com/thanglequoc/vietnamese-provinces-database"},"geometry":null},{"type":"Feature","id":"02014","properties":{"commune_code":"02014","commune_name":"Bạch Thông","commune_name_en":"Bach Thong","commune_full_name":"Xã Bạch Thông","commune_full_name_en":"Bach Thong Commune","commune_slug":"bach_thong","unit_type":"Xã","unit_type_en":"Commune","admin_level":2,"province_code":"19","province_name":"Thái Nguyên","province_full_name":"Tỉnh Thái Nguyên","province_slug":"thai_nguyen","join_key":"02014","status":"active","dataset_effective_date":"2026-04-30","catalog_version":"2026-07-12","geometry_status":"not_embedded_boundary_available_by_url","boundary_source_url":"https://raw.githubusercontent.com/thanglequoc/vietnamese-provinces-database/master/json/geojson/19_thai_nguyen/wards/02014_bach_thong.geojson","boundary_source_page":"https://github.com/thanglequoc/vietnamese-provinces-database/blob/master/json/geojson/19_thai_nguyen/wards/02014_bach_thong.geojson","source_catalog":"https://github.com/thanglequoc/vietnamese-provinces-database"},"geometry":null},{"type":"Feature","id":"02020","properties":{"commune_code":"02020","commune_name":"Chợ Đồn","commune_name_en":"Cho Don","commune_full_name":"Xã Chợ Đồn","commune_full_name_en":"Cho Don Commune","commune_slug":"cho_don","unit_type":"Xã","unit_type_en":"Commune","admin_level":2,"province_code":"19","province_name":"Thái Nguyên","province_full_name":"Tỉnh Thái Nguyên","province_slug":"thai_nguyen","join_key":"02020","status":"active","dataset_effective_date":"2026-04-30","catalog_version":"2026-07-12","geometry_status":"not_embedded_boundary_available_by_url","boundary_source_url":"https://raw.githubusercontent.com/thanglequoc/vietnamese-provinces-database/master/json/geojson/19_thai_nguyen/wards/02020_cho_don.geojson","boundary_source_page":"https://github.com/thanglequoc/vietnamese-provinces-database/blob/master/json/geojson/19_thai_nguyen/wards/02020_cho_don.geojson","source_catalog":"https://github.com/thanglequoc/vietnamese-provinces-database"},"geometry":null},{"type":"Feature","id":"02026","properties":{"commune_code":"02026","commune_name":"Nam Cường","commune_name_en":"Nam Cuong","commune_full_name":"Xã Nam Cường","commune_full_name_en":"Nam Cuong Commune","commune_slug":"nam_cuong","unit_type":"Xã","unit_type_en":"Commune","admin_level":2,"province_code":"19","province_name":"Thái Nguyên","province_full_name":"Tỉnh Thái Nguyên","province_slug":"thai_nguyen","join_key":"02026","status":"active","dataset_effective_date":"2026-04-30","catalog_version":"2026-07-12","geometry_status":"not_embedded_boundary_available_by_url","boundary_source_url":"https://raw.githubusercontent.com/thanglequoc/vietnamese-provinces-database/master/json/geojson/19_thai_nguyen/wards/02026_nam_cuong.geojson","boundary_source_page":"https://github.com/thanglequoc/vietnamese-provinces-database/blob/master/json/geojson/19_thai_nguyen/wards/02026_nam_cuong.geojson","source_catalog":"https://github.com/thanglequoc/vietnamese-provinces-database"},"geometry":null},{"type":"Feature","id":"02038","properties":{"commune_code":"02038","commune_name":"Quảng Bạch","commune_name_en":"Quang Bach","commune_full_name":"Xã Quảng Bạch","commune_full_name_en":"Quang Bach Commune","commune_slug":"quang_bach","unit_type":"Xã","unit_type_en":"Commune","admin_level":2,"province_code":"19","province_name":"Thái Nguyên","province_full_name":"Tỉnh Thái Nguyên","province_slug":"thai_nguyen","join_key":"02038","status":"active","dataset_effective_date":"2026-04-30","catalog_version":"2026-07-12","geometry_status":"not_embedded_boundary_available_by_url","boundary_source_url":"https://raw.githubusercontent.com/thanglequoc/vietnamese-provinces-database/master/json/geojson/19_thai_nguyen/wards/02038_quang_bach.geojson","boundary_source_page":"https://github.com/thanglequoc/vietnamese-provinces-database/blob/master/json/geojson/19_thai_nguyen/wards/02038_quang_bach.geojson","source_catalog":"https://github.com/thanglequoc/vietnamese-provinces-database"},"geometry":null},{"type":"Feature","id":"02044","properties":{"commune_code":"02044","commune_name":"Yên Thịnh","commune_name_en":"Yen Thinh","commune_full_name":"Xã Yên Thịnh","commune_full_name_en":"Yen Thinh Commune","commune_slug":"yen_thinh","unit_type":"Xã","unit_type_en":"Commune","admin_level":2,"province_code":"19","province_name":"Thái Nguyên","province_full_name":"Tỉnh Thái Nguyên","province_slug":"thai_nguyen","join_key":"02044","status":"active","dataset_effective_date":"2026-04-30","catalog_version":"2026-07-12","geometry_status":"not_embedded_boundary_available_by_url","boundary_source_url":"https://raw.githubusercontent.com/thanglequoc/vietnamese-provinces-database/master/json/geojson/19_thai_nguyen/wards/02044_yen_thinh.geojson","boundary_source_page":"https://github.com/thanglequoc/vietnamese-provinces-database/blob/master/json/geojson/19_thai_nguyen/wards/02044_yen_thinh.geojson","source_catalog":"https://github.com/thanglequoc/vietnamese-provinces-database"},"geometry":null},{"type":"Feature","id":"02071","properties":{"commune_code":"02071","commune_name":"Nghĩa Tá","commune_name_en":"Nghia Ta","commune_full_name":"Xã Nghĩa Tá","commune_full_name_en":"Nghia Ta Commune","commune_slug":"nghia_ta","unit_type":"Xã","unit_type_en":"Commune","admin_level":2,"province_code":"19","province_name":"Thái Nguyên","province_full_name":"Tỉnh Thái Nguyên","province_slug":"thai_nguyen","join_key":"02071","status":"active","dataset_effective_date":"2026-04-30","catalog_version":"2026-07-12","geometry_status":"not_embedded_boundary_available_by_url","boundary_source_url":"https://raw.githubusercontent.com/thanglequoc/vietnamese-provinces-database/master/json/geojson/19_thai_nguyen/wards/02071_nghia_ta.geojson","boundary_source_page":"https://github.com/thanglequoc/vietnamese-provinces-database/blob/master/json/geojson/19_thai_nguyen/wards/02071_nghia_ta.geojson","source_catalog":"https://github.com/thanglequoc/vietnamese-provinces-database"},"geometry":null},{"type":"Feature","id":"02083","properties":{"commune_code":"02083","commune_name":"Yên Phong","commune_name_en":"Yen Phong","commune_full_name":"Xã Yên Phong","commune_full_name_en":"Yen Phong Commune","commune_slug":"yen_phong","unit_type":"Xã","unit_type_en":"Commune","admin_level":2,"province_code":"19","province_name":"Thái Nguyên","province_full_name":"Tỉnh Thái Nguyên","province_slug":"thai_nguyen","join_key":"02083","status":"active","dataset_effective_date":"2026-04-30","catalog_version":"2026-07-12","geometry_status":"not_embedded_boundary_available_by_url","boundary_source_url":"https://raw.githubusercontent.com/thanglequoc/vietnamese-provinces-database/master/json/geojson/19_thai_nguyen/wards/02083_yen_phong.geojson","boundary_source_page":"https://github.com/thanglequoc/vietnamese-provinces-database/blob/master/json/geojson/19_thai_nguyen/wards/02083_yen_phong.geojson","source_catalog":"https://github.com/thanglequoc/vietnamese-provinces-database"},"geometry":null},{"type":"Feature","id":"02086","properties":{"commune_code":"02086","commune_name":"Chợ Mới","commune_name_en":"Cho Moi","commune_full_name":"Xã Chợ Mới","commune_full_name_en":"Cho Moi Commune","commune_slug":"cho_moi","unit_type":"Xã","unit_type_en":"Commune","admin_level":2,"province_code":"19","province_name":"Thái Nguyên","province_full_name":"Tỉnh Thái Nguyên","province_slug":"thai_nguyen","join_key":"02086","status":"active","dataset_effective_date":"2026-04-30","catalog_version":"2026-07-12","geometry_status":"not_embedded_boundary_available_by_url","boundary_source_url":"https://raw.githubusercontent.com/thanglequoc/vietnamese-provinces-database/master/json/geojson/19_thai_nguyen/wards/02086_cho_moi.geojson","boundary_source_page":"https://github.com/thanglequoc/vietnamese-provinces-database/blob/master/json/geojson/19_thai_nguyen/wards/02086_cho_moi.geojson","source_catalog":"https://github.com/thanglequoc/vietnamese-provinces-database"},"geometry":null},{"type":"Feature","id":"02101","properties":{"commune_code":"02101","commune_name":"Thanh Mai","commune_name_en":"Thanh Mai","commune_full_name":"Xã Thanh Mai","commune_full_name_en":"Thanh Mai Commune","commune_slug":"thanh_mai","unit_type":"Xã","unit_type_en":"Commune","admin_level":2,"province_code":"19","province_name":"Thái Nguyên","province_full_name":"Tỉnh Thái Nguyên","province_slug":"thai_nguyen","join_key":"02101","status":"active","dataset_effective_date":"2026-04-30","catalog_version":"2026-07-12","geometry_status":"not_embedded_boundary_available_by_url","boundary_source_url":"https://raw.githubusercontent.com/thanglequoc/vietnamese-provinces-database/master/json/geojson/19_thai_nguyen/wards/02101_thanh_mai.geojson","boundary_source_page":"https://github.com/thanglequoc/vietnamese-provinces-database/blob/master/json/geojson/19_thai_nguyen/wards/02101_thanh_mai.geojson","source_catalog":"https://github.com/thanglequoc/vietnamese-provinces-database"},"geometry":null},{"type":"Feature","id":"02104","properties":{"commune_code":"02104","commune_name":"Tân Kỳ","commune_name_en":"Tan Ky","commune_full_name":"Xã Tân Kỳ","commune_full_name_en":"Tan Ky Commune","commune_slug":"tan_ky","unit_type":"Xã","unit_type_en":"Commune","admin_level":2,"province_code":"19","province_name":"Thái Nguyên","province_full_name":"Tỉnh Thái Nguyên","province_slug":"thai_nguyen","join_key":"02104","status":"active","dataset_effective_date":"2026-04-30","catalog_version":"2026-07-12","geometry_status":"not_embedded_boundary_available_by_url","boundary_source_url":"https://raw.githubusercontent.com/thanglequoc/vietnamese-provinces-database/master/json/geojson/19_thai_nguyen/wards/02104_tan_ky.geojson","boundary_source_page":"https://github.com/thanglequoc/vietnamese-provinces-database/blob/master/json/geojson/19_thai_nguyen/wards/02104_tan_ky.geojson","source_catalog":"https://github.com/thanglequoc/vietnamese-provinces-database"},"geometry":null},{"type":"Feature","id":"02107","properties":{"commune_code":"02107","commune_name":"Thanh Thịnh","commune_name_en":"Thanh Thinh","commune_full_name":"Xã Thanh Thịnh","commune_full_name_en":"Thanh Thinh Commune","commune_slug":"thanh_thinh","unit_type":"Xã","unit_type_en":"Commune","admin_level":2,"province_code":"19","province_name":"Thái Nguyên","province_full_name":"Tỉnh Thái Nguyên","province_slug":"thai_nguyen","join_key":"02107","status":"active","dataset_effective_date":"2026-04-30","catalog_version":"2026-07-12","geometry_status":"not_embedded_boundary_available_by_url","boundary_source_url":"https://raw.githubusercontent.com/thanglequoc/vietnamese-provinces-database/master/json/geojson/19_thai_nguyen/wards/02107_thanh_thinh.geojson","boundary_source_page":"https://github.com/thanglequoc/vietnamese-provinces-database/blob/master/json/geojson/19_thai_nguyen/wards/02107_thanh_thinh.geojson","source_catalog":"https://github.com/thanglequoc/vietnamese-provinces-database"},"geometry":null},{"type":"Feature","id":"02116","properties":{"commune_code":"02116","commune_name":"Yên Bình","commune_name_en":"Yen Binh","commune_full_name":"Xã Yên Bình","commune_full_name_en":"Yen Binh Commune","commune_slug":"yen_binh","unit_type":"Xã","unit_type_en":"Commune","admin_level":2,"province_code":"19","province_name":"Thái Nguyên","province_full_name":"Tỉnh Thái Nguyên","province_slug":"thai_nguyen","join_key":"02116","status":"active","dataset_effective_date":"2026-04-30","catalog_version":"2026-07-12","geometry_status":"not_embedded_boundary_available_by_url","boundary_source_url":"https://raw.githubusercontent.com/thanglequoc/vietnamese-provinces-database/master/json/geojson/19_thai_nguyen/wards/02116_yen_binh.geojson","boundary_source_page":"https://github.com/thanglequoc/vietnamese-provinces-database/blob/master/json/geojson/19_thai_nguyen/wards/02116_yen_binh.geojson","source_catalog":"https://github.com/thanglequoc/vietnamese-provinces-database"},"geometry":null},{"type":"Feature","id":"02143","properties":{"commune_code":"02143","commune_name":"Văn Lang","commune_name_en":"Van Lang","commune_full_name":"Xã Văn Lang","commune_full_name_en":"Van Lang Commune","commune_slug":"van_lang","unit_type":"Xã","unit_type_en":"Commune","admin_level":2,"province_code":"19","province_name":"Thái Nguyên","province_full_name":"Tỉnh Thái Nguyên","province_slug":"thai_nguyen","join_key":"02143","status":"active","dataset_effective_date":"2026-04-30","catalog_version":"2026-07-12","geometry_status":"not_embedded_boundary_available_by_url","boundary_source_url":"https://raw.githubusercontent.com/thanglequoc/vietnamese-provinces-database/master/json/geojson/19_thai_nguyen/wards/02143_van_lang.geojson","boundary_source_page":"https://github.com/thanglequoc/vietnamese-provinces-database/blob/master/json/geojson/19_thai_nguyen/wards/02143_van_lang.geojson","source_catalog":"https://github.com/thanglequoc/vietnamese-provinces-database"},"geometry":null},{"type":"Feature","id":"02152","properties":{"commune_code":"02152","commune_name":"Cường Lợi","commune_name_en":"Cuong Loi","commune_full_name":"Xã Cường Lợi","commune_full_name_en":"Cuong Loi Commune","commune_slug":"cuong_loi","unit_type":"Xã","unit_type_en":"Commune","admin_level":2,"province_code":"19","province_name":"Thái Nguyên","province_full_name":"Tỉnh Thái Nguyên","province_slug":"thai_nguyen","join_key":"02152","status":"active","dataset_effective_date":"2026-04-30","catalog_version":"2026-07-12","geometry_status":"not_embedded_boundary_available_by_url","boundary_source_url":"https://raw.githubusercontent.com/thanglequoc/vietnamese-provinces-database/master/json/geojson/19_thai_nguyen/wards/02152_cuong_loi.geojson","boundary_source_page":"https://github.com/thanglequoc/vietnamese-provinces-database/blob/master/json/geojson/19_thai_nguyen/wards/02152_cuong_loi.geojson","source_catalog":"https://github.com/thanglequoc/vietnamese-provinces-database"},"geometry":null},{"type":"Feature","id":"02155","properties":{"commune_code":"02155","commune_name":"Na Rì","commune_name_en":"Na Ri","commune_full_name":"Xã Na Rì","commune_full_name_en":"Na Ri Commune","commune_slug":"na_ri","unit_type":"Xã","unit_type_en":"Commune","admin_level":2,"province_code":"19","province_name":"Thái Nguyên","province_full_name":"Tỉnh Thái Nguyên","province_slug":"thai_nguyen","join_key":"02155","status":"active","dataset_effective_date":"2026-04-30","catalog_version":"2026-07-12","geometry_status":"not_embedded_boundary_available_by_url","boundary_source_url":"https://raw.githubusercontent.com/thanglequoc/vietnamese-provinces-database/master/json/geojson/19_thai_nguyen/wards/02155_na_ri.geojson","boundary_source_page":"https://github.com/thanglequoc/vietnamese-provinces-database/blob/master/json/geojson/19_thai_nguyen/wards/02155_na_ri.geojson","source_catalog":"https://github.com/thanglequoc/vietnamese-provinces-database"},"geometry":null},{"type":"Feature","id":"02176","properties":{"commune_code":"02176","commune_name":"Trần Phú","commune_name_en":"Tran Phu","commune_full_name":"Xã Trần Phú","commune_full_name_en":"Tran Phu Commune","commune_slug":"tran_phu","unit_type":"Xã","unit_type_en":"Commune","admin_level":2,"province_code":"19","province_name":"Thái Nguyên","province_full_name":"Tỉnh Thái Nguyên","province_slug":"thai_nguyen","join_key":"02176","status":"active","dataset_effective_date":"2026-04-30","catalog_version":"2026-07-12","geometry_status":"not_embedded_boundary_available_by_url","boundary_source_url":"https://raw.githubusercontent.com/thanglequoc/vietnamese-provinces-database/master/json/geojson/19_thai_nguyen/wards/02176_tran_phu.geojson","boundary_source_page":"https://github.com/thanglequoc/vietnamese-provinces-database/blob/master/json/geojson/19_thai_nguyen/wards/02176_tran_phu.geojson","source_catalog":"https://github.com/thanglequoc/vietnamese-provinces-database"},"geometry":null},{"type":"Feature","id":"02185","properties":{"commune_code":"02185","commune_name":"Côn Minh","commune_name_en":"Con Minh","commune_full_name":"Xã Côn Minh","commune_full_name_en":"Con Minh Commune","commune_slug":"con_minh","unit_type":"Xã","unit_type_en":"Commune","admin_level":2,"province_code":"19","province_name":"Thái Nguyên","province_full_name":"Tỉnh Thái Nguyên","province_slug":"thai_nguyen","join_key":"02185","status":"active","dataset_effective_date":"2026-04-30","catalog_version":"2026-07-12","geometry_status":"not_embedded_boundary_available_by_url","boundary_source_url":"https://raw.githubusercontent.com/thanglequoc/vietnamese-provinces-database/master/json/geojson/19_thai_nguyen/wards/02185_con_minh.geojson","boundary_source_page":"https://github.com/thanglequoc/vietnamese-provinces-database/blob/master/json/geojson/19_thai_nguyen/wards/02185_con_minh.geojson","source_catalog":"https://github.com/thanglequoc/vietnamese-provinces-database"},"geometry":null},{"type":"Feature","id":"02191","properties":{"commune_code":"02191","commune_name":"Xuân Dương","commune_name_en":"Xuan Duong","commune_full_name":"Xã Xuân Dương","commune_full_name_en":"Xuan Duong Commune","commune_slug":"xuan_duong","unit_type":"Xã","unit_type_en":"Commune","admin_level":2,"province_code":"19","province_name":"Thái Nguyên","province_full_name":"Tỉnh Thái Nguyên","province_slug":"thai_nguyen","join_key":"02191","status":"active","dataset_effective_date":"2026-04-30","catalog_version":"2026-07-12","geometry_status":"not_embedded_boundary_available_by_url","boundary_source_url":"https://raw.githubusercontent.com/thanglequoc/vietnamese-provinces-database/master/json/geojson/19_thai_nguyen/wards/02191_xuan_duong.geojson","boundary_source_page":"https://github.com/thanglequoc/vietnamese-provinces-database/blob/master/json/geojson/19_thai_nguyen/wards/02191_xuan_duong.geojson","source_catalog":"https://github.com/thanglequoc/vietnamese-provinces-database"},"geometry":null},{"type":"Feature","id":"05443","properties":{"commune_code":"05443","commune_name":"Phan Đình Phùng","commune_name_en":"Phan Dinh Phung","commune_full_name":"Phường Phan Đình Phùng","commune_full_name_en":"Phan Dinh Phung Ward","commune_slug":"phan_dinh_phung","unit_type":"Phường","unit_type_en":"Ward","admin_level":2,"province_code":"19","province_name":"Thái Nguyên","province_full_name":"Tỉnh Thái Nguyên","province_slug":"thai_nguyen","join_key":"05443","status":"active","dataset_effective_date":"2026-04-30","catalog_version":"2026-07-12","geometry_status":"not_embedded_boundary_available_by_url","boundary_source_url":"https://raw.githubusercontent.com/thanglequoc/vietnamese-provinces-database/master/json/geojson/19_thai_nguyen/wards/05443_phan_dinh_phung.geojson","boundary_source_page":"https://github.com/thanglequoc/vietnamese-provinces-database/blob/master/json/geojson/19_thai_nguyen/wards/05443_phan_dinh_phung.geojson","source_catalog":"https://github.com/thanglequoc/vietnamese-provinces-database"},"geometry":null},{"type":"Feature","id":"05455","properties":{"commune_code":"05455","commune_name":"Quyết Thắng","commune_name_en":"Quyet Thang","commune_full_name":"Phường Quyết Thắng","commune_full_name_en":"Quyet Thang Ward","commune_slug":"quyet_thang","unit_type":"Phường","unit_type_en":"Ward","admin_level":2,"province_code":"19","province_name":"Thái Nguyên","province_full_name":"Tỉnh Thái Nguyên","province_slug":"thai_nguyen","join_key":"05455","status":"active","dataset_effective_date":"2026-04-30","catalog_version":"2026-07-12","geometry_status":"not_embedded_boundary_available_by_url","boundary_source_url":"https://raw.githubusercontent.com/thanglequoc/vietnamese-provinces-database/master/json/geojson/19_thai_nguyen/wards/05455_quyet_thang.geojson","boundary_source_page":"https://github.com/thanglequoc/vietnamese-provinces-database/blob/master/json/geojson/19_thai_nguyen/wards/05455_quyet_thang.geojson","source_catalog":"https://github.com/thanglequoc/vietnamese-provinces-database"},"geometry":null},{"type":"Feature","id":"05467","properties":{"commune_code":"05467","commune_name":"Gia Sàng","commune_name_en":"Gia Sang","commune_full_name":"Phường Gia Sàng","commune_full_name_en":"Gia Sang Ward","commune_slug":"gia_sang","unit_type":"Phường","unit_type_en":"Ward","admin_level":2,"province_code":"19","province_name":"Thái Nguyên","province_full_name":"Tỉnh Thái Nguyên","province_slug":"thai_nguyen","join_key":"05467","status":"active","dataset_effective_date":"2026-04-30","catalog_version":"2026-07-12","geometry_status":"not_embedded_boundary_available_by_url","boundary_source_url":"https://raw.githubusercontent.com/thanglequoc/vietnamese-provinces-database/master/json/geojson/19_thai_nguyen/wards/05467_gia_sang.geojson","boundary_source_page":"https://github.com/thanglequoc/vietnamese-provinces-database/blob/master/json/geojson/19_thai_nguyen/wards/05467_gia_sang.geojson","source_catalog":"https://github.com/thanglequoc/vietnamese-provinces-database"},"geometry":null},{"type":"Feature","id":"05482","properties":{"commune_code":"05482","commune_name":"Quan Triều","commune_name_en":"Quan Trieu","commune_full_name":"Phường Quan Triều","commune_full_name_en":"Quan Trieu Ward","commune_slug":"quan_trieu","unit_type":"Phường","unit_type_en":"Ward","admin_level":2,"province_code":"19","province_name":"Thái Nguyên","province_full_name":"Tỉnh Thái Nguyên","province_slug":"thai_nguyen","join_key":"05482","status":"active","dataset_effective_date":"2026-04-30","catalog_version":"2026-07-12","geometry_status":"not_embedded_boundary_available_by_url","boundary_source_url":"https://raw.githubusercontent.com/thanglequoc/vietnamese-provinces-database/master/json/geojson/19_thai_nguyen/wards/05482_quan_trieu.geojson","boundary_source_page":"https://github.com/thanglequoc/vietnamese-provinces-database/blob/master/json/geojson/19_thai_nguyen/wards/05482_quan_trieu.geojson","source_catalog":"https://github.com/thanglequoc/vietnamese-provinces-database"},"geometry":null},{"type":"Feature","id":"05488","properties":{"commune_code":"05488","commune_name":"Đại Phúc","commune_name_en":"Dai Phuc","commune_full_name":"Xã Đại Phúc","commune_full_name_en":"Dai Phuc Commune","commune_slug":"dai_phuc","unit_type":"Xã","unit_type_en":"Commune","admin_level":2,"province_code":"19","province_name":"Thái Nguyên","province_full_name":"Tỉnh Thái Nguyên","province_slug":"thai_nguyen","join_key":"05488","status":"active","dataset_effective_date":"2026-04-30","catalog_version":"2026-07-12","geometry_status":"not_embedded_boundary_available_by_url","boundary_source_url":"https://raw.githubusercontent.com/thanglequoc/vietnamese-provinces-database/master/json/geojson/19_thai_nguyen/wards/05488_dai_phuc.geojson","boundary_source_page":"https://github.com/thanglequoc/vietnamese-provinces-database/blob/master/json/geojson/19_thai_nguyen/wards/05488_dai_phuc.geojson","source_catalog":"https://github.com/thanglequoc/vietnamese-provinces-database"},"geometry":null},{"type":"Feature","id":"05500","properties":{"commune_code":"05500","commune_name":"Tích Lương","commune_name_en":"Tich Luong","commune_full_name":"Phường Tích Lương","commune_full_name_en":"Tich Luong Ward","commune_slug":"tich_luong","unit_type":"Phường","unit_type_en":"Ward","admin_level":2,"province_code":"19","province_name":"Thái Nguyên","province_full_name":"Tỉnh Thái Nguyên","province_slug":"thai_nguyen","join_key":"05500","status":"active","dataset_effective_date":"2026-04-30","catalog_version":"2026-07-12","geometry_status":"not_embedded_boundary_available_by_url","boundary_source_url":"https://raw.githubusercontent.com/thanglequoc/vietnamese-provinces-database/master/json/geojson/19_thai_nguyen/wards/05500_tich_luong.geojson","boundary_source_page":"https://github.com/thanglequoc/vietnamese-provinces-database/blob/master/json/geojson/19_thai_nguyen/wards/05500_tich_luong.geojson","source_catalog":"https://github.com/thanglequoc/vietnamese-provinces-database"},"geometry":null},{"type":"Feature","id":"05503","properties":{"commune_code":"05503","commune_name":"Tân Cương","commune_name_en":"Tan Cuong","commune_full_name":"Xã Tân Cương","commune_full_name_en":"Tan Cuong Commune","commune_slug":"tan_cuong","unit_type":"Xã","unit_type_en":"Commune","admin_level":2,"province_code":"19","province_name":"Thái Nguyên","province_full_name":"Tỉnh Thái Nguyên","province_slug":"thai_nguyen","join_key":"05503","status":"active","dataset_effective_date":"2026-04-30","catalog_version":"2026-07-12","geometry_status":"not_embedded_boundary_available_by_url","boundary_source_url":"https://raw.githubusercontent.com/thanglequoc/vietnamese-provinces-database/master/json/geojson/19_thai_nguyen/wards/05503_tan_cuong.geojson","boundary_source_page":"https://github.com/thanglequoc/vietnamese-provinces-database/blob/master/json/geojson/19_thai_nguyen/wards/05503_tan_cuong.geojson","source_catalog":"https://github.com/thanglequoc/vietnamese-provinces-database"},"geometry":null},{"type":"Feature","id":"05518","properties":{"commune_code":"05518","commune_name":"Sông Công","commune_name_en":"Song Cong","commune_full_name":"Phường Sông Công","commune_full_name_en":"Song Cong Ward","commune_slug":"song_cong","unit_type":"Phường","unit_type_en":"Ward","admin_level":2,"province_code":"19","province_name":"Thái Nguyên","province_full_name":"Tỉnh Thái Nguyên","province_slug":"thai_nguyen","join_key":"05518","status":"active","dataset_effective_date":"2026-04-30","catalog_version":"2026-07-12","geometry_status":"not_embedded_boundary_available_by_url","boundary_source_url":"https://raw.githubusercontent.com/thanglequoc/vietnamese-provinces-database/master/json/geojson/19_thai_nguyen/wards/05518_song_cong.geojson","boundary_source_page":"https://github.com/thanglequoc/vietnamese-provinces-database/blob/master/json/geojson/19_thai_nguyen/wards/05518_song_cong.geojson","source_catalog":"https://github.com/thanglequoc/vietnamese-provinces-database"},"geometry":null},{"type":"Feature","id":"05528","properties":{"commune_code":"05528","commune_name":"Bách Quang","commune_name_en":"Bach Quang","commune_full_name":"Phường Bách Quang","commune_full_name_en":"Bach Quang Ward","commune_slug":"bach_quang","unit_type":"Phường","unit_type_en":"Ward","admin_level":2,"province_code":"19","province_name":"Thái Nguyên","province_full_name":"Tỉnh Thái Nguyên","province_slug":"thai_nguyen","join_key":"05528","status":"active","dataset_effective_date":"2026-04-30","catalog_version":"2026-07-12","geometry_status":"not_embedded_boundary_available_by_url","boundary_source_url":"https://raw.githubusercontent.com/thanglequoc/vietnamese-provinces-database/master/json/geojson/19_thai_nguyen/wards/05528_bach_quang.geojson","boundary_source_page":"https://github.com/thanglequoc/vietnamese-provinces-database/blob/master/json/geojson/19_thai_nguyen/wards/05528_bach_quang.geojson","source_catalog":"https://github.com/thanglequoc/vietnamese-provinces-database"},"geometry":null},{"type":"Feature","id":"05533","properties":{"commune_code":"05533","commune_name":"Bá Xuyên","commune_name_en":"Ba Xuyen","commune_full_name":"Phường Bá Xuyên","commune_full_name_en":"Ba Xuyen Ward","commune_slug":"ba_xuyen","unit_type":"Phường","unit_type_en":"Ward","admin_level":2,"province_code":"19","province_name":"Thái Nguyên","province_full_name":"Tỉnh Thái Nguyên","province_slug":"thai_nguyen","join_key":"05533","status":"active","dataset_effective_date":"2026-04-30","catalog_version":"2026-07-12","geometry_status":"not_embedded_boundary_available_by_url","boundary_source_url":"https://raw.githubusercontent.com/thanglequoc/vietnamese-provinces-database/master/json/geojson/19_thai_nguyen/wards/05533_ba_xuyen.geojson","boundary_source_page":"https://github.com/thanglequoc/vietnamese-provinces-database/blob/master/json/geojson/19_thai_nguyen/wards/05533_ba_xuyen.geojson","source_catalog":"https://github.com/thanglequoc/vietnamese-provinces-database"},"geometry":null},{"type":"Feature","id":"05542","properties":{"commune_code":"05542","commune_name":"Lam Vỹ","commune_name_en":"Lam Vy","commune_full_name":"Xã Lam Vỹ","commune_full_name_en":"Lam Vy Commune","commune_slug":"lam_vy","unit_type":"Xã","unit_type_en":"Commune","admin_level":2,"province_code":"19","province_name":"Thái Nguyên","province_full_name":"Tỉnh Thái Nguyên","province_slug":"thai_nguyen","join_key":"05542","status":"active","dataset_effective_date":"2026-04-30","catalog_version":"2026-07-12","geometry_status":"not_embedded_boundary_available_by_url","boundary_source_url":"https://raw.githubusercontent.com/thanglequoc/vietnamese-provinces-database/master/json/geojson/19_thai_nguyen/wards/05542_lam_vy.geojson","boundary_source_page":"https://github.com/thanglequoc/vietnamese-provinces-database/blob/master/json/geojson/19_thai_nguyen/wards/05542_lam_vy.geojson","source_catalog":"https://github.com/thanglequoc/vietnamese-provinces-database"},"geometry":null},{"type":"Feature","id":"05551","properties":{"commune_code":"05551","commune_name":"Kim Phượng","commune_name_en":"Kim Phuong","commune_full_name":"Xã Kim Phượng","commune_full_name_en":"Kim Phuong Commune","commune_slug":"kim_phuong","unit_type":"Xã","unit_type_en":"Commune","admin_level":2,"province_code":"19","province_name":"Thái Nguyên","province_full_name":"Tỉnh Thái Nguyên","province_slug":"thai_nguyen","join_key":"05551","status":"active","dataset_effective_date":"2026-04-30","catalog_version":"2026-07-12","geometry_status":"not_embedded_boundary_available_by_url","boundary_source_url":"https://raw.githubusercontent.com/thanglequoc/vietnamese-provinces-database/master/json/geojson/19_thai_nguyen/wards/05551_kim_phuong.geojson","boundary_source_page":"https://github.com/thanglequoc/vietnamese-provinces-database/blob/master/json/geojson/19_thai_nguyen/wards/05551_kim_phuong.geojson","source_catalog":"https://github.com/thanglequoc/vietnamese-provinces-database"},"geometry":null},{"type":"Feature","id":"05563","properties":{"commune_code":"05563","commune_name":"Phượng Tiến","commune_name_en":"Phuong Tien","commune_full_name":"Xã Phượng Tiến","commune_full_name_en":"Phuong Tien Commune","commune_slug":"phuong_tien","unit_type":"Xã","unit_type_en":"Commune","admin_level":2,"province_code":"19","province_name":"Thái Nguyên","province_full_name":"Tỉnh Thái Nguyên","province_slug":"thai_nguyen","join_key":"05563","status":"active","dataset_effective_date":"2026-04-30","catalog_version":"2026-07-12","geometry_status":"not_embedded_boundary_available_by_url","boundary_source_url":"https://raw.githubusercontent.com/thanglequoc/vietnamese-provinces-database/master/json/geojson/19_thai_nguyen/wards/05563_phuong_tien.geojson","boundary_source_page":"https://github.com/thanglequoc/vietnamese-provinces-database/blob/master/json/geojson/19_thai_nguyen/wards/05563_phuong_tien.geojson","source_catalog":"https://github.com/thanglequoc/vietnamese-provinces-database"},"geometry":null},{"type":"Feature","id":"05569","properties":{"commune_code":"05569","commune_name":"Định Hoá","commune_name_en":"Dinh Hoa","commune_full_name":"Xã Định Hoá","commune_full_name_en":"Dinh Hoa Commune","commune_slug":"dinh_hoa","unit_type":"Xã","unit_type_en":"Commune","admin_level":2,"province_code":"19","province_name":"Thái Nguyên","province_full_name":"Tỉnh Thái Nguyên","province_slug":"thai_nguyen","join_key":"05569","status":"active","dataset_effective_date":"2026-04-30","catalog_version":"2026-07-12","geometry_status":"not_embedded_boundary_available_by_url","boundary_source_url":"https://raw.githubusercontent.com/thanglequoc/vietnamese-provinces-database/master/json/geojson/19_thai_nguyen/wards/05569_dinh_hoa.geojson","boundary_source_page":"https://github.com/thanglequoc/vietnamese-provinces-database/blob/master/json/geojson/19_thai_nguyen/wards/05569_dinh_hoa.geojson","source_catalog":"https://github.com/thanglequoc/vietnamese-provinces-database"},"geometry":null},{"type":"Feature","id":"05581","properties":{"commune_code":"05581","commune_name":"Trung Hội","commune_name_en":"Trung Hoi","commune_full_name":"Xã Trung Hội","commune_full_name_en":"Trung Hoi Commune","commune_slug":"trung_hoi","unit_type":"Xã","unit_type_en":"Commune","admin_level":2,"province_code":"19","province_name":"Thái Nguyên","province_full_name":"Tỉnh Thái Nguyên","province_slug":"thai_nguyen","join_key":"05581","status":"active","dataset_effective_date":"2026-04-30","catalog_version":"2026-07-12","geometry_status":"not_embedded_boundary_available_by_url","boundary_source_url":"https://raw.githubusercontent.com/thanglequoc/vietnamese-provinces-database/master/json/geojson/19_thai_nguyen/wards/05581_trung_hoi.geojson","boundary_source_page":"https://github.com/thanglequoc/vietnamese-provinces-database/blob/master/json/geojson/19_thai_nguyen/wards/05581_trung_hoi.geojson","source_catalog":"https://github.com/thanglequoc/vietnamese-provinces-database"},"geometry":null},{"type":"Feature","id":"05587","properties":{"commune_code":"05587","commune_name":"Bình Yên","commune_name_en":"Binh Yen","commune_full_name":"Xã Bình Yên","commune_full_name_en":"Binh Yen Commune","commune_slug":"binh_yen","unit_type":"Xã","unit_type_en":"Commune","admin_level":2,"province_code":"19","province_name":"Thái Nguyên","province_full_name":"Tỉnh Thái Nguyên","province_slug":"thai_nguyen","join_key":"05587","status":"active","dataset_effective_date":"2026-04-30","catalog_version":"2026-07-12","geometry_status":"not_embedded_boundary_available_by_url","boundary_source_url":"https://raw.githubusercontent.com/thanglequoc/vietnamese-provinces-database/master/json/geojson/19_thai_nguyen/wards/05587_binh_yen.geojson","boundary_source_page":"https://github.com/thanglequoc/vietnamese-provinces-database/blob/master/json/geojson/19_thai_nguyen/wards/05587_binh_yen.geojson","source_catalog":"https://github.com/thanglequoc/vietnamese-provinces-database"},"geometry":null},{"type":"Feature","id":"05602","properties":{"commune_code":"05602","commune_name":"Phú Đình","commune_name_en":"Phu Dinh","commune_full_name":"Xã Phú Đình","commune_full_name_en":"Phu Dinh Commune","commune_slug":"phu_dinh","unit_type":"Xã","unit_type_en":"Commune","admin_level":2,"province_code":"19","province_name":"Thái Nguyên","province_full_name":"Tỉnh Thái Nguyên","province_slug":"thai_nguyen","join_key":"05602","status":"active","dataset_effective_date":"2026-04-30","catalog_version":"2026-07-12","geometry_status":"not_embedded_boundary_available_by_url","boundary_source_url":"https://raw.githubusercontent.com/thanglequoc/vietnamese-provinces-database/master/json/geojson/19_thai_nguyen/wards/05602_phu_dinh.geojson","boundary_source_page":"https://github.com/thanglequoc/vietnamese-provinces-database/blob/master/json/geojson/19_thai_nguyen/wards/05602_phu_dinh.geojson","source_catalog":"https://github.com/thanglequoc/vietnamese-provinces-database"},"geometry":null},{"type":"Feature","id":"05605","properties":{"commune_code":"05605","commune_name":"Bình Thành","commune_name_en":"Binh Thanh","commune_full_name":"Xã Bình Thành","commune_full_name_en":"Binh Thanh Commune","commune_slug":"binh_thanh","unit_type":"Xã","unit_type_en":"Commune","admin_level":2,"province_code":"19","province_name":"Thái Nguyên","province_full_name":"Tỉnh Thái Nguyên","province_slug":"thai_nguyen","join_key":"05605","status":"active","dataset_effective_date":"2026-04-30","catalog_version":"2026-07-12","geometry_status":"not_embedded_boundary_available_by_url","boundary_source_url":"https://raw.githubusercontent.com/thanglequoc/vietnamese-provinces-database/master/json/geojson/19_thai_nguyen/wards/05605_binh_thanh.geojson","boundary_source_page":"https://github.com/thanglequoc/vietnamese-provinces-database/blob/master/json/geojson/19_thai_nguyen/wards/05605_binh_thanh.geojson","source_catalog":"https://github.com/thanglequoc/vietnamese-provinces-database"},"geometry":null},{"type":"Feature","id":"05611","properties":{"commune_code":"05611","commune_name":"Phú Lương","commune_name_en":"Phu Luong","commune_full_name":"Xã Phú Lương","commune_full_name_en":"Phu Luong Commune","commune_slug":"phu_luong","unit_type":"Xã","unit_type_en":"Commune","admin_level":2,"province_code":"19","province_name":"Thái Nguyên","province_full_name":"Tỉnh Thái Nguyên","province_slug":"thai_nguyen","join_key":"05611","status":"active","dataset_effective_date":"2026-04-30","catalog_version":"2026-07-12","geometry_status":"not_embedded_boundary_available_by_url","boundary_source_url":"https://raw.githubusercontent.com/thanglequoc/vietnamese-provinces-database/master/json/geojson/19_thai_nguyen/wards/05611_phu_luong.geojson","boundary_source_page":"https://github.com/thanglequoc/vietnamese-provinces-database/blob/master/json/geojson/19_thai_nguyen/wards/05611_phu_luong.geojson","source_catalog":"https://github.com/thanglequoc/vietnamese-provinces-database"},"geometry":null},{"type":"Feature","id":"05620","properties":{"commune_code":"05620","commune_name":"Yên Trạch","commune_name_en":"Yen Trach","commune_full_name":"Xã Yên Trạch","commune_full_name_en":"Yen Trach Commune","commune_slug":"yen_trach","unit_type":"Xã","unit_type_en":"Commune","admin_level":2,"province_code":"19","province_name":"Thái Nguyên","province_full_name":"Tỉnh Thái Nguyên","province_slug":"thai_nguyen","join_key":"05620","status":"active","dataset_effective_date":"2026-04-30","catalog_version":"2026-07-12","geometry_status":"not_embedded_boundary_available_by_url","boundary_source_url":"https://raw.githubusercontent.com/thanglequoc/vietnamese-provinces-database/master/json/geojson/19_thai_nguyen/wards/05620_yen_trach.geojson","boundary_source_page":"https://github.com/thanglequoc/vietnamese-provinces-database/blob/master/json/geojson/19_thai_nguyen/wards/05620_yen_trach.geojson","source_catalog":"https://github.com/thanglequoc/vietnamese-provinces-database"},"geometry":null},{"type":"Feature","id":"05632","properties":{"commune_code":"05632","commune_name":"Hợp Thành","commune_name_en":"Hop Thanh","commune_full_name":"Xã Hợp Thành","commune_full_name_en":"Hop Thanh Commune","commune_slug":"hop_thanh","unit_type":"Xã","unit_type_en":"Commune","admin_level":2,"province_code":"19","province_name":"Thái Nguyên","province_full_name":"Tỉnh Thái Nguyên","province_slug":"thai_nguyen","join_key":"05632","status":"active","dataset_effective_date":"2026-04-30","catalog_version":"2026-07-12","geometry_status":"not_embedded_boundary_available_by_url","boundary_source_url":"https://raw.githubusercontent.com/thanglequoc/vietnamese-provinces-database/master/json/geojson/19_thai_nguyen/wards/05632_hop_thanh.geojson","boundary_source_page":"https://github.com/thanglequoc/vietnamese-provinces-database/blob/master/json/geojson/19_thai_nguyen/wards/05632_hop_thanh.geojson","source_catalog":"https://github.com/thanglequoc/vietnamese-provinces-database"},"geometry":null},{"type":"Feature","id":"05641","properties":{"commune_code":"05641","commune_name":"Vô Tranh","commune_name_en":"Vo Tranh","commune_full_name":"Xã Vô Tranh","commune_full_name_en":"Vo Tranh Commune","commune_slug":"vo_tranh","unit_type":"Xã","unit_type_en":"Commune","admin_level":2,"province_code":"19","province_name":"Thái Nguyên","province_full_name":"Tỉnh Thái Nguyên","province_slug":"thai_nguyen","join_key":"05641","status":"active","dataset_effective_date":"2026-04-30","catalog_version":"2026-07-12","geometry_status":"not_embedded_boundary_available_by_url","boundary_source_url":"https://raw.githubusercontent.com/thanglequoc/vietnamese-provinces-database/master/json/geojson/19_thai_nguyen/wards/05641_vo_tranh.geojson","boundary_source_page":"https://github.com/thanglequoc/vietnamese-provinces-database/blob/master/json/geojson/19_thai_nguyen/wards/05641_vo_tranh.geojson","source_catalog":"https://github.com/thanglequoc/vietnamese-provinces-database"},"geometry":null},{"type":"Feature","id":"05662","properties":{"commune_code":"05662","commune_name":"Trại Cau","commune_name_en":"Trai Cau","commune_full_name":"Xã Trại Cau","commune_full_name_en":"Trai Cau Commune","commune_slug":"trai_cau","unit_type":"Xã","unit_type_en":"Commune","admin_level":2,"province_code":"19","province_name":"Thái Nguyên","province_full_name":"Tỉnh Thái Nguyên","province_slug":"thai_nguyen","join_key":"05662","status":"active","dataset_effective_date":"2026-04-30","catalog_version":"2026-07-12","geometry_status":"not_embedded_boundary_available_by_url","boundary_source_url":"https://raw.githubusercontent.com/thanglequoc/vietnamese-provinces-database/master/json/geojson/19_thai_nguyen/wards/05662_trai_cau.geojson","boundary_source_page":"https://github.com/thanglequoc/vietnamese-provinces-database/blob/master/json/geojson/19_thai_nguyen/wards/05662_trai_cau.geojson","source_catalog":"https://github.com/thanglequoc/vietnamese-provinces-database"},"geometry":null},{"type":"Feature","id":"05665","properties":{"commune_code":"05665","commune_name":"Văn Lăng","commune_name_en":"Van Lang","commune_full_name":"Xã Văn Lăng","commune_full_name_en":"Van Lang Commune","commune_slug":"van_lang","unit_type":"Xã","unit_type_en":"Commune","admin_level":2,"province_code":"19","province_name":"Thái Nguyên","province_full_name":"Tỉnh Thái Nguyên","province_slug":"thai_nguyen","join_key":"05665","status":"active","dataset_effective_date":"2026-04-30","catalog_version":"2026-07-12","geometry_status":"not_embedded_boundary_available_by_url","boundary_source_url":"https://raw.githubusercontent.com/thanglequoc/vietnamese-provinces-database/master/json/geojson/19_thai_nguyen/wards/05665_van_lang.geojson","boundary_source_page":"https://github.com/thanglequoc/vietnamese-provinces-database/blob/master/json/geojson/19_thai_nguyen/wards/05665_van_lang.geojson","source_catalog":"https://github.com/thanglequoc/vietnamese-provinces-database"},"geometry":null},{"type":"Feature","id":"05674","properties":{"commune_code":"05674","commune_name":"Quang Sơn","commune_name_en":"Quang Son","commune_full_name":"Xã Quang Sơn","commune_full_name_en":"Quang Son Commune","commune_slug":"quang_son","unit_type":"Xã","unit_type_en":"Commune","admin_level":2,"province_code":"19","province_name":"Thái Nguyên","province_full_name":"Tỉnh Thái Nguyên","province_slug":"thai_nguyen","join_key":"05674","status":"active","dataset_effective_date":"2026-04-30","catalog_version":"2026-07-12","geometry_status":"not_embedded_boundary_available_by_url","boundary_source_url":"https://raw.githubusercontent.com/thanglequoc/vietnamese-provinces-database/master/json/geojson/19_thai_nguyen/wards/05674_quang_son.geojson","boundary_source_page":"https://github.com/thanglequoc/vietnamese-provinces-database/blob/master/json/geojson/19_thai_nguyen/wards/05674_quang_son.geojson","source_catalog":"https://github.com/thanglequoc/vietnamese-provinces-database"},"geometry":null},{"type":"Feature","id":"05680","properties":{"commune_code":"05680","commune_name":"Văn Hán","commune_name_en":"Van Han","commune_full_name":"Xã Văn Hán","commune_full_name_en":"Van Han Commune","commune_slug":"van_han","unit_type":"Xã","unit_type_en":"Commune","admin_level":2,"province_code":"19","province_name":"Thái Nguyên","province_full_name":"Tỉnh Thái Nguyên","province_slug":"thai_nguyen","join_key":"05680","status":"active","dataset_effective_date":"2026-04-30","catalog_version":"2026-07-12","geometry_status":"not_embedded_boundary_available_by_url","boundary_source_url":"https://raw.githubusercontent.com/thanglequoc/vietnamese-provinces-database/master/json/geojson/19_thai_nguyen/wards/05680_van_han.geojson","boundary_source_page":"https://github.com/thanglequoc/vietnamese-provinces-database/blob/master/json/geojson/19_thai_nguyen/wards/05680_van_han.geojson","source_catalog":"https://github.com/thanglequoc/vietnamese-provinces-database"},"geometry":null},{"type":"Feature","id":"05692","properties":{"commune_code":"05692","commune_name":"Đồng Hỷ","commune_name_en":"Dong Hy","commune_full_name":"Xã Đồng Hỷ","commune_full_name_en":"Dong Hy Commune","commune_slug":"dong_hy","unit_type":"Xã","unit_type_en":"Commune","admin_level":2,"province_code":"19","province_name":"Thái Nguyên","province_full_name":"Tỉnh Thái Nguyên","province_slug":"thai_nguyen","join_key":"05692","status":"active","dataset_effective_date":"2026-04-30","catalog_version":"2026-07-12","geometry_status":"not_embedded_boundary_available_by_url","boundary_source_url":"https://raw.githubusercontent.com/thanglequoc/vietnamese-provinces-database/master/json/geojson/19_thai_nguyen/wards/05692_dong_hy.geojson","boundary_source_page":"https://github.com/thanglequoc/vietnamese-provinces-database/blob/master/json/geojson/19_thai_nguyen/wards/05692_dong_hy.geojson","source_catalog":"https://github.com/thanglequoc/vietnamese-provinces-database"},"geometry":null},{"type":"Feature","id":"05707","properties":{"commune_code":"05707","commune_name":"Nam Hoà","commune_name_en":"Nam Hoa","commune_full_name":"Xã Nam Hoà","commune_full_name_en":"Nam Hoa Commune","commune_slug":"nam_hoa","unit_type":"Xã","unit_type_en":"Commune","admin_level":2,"province_code":"19","province_name":"Thái Nguyên","province_full_name":"Tỉnh Thái Nguyên","province_slug":"thai_nguyen","join_key":"05707","status":"active","dataset_effective_date":"2026-04-30","catalog_version":"2026-07-12","geometry_status":"not_embedded_boundary_available_by_url","boundary_source_url":"https://raw.githubusercontent.com/thanglequoc/vietnamese-provinces-database/master/json/geojson/19_thai_nguyen/wards/05707_nam_hoa.geojson","boundary_source_page":"https://github.com/thanglequoc/vietnamese-provinces-database/blob/master/json/geojson/19_thai_nguyen/wards/05707_nam_hoa.geojson","source_catalog":"https://github.com/thanglequoc/vietnamese-provinces-database"},"geometry":null},{"type":"Feature","id":"05710","properties":{"commune_code":"05710","commune_name":"Linh Sơn","commune_name_en":"Linh Son","commune_full_name":"Phường Linh Sơn","commune_full_name_en":"Linh Son Ward","commune_slug":"linh_son","unit_type":"Phường","unit_type_en":"Ward","admin_level":2,"province_code":"19","province_name":"Thái Nguyên","province_full_name":"Tỉnh Thái Nguyên","province_slug":"thai_nguyen","join_key":"05710","status":"active","dataset_effective_date":"2026-04-30","catalog_version":"2026-07-12","geometry_status":"not_embedded_boundary_available_by_url","boundary_source_url":"https://raw.githubusercontent.com/thanglequoc/vietnamese-provinces-database/master/json/geojson/19_thai_nguyen/wards/05710_linh_son.geojson","boundary_source_page":"https://github.com/thanglequoc/vietnamese-provinces-database/blob/master/json/geojson/19_thai_nguyen/wards/05710_linh_son.geojson","source_catalog":"https://github.com/thanglequoc/vietnamese-provinces-database"},"geometry":null},{"type":"Feature","id":"05716","properties":{"commune_code":"05716","commune_name":"Võ Nhai","commune_name_en":"Vo Nhai","commune_full_name":"Xã Võ Nhai","commune_full_name_en":"Vo Nhai Commune","commune_slug":"vo_nhai","unit_type":"Xã","unit_type_en":"Commune","admin_level":2,"province_code":"19","province_name":"Thái Nguyên","province_full_name":"Tỉnh Thái Nguyên","province_slug":"thai_nguyen","join_key":"05716","status":"active","dataset_effective_date":"2026-04-30","catalog_version":"2026-07-12","geometry_status":"not_embedded_boundary_available_by_url","boundary_source_url":"https://raw.githubusercontent.com/thanglequoc/vietnamese-provinces-database/master/json/geojson/19_thai_nguyen/wards/05716_vo_nhai.geojson","boundary_source_page":"https://github.com/thanglequoc/vietnamese-provinces-database/blob/master/json/geojson/19_thai_nguyen/wards/05716_vo_nhai.geojson","source_catalog":"https://github.com/thanglequoc/vietnamese-provinces-database"},"geometry":null},{"type":"Feature","id":"05719","properties":{"commune_code":"05719","commune_name":"Sảng Mộc","commune_name_en":"Sang Moc","commune_full_name":"Xã Sảng Mộc","commune_full_name_en":"Sang Moc Commune","commune_slug":"sang_moc","unit_type":"Xã","unit_type_en":"Commune","admin_level":2,"province_code":"19","province_name":"Thái Nguyên","province_full_name":"Tỉnh Thái Nguyên","province_slug":"thai_nguyen","join_key":"05719","status":"active","dataset_effective_date":"2026-04-30","catalog_version":"2026-07-12","geometry_status":"not_embedded_boundary_available_by_url","boundary_source_url":"https://raw.githubusercontent.com/thanglequoc/vietnamese-provinces-database/master/json/geojson/19_thai_nguyen/wards/05719_sang_moc.geojson","boundary_source_page":"https://github.com/thanglequoc/vietnamese-provinces-database/blob/master/json/geojson/19_thai_nguyen/wards/05719_sang_moc.geojson","source_catalog":"https://github.com/thanglequoc/vietnamese-provinces-database"},"geometry":null},{"type":"Feature","id":"05722","properties":{"commune_code":"05722","commune_name":"Nghinh Tường","commune_name_en":"Nghinh Tuong","commune_full_name":"Xã Nghinh Tường","commune_full_name_en":"Nghinh Tuong Commune","commune_slug":"nghinh_tuong","unit_type":"Xã","unit_type_en":"Commune","admin_level":2,"province_code":"19","province_name":"Thái Nguyên","province_full_name":"Tỉnh Thái Nguyên","province_slug":"thai_nguyen","join_key":"05722","status":"active","dataset_effective_date":"2026-04-30","catalog_version":"2026-07-12","geometry_status":"not_embedded_boundary_available_by_url","boundary_source_url":"https://raw.githubusercontent.com/thanglequoc/vietnamese-provinces-database/master/json/geojson/19_thai_nguyen/wards/05722_nghinh_tuong.geojson","boundary_source_page":"https://github.com/thanglequoc/vietnamese-provinces-database/blob/master/json/geojson/19_thai_nguyen/wards/05722_nghinh_tuong.geojson","source_catalog":"https://github.com/thanglequoc/vietnamese-provinces-database"},"geometry":null},{"type":"Feature","id":"05725","properties":{"commune_code":"05725","commune_name":"Thần Sa","commune_name_en":"Than Sa","commune_full_name":"Xã Thần Sa","commune_full_name_en":"Than Sa Commune","commune_slug":"than_sa","unit_type":"Xã","unit_type_en":"Commune","admin_level":2,"province_code":"19","province_name":"Thái Nguyên","province_full_name":"Tỉnh Thái Nguyên","province_slug":"thai_nguyen","join_key":"05725","status":"active","dataset_effective_date":"2026-04-30","catalog_version":"2026-07-12","geometry_status":"not_embedded_boundary_available_by_url","boundary_source_url":"https://raw.githubusercontent.com/thanglequoc/vietnamese-provinces-database/master/json/geojson/19_thai_nguyen/wards/05725_than_sa.geojson","boundary_source_page":"https://github.com/thanglequoc/vietnamese-provinces-database/blob/master/json/geojson/19_thai_nguyen/wards/05725_than_sa.geojson","source_catalog":"https://github.com/thanglequoc/vietnamese-provinces-database"},"geometry":null},{"type":"Feature","id":"05740","properties":{"commune_code":"05740","commune_name":"La Hiên","commune_name_en":"La Hien","commune_full_name":"Xã La Hiên","commune_full_name_en":"La Hien Commune","commune_slug":"la_hien","unit_type":"Xã","unit_type_en":"Commune","admin_level":2,"province_code":"19","province_name":"Thái Nguyên","province_full_name":"Tỉnh Thái Nguyên","province_slug":"thai_nguyen","join_key":"05740","status":"active","dataset_effective_date":"2026-04-30","catalog_version":"2026-07-12","geometry_status":"not_embedded_boundary_available_by_url","boundary_source_url":"https://raw.githubusercontent.com/thanglequoc/vietnamese-provinces-database/master/json/geojson/19_thai_nguyen/wards/05740_la_hien.geojson","boundary_source_page":"https://github.com/thanglequoc/vietnamese-provinces-database/blob/master/json/geojson/19_thai_nguyen/wards/05740_la_hien.geojson","source_catalog":"https://github.com/thanglequoc/vietnamese-provinces-database"},"geometry":null},{"type":"Feature","id":"05746","properties":{"commune_code":"05746","commune_name":"Tràng Xá","commune_name_en":"Trang Xa","commune_full_name":"Xã Tràng Xá","commune_full_name_en":"Trang Xa Commune","commune_slug":"trang_xa","unit_type":"Xã","unit_type_en":"Commune","admin_level":2,"province_code":"19","province_name":"Thái Nguyên","province_full_name":"Tỉnh Thái Nguyên","province_slug":"thai_nguyen","join_key":"05746","status":"active","dataset_effective_date":"2026-04-30","catalog_version":"2026-07-12","geometry_status":"not_embedded_boundary_available_by_url","boundary_source_url":"https://raw.githubusercontent.com/thanglequoc/vietnamese-provinces-database/master/json/geojson/19_thai_nguyen/wards/05746_trang_xa.geojson","boundary_source_page":"https://github.com/thanglequoc/vietnamese-provinces-database/blob/master/json/geojson/19_thai_nguyen/wards/05746_trang_xa.geojson","source_catalog":"https://github.com/thanglequoc/vietnamese-provinces-database"},"geometry":null},{"type":"Feature","id":"05755","properties":{"commune_code":"05755","commune_name":"Dân Tiến","commune_name_en":"Dan Tien","commune_full_name":"Xã Dân Tiến","commune_full_name_en":"Dan Tien Commune","commune_slug":"dan_tien","unit_type":"Xã","unit_type_en":"Commune","admin_level":2,"province_code":"19","province_name":"Thái Nguyên","province_full_name":"Tỉnh Thái Nguyên","province_slug":"thai_nguyen","join_key":"05755","status":"active","dataset_effective_date":"2026-04-30","catalog_version":"2026-07-12","geometry_status":"not_embedded_boundary_available_by_url","boundary_source_url":"https://raw.githubusercontent.com/thanglequoc/vietnamese-provinces-database/master/json/geojson/19_thai_nguyen/wards/05755_dan_tien.geojson","boundary_source_page":"https://github.com/thanglequoc/vietnamese-provinces-database/blob/master/json/geojson/19_thai_nguyen/wards/05755_dan_tien.geojson","source_catalog":"https://github.com/thanglequoc/vietnamese-provinces-database"},"geometry":null},{"type":"Feature","id":"05773","properties":{"commune_code":"05773","commune_name":"Phú Xuyên","commune_name_en":"Phu Xuyen","commune_full_name":"Xã Phú Xuyên","commune_full_name_en":"Phu Xuyen Commune","commune_slug":"phu_xuyen","unit_type":"Xã","unit_type_en":"Commune","admin_level":2,"province_code":"19","province_name":"Thái Nguyên","province_full_name":"Tỉnh Thái Nguyên","province_slug":"thai_nguyen","join_key":"05773","status":"active","dataset_effective_date":"2026-04-30","catalog_version":"2026-07-12","geometry_status":"not_embedded_boundary_available_by_url","boundary_source_url":"https://raw.githubusercontent.com/thanglequoc/vietnamese-provinces-database/master/json/geojson/19_thai_nguyen/wards/05773_phu_xuyen.geojson","boundary_source_page":"https://github.com/thanglequoc/vietnamese-provinces-database/blob/master/json/geojson/19_thai_nguyen/wards/05773_phu_xuyen.geojson","source_catalog":"https://github.com/thanglequoc/vietnamese-provinces-database"},"geometry":null},{"type":"Feature","id":"05776","properties":{"commune_code":"05776","commune_name":"Đức Lương","commune_name_en":"Duc Luong","commune_full_name":"Xã Đức Lương","commune_full_name_en":"Duc Luong Commune","commune_slug":"duc_luong","unit_type":"Xã","unit_type_en":"Commune","admin_level":2,"province_code":"19","province_name":"Thái Nguyên","province_full_name":"Tỉnh Thái Nguyên","province_slug":"thai_nguyen","join_key":"05776","status":"active","dataset_effective_date":"2026-04-30","catalog_version":"2026-07-12","geometry_status":"not_embedded_boundary_available_by_url","boundary_source_url":"https://raw.githubusercontent.com/thanglequoc/vietnamese-provinces-database/master/json/geojson/19_thai_nguyen/wards/05776_duc_luong.geojson","boundary_source_page":"https://github.com/thanglequoc/vietnamese-provinces-database/blob/master/json/geojson/19_thai_nguyen/wards/05776_duc_luong.geojson","source_catalog":"https://github.com/thanglequoc/vietnamese-provinces-database"},"geometry":null},{"type":"Feature","id":"05788","properties":{"commune_code":"05788","commune_name":"Phú Lạc","commune_name_en":"Phu Lac","commune_full_name":"Xã Phú Lạc","commune_full_name_en":"Phu Lac Commune","commune_slug":"phu_lac","unit_type":"Xã","unit_type_en":"Commune","admin_level":2,"province_code":"19","province_name":"Thái Nguyên","province_full_name":"Tỉnh Thái Nguyên","province_slug":"thai_nguyen","join_key":"05788","status":"active","dataset_effective_date":"2026-04-30","catalog_version":"2026-07-12","geometry_status":"not_embedded_boundary_available_by_url","boundary_source_url":"https://raw.githubusercontent.com/thanglequoc/vietnamese-provinces-database/master/json/geojson/19_thai_nguyen/wards/05788_phu_lac.geojson","boundary_source_page":"https://github.com/thanglequoc/vietnamese-provinces-database/blob/master/json/geojson/19_thai_nguyen/wards/05788_phu_lac.geojson","source_catalog":"https://github.com/thanglequoc/vietnamese-provinces-database"},"geometry":null},{"type":"Feature","id":"05800","properties":{"commune_code":"05800","commune_name":"Phú Thịnh","commune_name_en":"Phu Thinh","commune_full_name":"Xã Phú Thịnh","commune_full_name_en":"Phu Thinh Commune","commune_slug":"phu_thinh","unit_type":"Xã","unit_type_en":"Commune","admin_level":2,"province_code":"19","province_name":"Thái Nguyên","province_full_name":"Tỉnh Thái Nguyên","province_slug":"thai_nguyen","join_key":"05800","status":"active","dataset_effective_date":"2026-04-30","catalog_version":"2026-07-12","geometry_status":"not_embedded_boundary_available_by_url","boundary_source_url":"https://raw.githubusercontent.com/thanglequoc/vietnamese-provinces-database/master/json/geojson/19_thai_nguyen/wards/05800_phu_thinh.geojson","boundary_source_page":"https://github.com/thanglequoc/vietnamese-provinces-database/blob/master/json/geojson/19_thai_nguyen/wards/05800_phu_thinh.geojson","source_catalog":"https://github.com/thanglequoc/vietnamese-provinces-database"},"geometry":null},{"type":"Feature","id":"05809","properties":{"commune_code":"05809","commune_name":"An Khánh","commune_name_en":"An Khanh","commune_full_name":"Xã An Khánh","commune_full_name_en":"An Khanh Commune","commune_slug":"an_khanh","unit_type":"Xã","unit_type_en":"Commune","admin_level":2,"province_code":"19","province_name":"Thái Nguyên","province_full_name":"Tỉnh Thái Nguyên","province_slug":"thai_nguyen","join_key":"05809","status":"active","dataset_effective_date":"2026-04-30","catalog_version":"2026-07-12","geometry_status":"not_embedded_boundary_available_by_url","boundary_source_url":"https://raw.githubusercontent.com/thanglequoc/vietnamese-provinces-database/master/json/geojson/19_thai_nguyen/wards/05809_an_khanh.geojson","boundary_source_page":"https://github.com/thanglequoc/vietnamese-provinces-database/blob/master/json/geojson/19_thai_nguyen/wards/05809_an_khanh.geojson","source_catalog":"https://github.com/thanglequoc/vietnamese-provinces-database"},"geometry":null},{"type":"Feature","id":"05818","properties":{"commune_code":"05818","commune_name":"La Bằng","commune_name_en":"La Bang","commune_full_name":"Xã La Bằng","commune_full_name_en":"La Bang Commune","commune_slug":"la_bang","unit_type":"Xã","unit_type_en":"Commune","admin_level":2,"province_code":"19","province_name":"Thái Nguyên","province_full_name":"Tỉnh Thái Nguyên","province_slug":"thai_nguyen","join_key":"05818","status":"active","dataset_effective_date":"2026-04-30","catalog_version":"2026-07-12","geometry_status":"not_embedded_boundary_available_by_url","boundary_source_url":"https://raw.githubusercontent.com/thanglequoc/vietnamese-provinces-database/master/json/geojson/19_thai_nguyen/wards/05818_la_bang.geojson","boundary_source_page":"https://github.com/thanglequoc/vietnamese-provinces-database/blob/master/json/geojson/19_thai_nguyen/wards/05818_la_bang.geojson","source_catalog":"https://github.com/thanglequoc/vietnamese-provinces-database"},"geometry":null},{"type":"Feature","id":"05830","properties":{"commune_code":"05830","commune_name":"Đại Từ","commune_name_en":"Dai Tu","commune_full_name":"Xã Đại Từ","commune_full_name_en":"Dai Tu Commune","commune_slug":"dai_tu","unit_type":"Xã","unit_type_en":"Commune","admin_level":2,"province_code":"19","province_name":"Thái Nguyên","province_full_name":"Tỉnh Thái Nguyên","province_slug":"thai_nguyen","join_key":"05830","status":"active","dataset_effective_date":"2026-04-30","catalog_version":"2026-07-12","geometry_status":"not_embedded_boundary_available_by_url","boundary_source_url":"https://raw.githubusercontent.com/thanglequoc/vietnamese-provinces-database/master/json/geojson/19_thai_nguyen/wards/05830_dai_tu.geojson","boundary_source_page":"https://github.com/thanglequoc/vietnamese-provinces-database/blob/master/json/geojson/19_thai_nguyen/wards/05830_dai_tu.geojson","source_catalog":"https://github.com/thanglequoc/vietnamese-provinces-database"},"geometry":null},{"type":"Feature","id":"05845","properties":{"commune_code":"05845","commune_name":"Vạn Phú","commune_name_en":"Van Phu","commune_full_name":"Xã Vạn Phú","commune_full_name_en":"Van Phu Commune","commune_slug":"van_phu","unit_type":"Xã","unit_type_en":"Commune","admin_level":2,"province_code":"19","province_name":"Thái Nguyên","province_full_name":"Tỉnh Thái Nguyên","province_slug":"thai_nguyen","join_key":"05845","status":"active","dataset_effective_date":"2026-04-30","catalog_version":"2026-07-12","geometry_status":"not_embedded_boundary_available_by_url","boundary_source_url":"https://raw.githubusercontent.com/thanglequoc/vietnamese-provinces-database/master/json/geojson/19_thai_nguyen/wards/05845_van_phu.geojson","boundary_source_page":"https://github.com/thanglequoc/vietnamese-provinces-database/blob/master/json/geojson/19_thai_nguyen/wards/05845_van_phu.geojson","source_catalog":"https://github.com/thanglequoc/vietnamese-provinces-database"},"geometry":null},{"type":"Feature","id":"05851","properties":{"commune_code":"05851","commune_name":"Quân Chu","commune_name_en":"Quan Chu","commune_full_name":"Xã Quân Chu","commune_full_name_en":"Quan Chu Commune","commune_slug":"quan_chu","unit_type":"Xã","unit_type_en":"Commune","admin_level":2,"province_code":"19","province_name":"Thái Nguyên","province_full_name":"Tỉnh Thái Nguyên","province_slug":"thai_nguyen","join_key":"05851","status":"active","dataset_effective_date":"2026-04-30","catalog_version":"2026-07-12","geometry_status":"not_embedded_boundary_available_by_url","boundary_source_url":"https://raw.githubusercontent.com/thanglequoc/vietnamese-provinces-database/master/json/geojson/19_thai_nguyen/wards/05851_quan_chu.geojson","boundary_source_page":"https://github.com/thanglequoc/vietnamese-provinces-database/blob/master/json/geojson/19_thai_nguyen/wards/05851_quan_chu.geojson","source_catalog":"https://github.com/thanglequoc/vietnamese-provinces-database"},"geometry":null},{"type":"Feature","id":"05857","properties":{"commune_code":"05857","commune_name":"Phúc Thuận","commune_name_en":"Phuc Thuan","commune_full_name":"Phường Phúc Thuận","commune_full_name_en":"Phuc Thuan Ward","commune_slug":"phuc_thuan","unit_type":"Phường","unit_type_en":"Ward","admin_level":2,"province_code":"19","province_name":"Thái Nguyên","province_full_name":"Tỉnh Thái Nguyên","province_slug":"thai_nguyen","join_key":"05857","status":"active","dataset_effective_date":"2026-04-30","catalog_version":"2026-07-12","geometry_status":"not_embedded_boundary_available_by_url","boundary_source_url":"https://raw.githubusercontent.com/thanglequoc/vietnamese-provinces-database/master/json/geojson/19_thai_nguyen/wards/05857_phuc_thuan.geojson","boundary_source_page":"https://github.com/thanglequoc/vietnamese-provinces-database/blob/master/json/geojson/19_thai_nguyen/wards/05857_phuc_thuan.geojson","source_catalog":"https://github.com/thanglequoc/vietnamese-provinces-database"},"geometry":null},{"type":"Feature","id":"05860","properties":{"commune_code":"05860","commune_name":"Phổ Yên","commune_name_en":"Pho Yen","commune_full_name":"Phường Phổ Yên","commune_full_name_en":"Pho Yen Ward","commune_slug":"pho_yen","unit_type":"Phường","unit_type_en":"Ward","admin_level":2,"province_code":"19","province_name":"Thái Nguyên","province_full_name":"Tỉnh Thái Nguyên","province_slug":"thai_nguyen","join_key":"05860","status":"active","dataset_effective_date":"2026-04-30","catalog_version":"2026-07-12","geometry_status":"not_embedded_boundary_available_by_url","boundary_source_url":"https://raw.githubusercontent.com/thanglequoc/vietnamese-provinces-database/master/json/geojson/19_thai_nguyen/wards/05860_pho_yen.geojson","boundary_source_page":"https://github.com/thanglequoc/vietnamese-provinces-database/blob/master/json/geojson/19_thai_nguyen/wards/05860_pho_yen.geojson","source_catalog":"https://github.com/thanglequoc/vietnamese-provinces-database"},"geometry":null},{"type":"Feature","id":"05881","properties":{"commune_code":"05881","commune_name":"Thành Công","commune_name_en":"Thanh Cong","commune_full_name":"Xã Thành Công","commune_full_name_en":"Thanh Cong Commune","commune_slug":"thanh_cong","unit_type":"Xã","unit_type_en":"Commune","admin_level":2,"province_code":"19","province_name":"Thái Nguyên","province_full_name":"Tỉnh Thái Nguyên","province_slug":"thai_nguyen","join_key":"05881","status":"active","dataset_effective_date":"2026-04-30","catalog_version":"2026-07-12","geometry_status":"not_embedded_boundary_available_by_url","boundary_source_url":"https://raw.githubusercontent.com/thanglequoc/vietnamese-provinces-database/master/json/geojson/19_thai_nguyen/wards/05881_thanh_cong.geojson","boundary_source_page":"https://github.com/thanglequoc/vietnamese-provinces-database/blob/master/json/geojson/19_thai_nguyen/wards/05881_thanh_cong.geojson","source_catalog":"https://github.com/thanglequoc/vietnamese-provinces-database"},"geometry":null},{"type":"Feature","id":"05890","properties":{"commune_code":"05890","commune_name":"Vạn Xuân","commune_name_en":"Van Xuan","commune_full_name":"Phường Vạn Xuân","commune_full_name_en":"Van Xuan Ward","commune_slug":"van_xuan","unit_type":"Phường","unit_type_en":"Ward","admin_level":2,"province_code":"19","province_name":"Thái Nguyên","province_full_name":"Tỉnh Thái Nguyên","province_slug":"thai_nguyen","join_key":"05890","status":"active","dataset_effective_date":"2026-04-30","catalog_version":"2026-07-12","geometry_status":"not_embedded_boundary_available_by_url","boundary_source_url":"https://raw.githubusercontent.com/thanglequoc/vietnamese-provinces-database/master/json/geojson/19_thai_nguyen/wards/05890_van_xuan.geojson","boundary_source_page":"https://github.com/thanglequoc/vietnamese-provinces-database/blob/master/json/geojson/19_thai_nguyen/wards/05890_van_xuan.geojson","source_catalog":"https://github.com/thanglequoc/vietnamese-provinces-database"},"geometry":null},{"type":"Feature","id":"05899","properties":{"commune_code":"05899","commune_name":"Trung Thành","commune_name_en":"Trung Thanh","commune_full_name":"Phường Trung Thành","commune_full_name_en":"Trung Thanh Ward","commune_slug":"trung_thanh","unit_type":"Phường","unit_type_en":"Ward","admin_level":2,"province_code":"19","province_name":"Thái Nguyên","province_full_name":"Tỉnh Thái Nguyên","province_slug":"thai_nguyen","join_key":"05899","status":"active","dataset_effective_date":"2026-04-30","catalog_version":"2026-07-12","geometry_status":"not_embedded_boundary_available_by_url","boundary_source_url":"https://raw.githubusercontent.com/thanglequoc/vietnamese-provinces-database/master/json/geojson/19_thai_nguyen/wards/05899_trung_thanh.geojson","boundary_source_page":"https://github.com/thanglequoc/vietnamese-provinces-database/blob/master/json/geojson/19_thai_nguyen/wards/05899_trung_thanh.geojson","source_catalog":"https://github.com/thanglequoc/vietnamese-provinces-database"},"geometry":null},{"type":"Feature","id":"05908","properties":{"commune_code":"05908","commune_name":"Phú Bình","commune_name_en":"Phu Binh","commune_full_name":"Xã Phú Bình","commune_full_name_en":"Phu Binh Commune","commune_slug":"phu_binh","unit_type":"Xã","unit_type_en":"Commune","admin_level":2,"province_code":"19","province_name":"Thái Nguyên","province_full_name":"Tỉnh Thái Nguyên","province_slug":"thai_nguyen","join_key":"05908","status":"active","dataset_effective_date":"2026-04-30","catalog_version":"2026-07-12","geometry_status":"not_embedded_boundary_available_by_url","boundary_source_url":"https://raw.githubusercontent.com/thanglequoc/vietnamese-provinces-database/master/json/geojson/19_thai_nguyen/wards/05908_phu_binh.geojson","boundary_source_page":"https://github.com/thanglequoc/vietnamese-provinces-database/blob/master/json/geojson/19_thai_nguyen/wards/05908_phu_binh.geojson","source_catalog":"https://github.com/thanglequoc/vietnamese-provinces-database"},"geometry":null},{"type":"Feature","id":"05917","properties":{"commune_code":"05917","commune_name":"Tân Khánh","commune_name_en":"Tan Khanh","commune_full_name":"Xã Tân Khánh","commune_full_name_en":"Tan Khanh Commune","commune_slug":"tan_khanh","unit_type":"Xã","unit_type_en":"Commune","admin_level":2,"province_code":"19","province_name":"Thái Nguyên","province_full_name":"Tỉnh Thái Nguyên","province_slug":"thai_nguyen","join_key":"05917","status":"active","dataset_effective_date":"2026-04-30","catalog_version":"2026-07-12","geometry_status":"not_embedded_boundary_available_by_url","boundary_source_url":"https://raw.githubusercontent.com/thanglequoc/vietnamese-provinces-database/master/json/geojson/19_thai_nguyen/wards/05917_tan_khanh.geojson","boundary_source_page":"https://github.com/thanglequoc/vietnamese-provinces-database/blob/master/json/geojson/19_thai_nguyen/wards/05917_tan_khanh.geojson","source_catalog":"https://github.com/thanglequoc/vietnamese-provinces-database"},"geometry":null},{"type":"Feature","id":"05923","properties":{"commune_code":"05923","commune_name":"Tân Thành","commune_name_en":"Tan Thanh","commune_full_name":"Xã Tân Thành","commune_full_name_en":"Tan Thanh Commune","commune_slug":"tan_thanh","unit_type":"Xã","unit_type_en":"Commune","admin_level":2,"province_code":"19","province_name":"Thái Nguyên","province_full_name":"Tỉnh Thái Nguyên","province_slug":"thai_nguyen","join_key":"05923","status":"active","dataset_effective_date":"2026-04-30","catalog_version":"2026-07-12","geometry_status":"not_embedded_boundary_available_by_url","boundary_source_url":"https://raw.githubusercontent.com/thanglequoc/vietnamese-provinces-database/master/json/geojson/19_thai_nguyen/wards/05923_tan_thanh.geojson","boundary_source_page":"https://github.com/thanglequoc/vietnamese-provinces-database/blob/master/json/geojson/19_thai_nguyen/wards/05923_tan_thanh.geojson","source_catalog":"https://github.com/thanglequoc/vietnamese-provinces-database"},"geometry":null},{"type":"Feature","id":"05941","properties":{"commune_code":"05941","commune_name":"Điềm Thuỵ","commune_name_en":"Diem Thuy","commune_full_name":"Xã Điềm Thuỵ","commune_full_name_en":"Diem Thuy Commune","commune_slug":"diem_thuy","unit_type":"Xã","unit_type_en":"Commune","admin_level":2,"province_code":"19","province_name":"Thái Nguyên","province_full_name":"Tỉnh Thái Nguyên","province_slug":"thai_nguyen","join_key":"05941","status":"active","dataset_effective_date":"2026-04-30","catalog_version":"2026-07-12","geometry_status":"not_embedded_boundary_available_by_url","boundary_source_url":"https://raw.githubusercontent.com/thanglequoc/vietnamese-provinces-database/master/json/geojson/19_thai_nguyen/wards/05941_diem_thuy.geojson","boundary_source_page":"https://github.com/thanglequoc/vietnamese-provinces-database/blob/master/json/geojson/19_thai_nguyen/wards/05941_diem_thuy.geojson","source_catalog":"https://github.com/thanglequoc/vietnamese-provinces-database"},"geometry":null},{"type":"Feature","id":"05953","properties":{"commune_code":"05953","commune_name":"Kha Sơn","commune_name_en":"Kha Son","commune_full_name":"Xã Kha Sơn","commune_full_name_en":"Kha Son Commune","commune_slug":"kha_son","unit_type":"Xã","unit_type_en":"Commune","admin_level":2,"province_code":"19","province_name":"Thái Nguyên","province_full_name":"Tỉnh Thái Nguyên","province_slug":"thai_nguyen","join_key":"05953","status":"active","dataset_effective_date":"2026-04-30","catalog_version":"2026-07-12","geometry_status":"not_embedded_boundary_available_by_url","boundary_source_url":"https://raw.githubusercontent.com/thanglequoc/vietnamese-provinces-database/master/json/geojson/19_thai_nguyen/wards/05953_kha_son.geojson","boundary_source_page":"https://github.com/thanglequoc/vietnamese-provinces-database/blob/master/json/geojson/19_thai_nguyen/wards/05953_kha_son.geojson","source_catalog":"https://github.com/thanglequoc/vietnamese-provinces-database"},"geometry":null}]}