{"type":"FeatureCollection","name":"20_lang_son_communes_attributes","metadata":{"province_code":"20","province_name":"Lạng Sơn","feature_count":65,"geometry":null,"join_key":"commune_code"},"features":[{"type":"Feature","id":"05977","properties":{"commune_code":"05977","commune_name":"Đông Kinh","commune_name_en":"Dong Kinh","commune_full_name":"Phường Đông Kinh","commune_full_name_en":"Dong Kinh Ward","commune_slug":"dong_kinh","unit_type":"Phường","unit_type_en":"Ward","admin_level":2,"province_code":"20","province_name":"Lạng Sơn","province_full_name":"Tỉnh Lạng Sơn","province_slug":"lang_son","join_key":"05977","status":"active","dataset_effective_date":"2026-04-30","catalog_version":"2026-07-12","geometry_status":"not_embedded_boundary_available_by_url","boundary_source_url":"https://raw.githubusercontent.com/thanglequoc/vietnamese-provinces-database/master/json/geojson/20_lang_son/wards/05977_dong_kinh.geojson","boundary_source_page":"https://github.com/thanglequoc/vietnamese-provinces-database/blob/master/json/geojson/20_lang_son/wards/05977_dong_kinh.geojson","source_catalog":"https://github.com/thanglequoc/vietnamese-provinces-database"},"geometry":null},{"type":"Feature","id":"05983","properties":{"commune_code":"05983","commune_name":"Lương Văn Tri","commune_name_en":"Luong Van Tri","commune_full_name":"Phường Lương Văn Tri","commune_full_name_en":"Luong Van Tri Ward","commune_slug":"luong_van_tri","unit_type":"Phường","unit_type_en":"Ward","admin_level":2,"province_code":"20","province_name":"Lạng Sơn","province_full_name":"Tỉnh Lạng Sơn","province_slug":"lang_son","join_key":"05983","status":"active","dataset_effective_date":"2026-04-30","catalog_version":"2026-07-12","geometry_status":"not_embedded_boundary_available_by_url","boundary_source_url":"https://raw.githubusercontent.com/thanglequoc/vietnamese-provinces-database/master/json/geojson/20_lang_son/wards/05983_luong_van_tri.geojson","boundary_source_page":"https://github.com/thanglequoc/vietnamese-provinces-database/blob/master/json/geojson/20_lang_son/wards/05983_luong_van_tri.geojson","source_catalog":"https://github.com/thanglequoc/vietnamese-provinces-database"},"geometry":null},{"type":"Feature","id":"05986","properties":{"commune_code":"05986","commune_name":"Tam Thanh","commune_name_en":"Tam Thanh","commune_full_name":"Phường Tam Thanh","commune_full_name_en":"Tam Thanh Ward","commune_slug":"tam_thanh","unit_type":"Phường","unit_type_en":"Ward","admin_level":2,"province_code":"20","province_name":"Lạng Sơn","province_full_name":"Tỉnh Lạng Sơn","province_slug":"lang_son","join_key":"05986","status":"active","dataset_effective_date":"2026-04-30","catalog_version":"2026-07-12","geometry_status":"not_embedded_boundary_available_by_url","boundary_source_url":"https://raw.githubusercontent.com/thanglequoc/vietnamese-provinces-database/master/json/geojson/20_lang_son/wards/05986_tam_thanh.geojson","boundary_source_page":"https://github.com/thanglequoc/vietnamese-provinces-database/blob/master/json/geojson/20_lang_son/wards/05986_tam_thanh.geojson","source_catalog":"https://github.com/thanglequoc/vietnamese-provinces-database"},"geometry":null},{"type":"Feature","id":"06001","properties":{"commune_code":"06001","commune_name":"Đoàn Kết","commune_name_en":"Doan Ket","commune_full_name":"Xã Đoàn Kết","commune_full_name_en":"Doan Ket Commune","commune_slug":"doan_ket","unit_type":"Xã","unit_type_en":"Commune","admin_level":2,"province_code":"20","province_name":"Lạng Sơn","province_full_name":"Tỉnh Lạng Sơn","province_slug":"lang_son","join_key":"06001","status":"active","dataset_effective_date":"2026-04-30","catalog_version":"2026-07-12","geometry_status":"not_embedded_boundary_available_by_url","boundary_source_url":"https://raw.githubusercontent.com/thanglequoc/vietnamese-provinces-database/master/json/geojson/20_lang_son/wards/06001_doan_ket.geojson","boundary_source_page":"https://github.com/thanglequoc/vietnamese-provinces-database/blob/master/json/geojson/20_lang_son/wards/06001_doan_ket.geojson","source_catalog":"https://github.com/thanglequoc/vietnamese-provinces-database"},"geometry":null},{"type":"Feature","id":"06004","properties":{"commune_code":"06004","commune_name":"Quốc Khánh","commune_name_en":"Quoc Khanh","commune_full_name":"Xã Quốc Khánh","commune_full_name_en":"Quoc Khanh Commune","commune_slug":"quoc_khanh","unit_type":"Xã","unit_type_en":"Commune","admin_level":2,"province_code":"20","province_name":"Lạng Sơn","province_full_name":"Tỉnh Lạng Sơn","province_slug":"lang_son","join_key":"06004","status":"active","dataset_effective_date":"2026-04-30","catalog_version":"2026-07-12","geometry_status":"not_embedded_boundary_available_by_url","boundary_source_url":"https://raw.githubusercontent.com/thanglequoc/vietnamese-provinces-database/master/json/geojson/20_lang_son/wards/06004_quoc_khanh.geojson","boundary_source_page":"https://github.com/thanglequoc/vietnamese-provinces-database/blob/master/json/geojson/20_lang_son/wards/06004_quoc_khanh.geojson","source_catalog":"https://github.com/thanglequoc/vietnamese-provinces-database"},"geometry":null},{"type":"Feature","id":"06019","properties":{"commune_code":"06019","commune_name":"Tân Tiến","commune_name_en":"Tan Tien","commune_full_name":"Xã Tân Tiến","commune_full_name_en":"Tan Tien Commune","commune_slug":"tan_tien","unit_type":"Xã","unit_type_en":"Commune","admin_level":2,"province_code":"20","province_name":"Lạng Sơn","province_full_name":"Tỉnh Lạng Sơn","province_slug":"lang_son","join_key":"06019","status":"active","dataset_effective_date":"2026-04-30","catalog_version":"2026-07-12","geometry_status":"not_embedded_boundary_available_by_url","boundary_source_url":"https://raw.githubusercontent.com/thanglequoc/vietnamese-provinces-database/master/json/geojson/20_lang_son/wards/06019_tan_tien.geojson","boundary_source_page":"https://github.com/thanglequoc/vietnamese-provinces-database/blob/master/json/geojson/20_lang_son/wards/06019_tan_tien.geojson","source_catalog":"https://github.com/thanglequoc/vietnamese-provinces-database"},"geometry":null},{"type":"Feature","id":"06037","properties":{"commune_code":"06037","commune_name":"Kháng Chiến","commune_name_en":"Khang Chien","commune_full_name":"Xã Kháng Chiến","commune_full_name_en":"Khang Chien Commune","commune_slug":"khang_chien","unit_type":"Xã","unit_type_en":"Commune","admin_level":2,"province_code":"20","province_name":"Lạng Sơn","province_full_name":"Tỉnh Lạng Sơn","province_slug":"lang_son","join_key":"06037","status":"active","dataset_effective_date":"2026-04-30","catalog_version":"2026-07-12","geometry_status":"not_embedded_boundary_available_by_url","boundary_source_url":"https://raw.githubusercontent.com/thanglequoc/vietnamese-provinces-database/master/json/geojson/20_lang_son/wards/06037_khang_chien.geojson","boundary_source_page":"https://github.com/thanglequoc/vietnamese-provinces-database/blob/master/json/geojson/20_lang_son/wards/06037_khang_chien.geojson","source_catalog":"https://github.com/thanglequoc/vietnamese-provinces-database"},"geometry":null},{"type":"Feature","id":"06040","properties":{"commune_code":"06040","commune_name":"Thất Khê","commune_name_en":"That Khe","commune_full_name":"Xã Thất Khê","commune_full_name_en":"That Khe Commune","commune_slug":"that_khe","unit_type":"Xã","unit_type_en":"Commune","admin_level":2,"province_code":"20","province_name":"Lạng Sơn","province_full_name":"Tỉnh Lạng Sơn","province_slug":"lang_son","join_key":"06040","status":"active","dataset_effective_date":"2026-04-30","catalog_version":"2026-07-12","geometry_status":"not_embedded_boundary_available_by_url","boundary_source_url":"https://raw.githubusercontent.com/thanglequoc/vietnamese-provinces-database/master/json/geojson/20_lang_son/wards/06040_that_khe.geojson","boundary_source_page":"https://github.com/thanglequoc/vietnamese-provinces-database/blob/master/json/geojson/20_lang_son/wards/06040_that_khe.geojson","source_catalog":"https://github.com/thanglequoc/vietnamese-provinces-database"},"geometry":null},{"type":"Feature","id":"06046","properties":{"commune_code":"06046","commune_name":"Tràng Định","commune_name_en":"Trang Dinh","commune_full_name":"Xã Tràng Định","commune_full_name_en":"Trang Dinh Commune","commune_slug":"trang_dinh","unit_type":"Xã","unit_type_en":"Commune","admin_level":2,"province_code":"20","province_name":"Lạng Sơn","province_full_name":"Tỉnh Lạng Sơn","province_slug":"lang_son","join_key":"06046","status":"active","dataset_effective_date":"2026-04-30","catalog_version":"2026-07-12","geometry_status":"not_embedded_boundary_available_by_url","boundary_source_url":"https://raw.githubusercontent.com/thanglequoc/vietnamese-provinces-database/master/json/geojson/20_lang_son/wards/06046_trang_dinh.geojson","boundary_source_page":"https://github.com/thanglequoc/vietnamese-provinces-database/blob/master/json/geojson/20_lang_son/wards/06046_trang_dinh.geojson","source_catalog":"https://github.com/thanglequoc/vietnamese-provinces-database"},"geometry":null},{"type":"Feature","id":"06058","properties":{"commune_code":"06058","commune_name":"Quốc Việt","commune_name_en":"Quoc Viet","commune_full_name":"Xã Quốc Việt","commune_full_name_en":"Quoc Viet Commune","commune_slug":"quoc_viet","unit_type":"Xã","unit_type_en":"Commune","admin_level":2,"province_code":"20","province_name":"Lạng Sơn","province_full_name":"Tỉnh Lạng Sơn","province_slug":"lang_son","join_key":"06058","status":"active","dataset_effective_date":"2026-04-30","catalog_version":"2026-07-12","geometry_status":"not_embedded_boundary_available_by_url","boundary_source_url":"https://raw.githubusercontent.com/thanglequoc/vietnamese-provinces-database/master/json/geojson/20_lang_son/wards/06058_quoc_viet.geojson","boundary_source_page":"https://github.com/thanglequoc/vietnamese-provinces-database/blob/master/json/geojson/20_lang_son/wards/06058_quoc_viet.geojson","source_catalog":"https://github.com/thanglequoc/vietnamese-provinces-database"},"geometry":null},{"type":"Feature","id":"06073","properties":{"commune_code":"06073","commune_name":"Hoa Thám","commune_name_en":"Hoa Tham","commune_full_name":"Xã Hoa Thám","commune_full_name_en":"Hoa Tham Commune","commune_slug":"hoa_tham","unit_type":"Xã","unit_type_en":"Commune","admin_level":2,"province_code":"20","province_name":"Lạng Sơn","province_full_name":"Tỉnh Lạng Sơn","province_slug":"lang_son","join_key":"06073","status":"active","dataset_effective_date":"2026-04-30","catalog_version":"2026-07-12","geometry_status":"not_embedded_boundary_available_by_url","boundary_source_url":"https://raw.githubusercontent.com/thanglequoc/vietnamese-provinces-database/master/json/geojson/20_lang_son/wards/06073_hoa_tham.geojson","boundary_source_page":"https://github.com/thanglequoc/vietnamese-provinces-database/blob/master/json/geojson/20_lang_son/wards/06073_hoa_tham.geojson","source_catalog":"https://github.com/thanglequoc/vietnamese-provinces-database"},"geometry":null},{"type":"Feature","id":"06076","properties":{"commune_code":"06076","commune_name":"Quý Hoà","commune_name_en":"Quy Hoa","commune_full_name":"Xã Quý Hoà","commune_full_name_en":"Quy Hoa Commune","commune_slug":"quy_hoa","unit_type":"Xã","unit_type_en":"Commune","admin_level":2,"province_code":"20","province_name":"Lạng Sơn","province_full_name":"Tỉnh Lạng Sơn","province_slug":"lang_son","join_key":"06076","status":"active","dataset_effective_date":"2026-04-30","catalog_version":"2026-07-12","geometry_status":"not_embedded_boundary_available_by_url","boundary_source_url":"https://raw.githubusercontent.com/thanglequoc/vietnamese-provinces-database/master/json/geojson/20_lang_son/wards/06076_quy_hoa.geojson","boundary_source_page":"https://github.com/thanglequoc/vietnamese-provinces-database/blob/master/json/geojson/20_lang_son/wards/06076_quy_hoa.geojson","source_catalog":"https://github.com/thanglequoc/vietnamese-provinces-database"},"geometry":null},{"type":"Feature","id":"06079","properties":{"commune_code":"06079","commune_name":"Hồng Phong","commune_name_en":"Hong Phong","commune_full_name":"Xã Hồng Phong","commune_full_name_en":"Hong Phong Commune","commune_slug":"hong_phong","unit_type":"Xã","unit_type_en":"Commune","admin_level":2,"province_code":"20","province_name":"Lạng Sơn","province_full_name":"Tỉnh Lạng Sơn","province_slug":"lang_son","join_key":"06079","status":"active","dataset_effective_date":"2026-04-30","catalog_version":"2026-07-12","geometry_status":"not_embedded_boundary_available_by_url","boundary_source_url":"https://raw.githubusercontent.com/thanglequoc/vietnamese-provinces-database/master/json/geojson/20_lang_son/wards/06079_hong_phong.geojson","boundary_source_page":"https://github.com/thanglequoc/vietnamese-provinces-database/blob/master/json/geojson/20_lang_son/wards/06079_hong_phong.geojson","source_catalog":"https://github.com/thanglequoc/vietnamese-provinces-database"},"geometry":null},{"type":"Feature","id":"06085","properties":{"commune_code":"06085","commune_name":"Thiện Hoà","commune_name_en":"Thien Hoa","commune_full_name":"Xã Thiện Hoà","commune_full_name_en":"Thien Hoa Commune","commune_slug":"thien_hoa","unit_type":"Xã","unit_type_en":"Commune","admin_level":2,"province_code":"20","province_name":"Lạng Sơn","province_full_name":"Tỉnh Lạng Sơn","province_slug":"lang_son","join_key":"06085","status":"active","dataset_effective_date":"2026-04-30","catalog_version":"2026-07-12","geometry_status":"not_embedded_boundary_available_by_url","boundary_source_url":"https://raw.githubusercontent.com/thanglequoc/vietnamese-provinces-database/master/json/geojson/20_lang_son/wards/06085_thien_hoa.geojson","boundary_source_page":"https://github.com/thanglequoc/vietnamese-provinces-database/blob/master/json/geojson/20_lang_son/wards/06085_thien_hoa.geojson","source_catalog":"https://github.com/thanglequoc/vietnamese-provinces-database"},"geometry":null},{"type":"Feature","id":"06091","properties":{"commune_code":"06091","commune_name":"Thiện Thuật","commune_name_en":"Thien Thuat","commune_full_name":"Xã Thiện Thuật","commune_full_name_en":"Thien Thuat Commune","commune_slug":"thien_thuat","unit_type":"Xã","unit_type_en":"Commune","admin_level":2,"province_code":"20","province_name":"Lạng Sơn","province_full_name":"Tỉnh Lạng Sơn","province_slug":"lang_son","join_key":"06091","status":"active","dataset_effective_date":"2026-04-30","catalog_version":"2026-07-12","geometry_status":"not_embedded_boundary_available_by_url","boundary_source_url":"https://raw.githubusercontent.com/thanglequoc/vietnamese-provinces-database/master/json/geojson/20_lang_son/wards/06091_thien_thuat.geojson","boundary_source_page":"https://github.com/thanglequoc/vietnamese-provinces-database/blob/master/json/geojson/20_lang_son/wards/06091_thien_thuat.geojson","source_catalog":"https://github.com/thanglequoc/vietnamese-provinces-database"},"geometry":null},{"type":"Feature","id":"06103","properties":{"commune_code":"06103","commune_name":"Thiện Long","commune_name_en":"Thien Long","commune_full_name":"Xã Thiện Long","commune_full_name_en":"Thien Long Commune","commune_slug":"thien_long","unit_type":"Xã","unit_type_en":"Commune","admin_level":2,"province_code":"20","province_name":"Lạng Sơn","province_full_name":"Tỉnh Lạng Sơn","province_slug":"lang_son","join_key":"06103","status":"active","dataset_effective_date":"2026-04-30","catalog_version":"2026-07-12","geometry_status":"not_embedded_boundary_available_by_url","boundary_source_url":"https://raw.githubusercontent.com/thanglequoc/vietnamese-provinces-database/master/json/geojson/20_lang_son/wards/06103_thien_long.geojson","boundary_source_page":"https://github.com/thanglequoc/vietnamese-provinces-database/blob/master/json/geojson/20_lang_son/wards/06103_thien_long.geojson","source_catalog":"https://github.com/thanglequoc/vietnamese-provinces-database"},"geometry":null},{"type":"Feature","id":"06112","properties":{"commune_code":"06112","commune_name":"Bình Gia","commune_name_en":"Binh Gia","commune_full_name":"Xã Bình Gia","commune_full_name_en":"Binh Gia Commune","commune_slug":"binh_gia","unit_type":"Xã","unit_type_en":"Commune","admin_level":2,"province_code":"20","province_name":"Lạng Sơn","province_full_name":"Tỉnh Lạng Sơn","province_slug":"lang_son","join_key":"06112","status":"active","dataset_effective_date":"2026-04-30","catalog_version":"2026-07-12","geometry_status":"not_embedded_boundary_available_by_url","boundary_source_url":"https://raw.githubusercontent.com/thanglequoc/vietnamese-provinces-database/master/json/geojson/20_lang_son/wards/06112_binh_gia.geojson","boundary_source_page":"https://github.com/thanglequoc/vietnamese-provinces-database/blob/master/json/geojson/20_lang_son/wards/06112_binh_gia.geojson","source_catalog":"https://github.com/thanglequoc/vietnamese-provinces-database"},"geometry":null},{"type":"Feature","id":"06115","properties":{"commune_code":"06115","commune_name":"Tân Văn","commune_name_en":"Tan Van","commune_full_name":"Xã Tân Văn","commune_full_name_en":"Tan Van Commune","commune_slug":"tan_van","unit_type":"Xã","unit_type_en":"Commune","admin_level":2,"province_code":"20","province_name":"Lạng Sơn","province_full_name":"Tỉnh Lạng Sơn","province_slug":"lang_son","join_key":"06115","status":"active","dataset_effective_date":"2026-04-30","catalog_version":"2026-07-12","geometry_status":"not_embedded_boundary_available_by_url","boundary_source_url":"https://raw.githubusercontent.com/thanglequoc/vietnamese-provinces-database/master/json/geojson/20_lang_son/wards/06115_tan_van.geojson","boundary_source_page":"https://github.com/thanglequoc/vietnamese-provinces-database/blob/master/json/geojson/20_lang_son/wards/06115_tan_van.geojson","source_catalog":"https://github.com/thanglequoc/vietnamese-provinces-database"},"geometry":null},{"type":"Feature","id":"06124","properties":{"commune_code":"06124","commune_name":"Na Sầm","commune_name_en":"Na Sam","commune_full_name":"Xã Na Sầm","commune_full_name_en":"Na Sam Commune","commune_slug":"na_sam","unit_type":"Xã","unit_type_en":"Commune","admin_level":2,"province_code":"20","province_name":"Lạng Sơn","province_full_name":"Tỉnh Lạng Sơn","province_slug":"lang_son","join_key":"06124","status":"active","dataset_effective_date":"2026-04-30","catalog_version":"2026-07-12","geometry_status":"not_embedded_boundary_available_by_url","boundary_source_url":"https://raw.githubusercontent.com/thanglequoc/vietnamese-provinces-database/master/json/geojson/20_lang_son/wards/06124_na_sam.geojson","boundary_source_page":"https://github.com/thanglequoc/vietnamese-provinces-database/blob/master/json/geojson/20_lang_son/wards/06124_na_sam.geojson","source_catalog":"https://github.com/thanglequoc/vietnamese-provinces-database"},"geometry":null},{"type":"Feature","id":"06148","properties":{"commune_code":"06148","commune_name":"Thuỵ Hùng","commune_name_en":"Thuy Hung","commune_full_name":"Xã Thuỵ Hùng","commune_full_name_en":"Thuy Hung Commune","commune_slug":"thuy_hung","unit_type":"Xã","unit_type_en":"Commune","admin_level":2,"province_code":"20","province_name":"Lạng Sơn","province_full_name":"Tỉnh Lạng Sơn","province_slug":"lang_son","join_key":"06148","status":"active","dataset_effective_date":"2026-04-30","catalog_version":"2026-07-12","geometry_status":"not_embedded_boundary_available_by_url","boundary_source_url":"https://raw.githubusercontent.com/thanglequoc/vietnamese-provinces-database/master/json/geojson/20_lang_son/wards/06148_thuy_hung.geojson","boundary_source_page":"https://github.com/thanglequoc/vietnamese-provinces-database/blob/master/json/geojson/20_lang_son/wards/06148_thuy_hung.geojson","source_catalog":"https://github.com/thanglequoc/vietnamese-provinces-database"},"geometry":null},{"type":"Feature","id":"06151","properties":{"commune_code":"06151","commune_name":"Hội Hoan","commune_name_en":"Hoi Hoan","commune_full_name":"Xã Hội Hoan","commune_full_name_en":"Hoi Hoan Commune","commune_slug":"hoi_hoan","unit_type":"Xã","unit_type_en":"Commune","admin_level":2,"province_code":"20","province_name":"Lạng Sơn","province_full_name":"Tỉnh Lạng Sơn","province_slug":"lang_son","join_key":"06151","status":"active","dataset_effective_date":"2026-04-30","catalog_version":"2026-07-12","geometry_status":"not_embedded_boundary_available_by_url","boundary_source_url":"https://raw.githubusercontent.com/thanglequoc/vietnamese-provinces-database/master/json/geojson/20_lang_son/wards/06151_hoi_hoan.geojson","boundary_source_page":"https://github.com/thanglequoc/vietnamese-provinces-database/blob/master/json/geojson/20_lang_son/wards/06151_hoi_hoan.geojson","source_catalog":"https://github.com/thanglequoc/vietnamese-provinces-database"},"geometry":null},{"type":"Feature","id":"06154","properties":{"commune_code":"06154","commune_name":"Văn Lãng","commune_name_en":"Van Lang","commune_full_name":"Xã Văn Lãng","commune_full_name_en":"Van Lang Commune","commune_slug":"van_lang","unit_type":"Xã","unit_type_en":"Commune","admin_level":2,"province_code":"20","province_name":"Lạng Sơn","province_full_name":"Tỉnh Lạng Sơn","province_slug":"lang_son","join_key":"06154","status":"active","dataset_effective_date":"2026-04-30","catalog_version":"2026-07-12","geometry_status":"not_embedded_boundary_available_by_url","boundary_source_url":"https://raw.githubusercontent.com/thanglequoc/vietnamese-provinces-database/master/json/geojson/20_lang_son/wards/06154_van_lang.geojson","boundary_source_page":"https://github.com/thanglequoc/vietnamese-provinces-database/blob/master/json/geojson/20_lang_son/wards/06154_van_lang.geojson","source_catalog":"https://github.com/thanglequoc/vietnamese-provinces-database"},"geometry":null},{"type":"Feature","id":"06172","properties":{"commune_code":"06172","commune_name":"Hoàng Văn Thụ","commune_name_en":"Hoang Van Thu","commune_full_name":"Xã Hoàng Văn Thụ","commune_full_name_en":"Hoang Van Thu Commune","commune_slug":"hoang_van_thu","unit_type":"Xã","unit_type_en":"Commune","admin_level":2,"province_code":"20","province_name":"Lạng Sơn","province_full_name":"Tỉnh Lạng Sơn","province_slug":"lang_son","join_key":"06172","status":"active","dataset_effective_date":"2026-04-30","catalog_version":"2026-07-12","geometry_status":"not_embedded_boundary_available_by_url","boundary_source_url":"https://raw.githubusercontent.com/thanglequoc/vietnamese-provinces-database/master/json/geojson/20_lang_son/wards/06172_hoang_van_thu.geojson","boundary_source_page":"https://github.com/thanglequoc/vietnamese-provinces-database/blob/master/json/geojson/20_lang_son/wards/06172_hoang_van_thu.geojson","source_catalog":"https://github.com/thanglequoc/vietnamese-provinces-database"},"geometry":null},{"type":"Feature","id":"06184","properties":{"commune_code":"06184","commune_name":"Đồng Đăng","commune_name_en":"Dong Dang","commune_full_name":"Xã Đồng Đăng","commune_full_name_en":"Dong Dang Commune","commune_slug":"dong_dang","unit_type":"Xã","unit_type_en":"Commune","admin_level":2,"province_code":"20","province_name":"Lạng Sơn","province_full_name":"Tỉnh Lạng Sơn","province_slug":"lang_son","join_key":"06184","status":"active","dataset_effective_date":"2026-04-30","catalog_version":"2026-07-12","geometry_status":"not_embedded_boundary_available_by_url","boundary_source_url":"https://raw.githubusercontent.com/thanglequoc/vietnamese-provinces-database/master/json/geojson/20_lang_son/wards/06184_dong_dang.geojson","boundary_source_page":"https://github.com/thanglequoc/vietnamese-provinces-database/blob/master/json/geojson/20_lang_son/wards/06184_dong_dang.geojson","source_catalog":"https://github.com/thanglequoc/vietnamese-provinces-database"},"geometry":null},{"type":"Feature","id":"06187","properties":{"commune_code":"06187","commune_name":"Kỳ Lừa","commune_name_en":"Ky Lua","commune_full_name":"Phường Kỳ Lừa","commune_full_name_en":"Ky Lua Ward","commune_slug":"ky_lua","unit_type":"Phường","unit_type_en":"Ward","admin_level":2,"province_code":"20","province_name":"Lạng Sơn","province_full_name":"Tỉnh Lạng Sơn","province_slug":"lang_son","join_key":"06187","status":"active","dataset_effective_date":"2026-04-30","catalog_version":"2026-07-12","geometry_status":"not_embedded_boundary_available_by_url","boundary_source_url":"https://raw.githubusercontent.com/thanglequoc/vietnamese-provinces-database/master/json/geojson/20_lang_son/wards/06187_ky_lua.geojson","boundary_source_page":"https://github.com/thanglequoc/vietnamese-provinces-database/blob/master/json/geojson/20_lang_son/wards/06187_ky_lua.geojson","source_catalog":"https://github.com/thanglequoc/vietnamese-provinces-database"},"geometry":null},{"type":"Feature","id":"06196","properties":{"commune_code":"06196","commune_name":"Ba Sơn","commune_name_en":"Ba Son","commune_full_name":"Xã Ba Sơn","commune_full_name_en":"Ba Son Commune","commune_slug":"ba_son","unit_type":"Xã","unit_type_en":"Commune","admin_level":2,"province_code":"20","province_name":"Lạng Sơn","province_full_name":"Tỉnh Lạng Sơn","province_slug":"lang_son","join_key":"06196","status":"active","dataset_effective_date":"2026-04-30","catalog_version":"2026-07-12","geometry_status":"not_embedded_boundary_available_by_url","boundary_source_url":"https://raw.githubusercontent.com/thanglequoc/vietnamese-provinces-database/master/json/geojson/20_lang_son/wards/06196_ba_son.geojson","boundary_source_page":"https://github.com/thanglequoc/vietnamese-provinces-database/blob/master/json/geojson/20_lang_son/wards/06196_ba_son.geojson","source_catalog":"https://github.com/thanglequoc/vietnamese-provinces-database"},"geometry":null},{"type":"Feature","id":"06211","properties":{"commune_code":"06211","commune_name":"Cao Lộc","commune_name_en":"Cao Loc","commune_full_name":"Xã Cao Lộc","commune_full_name_en":"Cao Loc Commune","commune_slug":"cao_loc","unit_type":"Xã","unit_type_en":"Commune","admin_level":2,"province_code":"20","province_name":"Lạng Sơn","province_full_name":"Tỉnh Lạng Sơn","province_slug":"lang_son","join_key":"06211","status":"active","dataset_effective_date":"2026-04-30","catalog_version":"2026-07-12","geometry_status":"not_embedded_boundary_available_by_url","boundary_source_url":"https://raw.githubusercontent.com/thanglequoc/vietnamese-provinces-database/master/json/geojson/20_lang_son/wards/06211_cao_loc.geojson","boundary_source_page":"https://github.com/thanglequoc/vietnamese-provinces-database/blob/master/json/geojson/20_lang_son/wards/06211_cao_loc.geojson","source_catalog":"https://github.com/thanglequoc/vietnamese-provinces-database"},"geometry":null},{"type":"Feature","id":"06220","properties":{"commune_code":"06220","commune_name":"Công Sơn","commune_name_en":"Cong Son","commune_full_name":"Xã Công Sơn","commune_full_name_en":"Cong Son Commune","commune_slug":"cong_son","unit_type":"Xã","unit_type_en":"Commune","admin_level":2,"province_code":"20","province_name":"Lạng Sơn","province_full_name":"Tỉnh Lạng Sơn","province_slug":"lang_son","join_key":"06220","status":"active","dataset_effective_date":"2026-04-30","catalog_version":"2026-07-12","geometry_status":"not_embedded_boundary_available_by_url","boundary_source_url":"https://raw.githubusercontent.com/thanglequoc/vietnamese-provinces-database/master/json/geojson/20_lang_son/wards/06220_cong_son.geojson","boundary_source_page":"https://github.com/thanglequoc/vietnamese-provinces-database/blob/master/json/geojson/20_lang_son/wards/06220_cong_son.geojson","source_catalog":"https://github.com/thanglequoc/vietnamese-provinces-database"},"geometry":null},{"type":"Feature","id":"06253","properties":{"commune_code":"06253","commune_name":"Văn Quan","commune_name_en":"Van Quan","commune_full_name":"Xã Văn Quan","commune_full_name_en":"Van Quan Commune","commune_slug":"van_quan","unit_type":"Xã","unit_type_en":"Commune","admin_level":2,"province_code":"20","province_name":"Lạng Sơn","province_full_name":"Tỉnh Lạng Sơn","province_slug":"lang_son","join_key":"06253","status":"active","dataset_effective_date":"2026-04-30","catalog_version":"2026-07-12","geometry_status":"not_embedded_boundary_available_by_url","boundary_source_url":"https://raw.githubusercontent.com/thanglequoc/vietnamese-provinces-database/master/json/geojson/20_lang_son/wards/06253_van_quan.geojson","boundary_source_page":"https://github.com/thanglequoc/vietnamese-provinces-database/blob/master/json/geojson/20_lang_son/wards/06253_van_quan.geojson","source_catalog":"https://github.com/thanglequoc/vietnamese-provinces-database"},"geometry":null},{"type":"Feature","id":"06280","properties":{"commune_code":"06280","commune_name":"Điềm He","commune_name_en":"Diem He","commune_full_name":"Xã Điềm He","commune_full_name_en":"Diem He Commune","commune_slug":"diem_he","unit_type":"Xã","unit_type_en":"Commune","admin_level":2,"province_code":"20","province_name":"Lạng Sơn","province_full_name":"Tỉnh Lạng Sơn","province_slug":"lang_son","join_key":"06280","status":"active","dataset_effective_date":"2026-04-30","catalog_version":"2026-07-12","geometry_status":"not_embedded_boundary_available_by_url","boundary_source_url":"https://raw.githubusercontent.com/thanglequoc/vietnamese-provinces-database/master/json/geojson/20_lang_son/wards/06280_diem_he.geojson","boundary_source_page":"https://github.com/thanglequoc/vietnamese-provinces-database/blob/master/json/geojson/20_lang_son/wards/06280_diem_he.geojson","source_catalog":"https://github.com/thanglequoc/vietnamese-provinces-database"},"geometry":null},{"type":"Feature","id":"06286","properties":{"commune_code":"06286","commune_name":"Khánh Khê","commune_name_en":"Khanh Khe","commune_full_name":"Xã Khánh Khê","commune_full_name_en":"Khanh Khe Commune","commune_slug":"khanh_khe","unit_type":"Xã","unit_type_en":"Commune","admin_level":2,"province_code":"20","province_name":"Lạng Sơn","province_full_name":"Tỉnh Lạng Sơn","province_slug":"lang_son","join_key":"06286","status":"active","dataset_effective_date":"2026-04-30","catalog_version":"2026-07-12","geometry_status":"not_embedded_boundary_available_by_url","boundary_source_url":"https://raw.githubusercontent.com/thanglequoc/vietnamese-provinces-database/master/json/geojson/20_lang_son/wards/06286_khanh_khe.geojson","boundary_source_page":"https://github.com/thanglequoc/vietnamese-provinces-database/blob/master/json/geojson/20_lang_son/wards/06286_khanh_khe.geojson","source_catalog":"https://github.com/thanglequoc/vietnamese-provinces-database"},"geometry":null},{"type":"Feature","id":"06298","properties":{"commune_code":"06298","commune_name":"Yên Phúc","commune_name_en":"Yen Phuc","commune_full_name":"Xã Yên Phúc","commune_full_name_en":"Yen Phuc Commune","commune_slug":"yen_phuc","unit_type":"Xã","unit_type_en":"Commune","admin_level":2,"province_code":"20","province_name":"Lạng Sơn","province_full_name":"Tỉnh Lạng Sơn","province_slug":"lang_son","join_key":"06298","status":"active","dataset_effective_date":"2026-04-30","catalog_version":"2026-07-12","geometry_status":"not_embedded_boundary_available_by_url","boundary_source_url":"https://raw.githubusercontent.com/thanglequoc/vietnamese-provinces-database/master/json/geojson/20_lang_son/wards/06298_yen_phuc.geojson","boundary_source_page":"https://github.com/thanglequoc/vietnamese-provinces-database/blob/master/json/geojson/20_lang_son/wards/06298_yen_phuc.geojson","source_catalog":"https://github.com/thanglequoc/vietnamese-provinces-database"},"geometry":null},{"type":"Feature","id":"06313","properties":{"commune_code":"06313","commune_name":"Tri Lễ","commune_name_en":"Tri Le","commune_full_name":"Xã Tri Lễ","commune_full_name_en":"Tri Le Commune","commune_slug":"tri_le","unit_type":"Xã","unit_type_en":"Commune","admin_level":2,"province_code":"20","province_name":"Lạng Sơn","province_full_name":"Tỉnh Lạng Sơn","province_slug":"lang_son","join_key":"06313","status":"active","dataset_effective_date":"2026-04-30","catalog_version":"2026-07-12","geometry_status":"not_embedded_boundary_available_by_url","boundary_source_url":"https://raw.githubusercontent.com/thanglequoc/vietnamese-provinces-database/master/json/geojson/20_lang_son/wards/06313_tri_le.geojson","boundary_source_page":"https://github.com/thanglequoc/vietnamese-provinces-database/blob/master/json/geojson/20_lang_son/wards/06313_tri_le.geojson","source_catalog":"https://github.com/thanglequoc/vietnamese-provinces-database"},"geometry":null},{"type":"Feature","id":"06316","properties":{"commune_code":"06316","commune_name":"Tân Đoàn","commune_name_en":"Tan Doan","commune_full_name":"Xã Tân Đoàn","commune_full_name_en":"Tan Doan Commune","commune_slug":"tan_doan","unit_type":"Xã","unit_type_en":"Commune","admin_level":2,"province_code":"20","province_name":"Lạng Sơn","province_full_name":"Tỉnh Lạng Sơn","province_slug":"lang_son","join_key":"06316","status":"active","dataset_effective_date":"2026-04-30","catalog_version":"2026-07-12","geometry_status":"not_embedded_boundary_available_by_url","boundary_source_url":"https://raw.githubusercontent.com/thanglequoc/vietnamese-provinces-database/master/json/geojson/20_lang_son/wards/06316_tan_doan.geojson","boundary_source_page":"https://github.com/thanglequoc/vietnamese-provinces-database/blob/master/json/geojson/20_lang_son/wards/06316_tan_doan.geojson","source_catalog":"https://github.com/thanglequoc/vietnamese-provinces-database"},"geometry":null},{"type":"Feature","id":"06325","properties":{"commune_code":"06325","commune_name":"Bắc Sơn","commune_name_en":"Bac Son","commune_full_name":"xã Bắc Sơn","commune_full_name_en":"Bac Son Commune","commune_slug":"bac_son","unit_type":"Xã","unit_type_en":"Commune","admin_level":2,"province_code":"20","province_name":"Lạng Sơn","province_full_name":"Tỉnh Lạng Sơn","province_slug":"lang_son","join_key":"06325","status":"active","dataset_effective_date":"2026-04-30","catalog_version":"2026-07-12","geometry_status":"not_embedded_boundary_available_by_url","boundary_source_url":"https://raw.githubusercontent.com/thanglequoc/vietnamese-provinces-database/master/json/geojson/20_lang_son/wards/06325_bac_son.geojson","boundary_source_page":"https://github.com/thanglequoc/vietnamese-provinces-database/blob/master/json/geojson/20_lang_son/wards/06325_bac_son.geojson","source_catalog":"https://github.com/thanglequoc/vietnamese-provinces-database"},"geometry":null},{"type":"Feature","id":"06337","properties":{"commune_code":"06337","commune_name":"Tân Tri","commune_name_en":"Tan Tri","commune_full_name":"Xã Tân Tri","commune_full_name_en":"Tan Tri Commune","commune_slug":"tan_tri","unit_type":"Xã","unit_type_en":"Commune","admin_level":2,"province_code":"20","province_name":"Lạng Sơn","province_full_name":"Tỉnh Lạng Sơn","province_slug":"lang_son","join_key":"06337","status":"active","dataset_effective_date":"2026-04-30","catalog_version":"2026-07-12","geometry_status":"not_embedded_boundary_available_by_url","boundary_source_url":"https://raw.githubusercontent.com/thanglequoc/vietnamese-provinces-database/master/json/geojson/20_lang_son/wards/06337_tan_tri.geojson","boundary_source_page":"https://github.com/thanglequoc/vietnamese-provinces-database/blob/master/json/geojson/20_lang_son/wards/06337_tan_tri.geojson","source_catalog":"https://github.com/thanglequoc/vietnamese-provinces-database"},"geometry":null},{"type":"Feature","id":"06349","properties":{"commune_code":"06349","commune_name":"Hưng Vũ","commune_name_en":"Hung Vu","commune_full_name":"Xã Hưng Vũ","commune_full_name_en":"Hung Vu Commune","commune_slug":"hung_vu","unit_type":"Xã","unit_type_en":"Commune","admin_level":2,"province_code":"20","province_name":"Lạng Sơn","province_full_name":"Tỉnh Lạng Sơn","province_slug":"lang_son","join_key":"06349","status":"active","dataset_effective_date":"2026-04-30","catalog_version":"2026-07-12","geometry_status":"not_embedded_boundary_available_by_url","boundary_source_url":"https://raw.githubusercontent.com/thanglequoc/vietnamese-provinces-database/master/json/geojson/20_lang_son/wards/06349_hung_vu.geojson","boundary_source_page":"https://github.com/thanglequoc/vietnamese-provinces-database/blob/master/json/geojson/20_lang_son/wards/06349_hung_vu.geojson","source_catalog":"https://github.com/thanglequoc/vietnamese-provinces-database"},"geometry":null},{"type":"Feature","id":"06364","properties":{"commune_code":"06364","commune_name":"Vũ Lễ","commune_name_en":"Vu Le","commune_full_name":"Xã Vũ Lễ","commune_full_name_en":"Vu Le Commune","commune_slug":"vu_le","unit_type":"Xã","unit_type_en":"Commune","admin_level":2,"province_code":"20","province_name":"Lạng Sơn","province_full_name":"Tỉnh Lạng Sơn","province_slug":"lang_son","join_key":"06364","status":"active","dataset_effective_date":"2026-04-30","catalog_version":"2026-07-12","geometry_status":"not_embedded_boundary_available_by_url","boundary_source_url":"https://raw.githubusercontent.com/thanglequoc/vietnamese-provinces-database/master/json/geojson/20_lang_son/wards/06364_vu_le.geojson","boundary_source_page":"https://github.com/thanglequoc/vietnamese-provinces-database/blob/master/json/geojson/20_lang_son/wards/06364_vu_le.geojson","source_catalog":"https://github.com/thanglequoc/vietnamese-provinces-database"},"geometry":null},{"type":"Feature","id":"06367","properties":{"commune_code":"06367","commune_name":"Vũ Lăng","commune_name_en":"Vu Lang","commune_full_name":"Xã Vũ Lăng","commune_full_name_en":"Vu Lang Commune","commune_slug":"vu_lang","unit_type":"Xã","unit_type_en":"Commune","admin_level":2,"province_code":"20","province_name":"Lạng Sơn","province_full_name":"Tỉnh Lạng Sơn","province_slug":"lang_son","join_key":"06367","status":"active","dataset_effective_date":"2026-04-30","catalog_version":"2026-07-12","geometry_status":"not_embedded_boundary_available_by_url","boundary_source_url":"https://raw.githubusercontent.com/thanglequoc/vietnamese-provinces-database/master/json/geojson/20_lang_son/wards/06367_vu_lang.geojson","boundary_source_page":"https://github.com/thanglequoc/vietnamese-provinces-database/blob/master/json/geojson/20_lang_son/wards/06367_vu_lang.geojson","source_catalog":"https://github.com/thanglequoc/vietnamese-provinces-database"},"geometry":null},{"type":"Feature","id":"06376","properties":{"commune_code":"06376","commune_name":"Nhất Hoà","commune_name_en":"Nhat Hoa","commune_full_name":"Xã Nhất Hoà","commune_full_name_en":"Nhat Hoa Commune","commune_slug":"nhat_hoa","unit_type":"Xã","unit_type_en":"Commune","admin_level":2,"province_code":"20","province_name":"Lạng Sơn","province_full_name":"Tỉnh Lạng Sơn","province_slug":"lang_son","join_key":"06376","status":"active","dataset_effective_date":"2026-04-30","catalog_version":"2026-07-12","geometry_status":"not_embedded_boundary_available_by_url","boundary_source_url":"https://raw.githubusercontent.com/thanglequoc/vietnamese-provinces-database/master/json/geojson/20_lang_son/wards/06376_nhat_hoa.geojson","boundary_source_page":"https://github.com/thanglequoc/vietnamese-provinces-database/blob/master/json/geojson/20_lang_son/wards/06376_nhat_hoa.geojson","source_catalog":"https://github.com/thanglequoc/vietnamese-provinces-database"},"geometry":null},{"type":"Feature","id":"06385","properties":{"commune_code":"06385","commune_name":"Hữu Lũng","commune_name_en":"Huu Lung","commune_full_name":"Xã Hữu Lũng","commune_full_name_en":"Huu Lung Commune","commune_slug":"huu_lung","unit_type":"Xã","unit_type_en":"Commune","admin_level":2,"province_code":"20","province_name":"Lạng Sơn","province_full_name":"Tỉnh Lạng Sơn","province_slug":"lang_son","join_key":"06385","status":"active","dataset_effective_date":"2026-04-30","catalog_version":"2026-07-12","geometry_status":"not_embedded_boundary_available_by_url","boundary_source_url":"https://raw.githubusercontent.com/thanglequoc/vietnamese-provinces-database/master/json/geojson/20_lang_son/wards/06385_huu_lung.geojson","boundary_source_page":"https://github.com/thanglequoc/vietnamese-provinces-database/blob/master/json/geojson/20_lang_son/wards/06385_huu_lung.geojson","source_catalog":"https://github.com/thanglequoc/vietnamese-provinces-database"},"geometry":null},{"type":"Feature","id":"06391","properties":{"commune_code":"06391","commune_name":"Yên Bình","commune_name_en":"Yen Binh","commune_full_name":"Xã Yên Bình","commune_full_name_en":"Yen Binh Commune","commune_slug":"yen_binh","unit_type":"Xã","unit_type_en":"Commune","admin_level":2,"province_code":"20","province_name":"Lạng Sơn","province_full_name":"Tỉnh Lạng Sơn","province_slug":"lang_son","join_key":"06391","status":"active","dataset_effective_date":"2026-04-30","catalog_version":"2026-07-12","geometry_status":"not_embedded_boundary_available_by_url","boundary_source_url":"https://raw.githubusercontent.com/thanglequoc/vietnamese-provinces-database/master/json/geojson/20_lang_son/wards/06391_yen_binh.geojson","boundary_source_page":"https://github.com/thanglequoc/vietnamese-provinces-database/blob/master/json/geojson/20_lang_son/wards/06391_yen_binh.geojson","source_catalog":"https://github.com/thanglequoc/vietnamese-provinces-database"},"geometry":null},{"type":"Feature","id":"06400","properties":{"commune_code":"06400","commune_name":"Hữu Liên","commune_name_en":"Huu Lien","commune_full_name":"Xã Hữu Liên","commune_full_name_en":"Huu Lien Commune","commune_slug":"huu_lien","unit_type":"Xã","unit_type_en":"Commune","admin_level":2,"province_code":"20","province_name":"Lạng Sơn","province_full_name":"Tỉnh Lạng Sơn","province_slug":"lang_son","join_key":"06400","status":"active","dataset_effective_date":"2026-04-30","catalog_version":"2026-07-12","geometry_status":"not_embedded_boundary_available_by_url","boundary_source_url":"https://raw.githubusercontent.com/thanglequoc/vietnamese-provinces-database/master/json/geojson/20_lang_son/wards/06400_huu_lien.geojson","boundary_source_page":"https://github.com/thanglequoc/vietnamese-provinces-database/blob/master/json/geojson/20_lang_son/wards/06400_huu_lien.geojson","source_catalog":"https://github.com/thanglequoc/vietnamese-provinces-database"},"geometry":null},{"type":"Feature","id":"06415","properties":{"commune_code":"06415","commune_name":"Vân Nham","commune_name_en":"Van Nham","commune_full_name":"Xã Vân Nham","commune_full_name_en":"Van Nham Commune","commune_slug":"van_nham","unit_type":"Xã","unit_type_en":"Commune","admin_level":2,"province_code":"20","province_name":"Lạng Sơn","province_full_name":"Tỉnh Lạng Sơn","province_slug":"lang_son","join_key":"06415","status":"active","dataset_effective_date":"2026-04-30","catalog_version":"2026-07-12","geometry_status":"not_embedded_boundary_available_by_url","boundary_source_url":"https://raw.githubusercontent.com/thanglequoc/vietnamese-provinces-database/master/json/geojson/20_lang_son/wards/06415_van_nham.geojson","boundary_source_page":"https://github.com/thanglequoc/vietnamese-provinces-database/blob/master/json/geojson/20_lang_son/wards/06415_van_nham.geojson","source_catalog":"https://github.com/thanglequoc/vietnamese-provinces-database"},"geometry":null},{"type":"Feature","id":"06427","properties":{"commune_code":"06427","commune_name":"Cai Kinh","commune_name_en":"Cai Kinh","commune_full_name":"Xã Cai Kinh","commune_full_name_en":"Cai Kinh Commune","commune_slug":"cai_kinh","unit_type":"Xã","unit_type_en":"Commune","admin_level":2,"province_code":"20","province_name":"Lạng Sơn","province_full_name":"Tỉnh Lạng Sơn","province_slug":"lang_son","join_key":"06427","status":"active","dataset_effective_date":"2026-04-30","catalog_version":"2026-07-12","geometry_status":"not_embedded_boundary_available_by_url","boundary_source_url":"https://raw.githubusercontent.com/thanglequoc/vietnamese-provinces-database/master/json/geojson/20_lang_son/wards/06427_cai_kinh.geojson","boundary_source_page":"https://github.com/thanglequoc/vietnamese-provinces-database/blob/master/json/geojson/20_lang_son/wards/06427_cai_kinh.geojson","source_catalog":"https://github.com/thanglequoc/vietnamese-provinces-database"},"geometry":null},{"type":"Feature","id":"06436","properties":{"commune_code":"06436","commune_name":"Thiện Tân","commune_name_en":"Thien Tan","commune_full_name":"Xã Thiện Tân","commune_full_name_en":"Thien Tan Commune","commune_slug":"thien_tan","unit_type":"Xã","unit_type_en":"Commune","admin_level":2,"province_code":"20","province_name":"Lạng Sơn","province_full_name":"Tỉnh Lạng Sơn","province_slug":"lang_son","join_key":"06436","status":"active","dataset_effective_date":"2026-04-30","catalog_version":"2026-07-12","geometry_status":"not_embedded_boundary_available_by_url","boundary_source_url":"https://raw.githubusercontent.com/thanglequoc/vietnamese-provinces-database/master/json/geojson/20_lang_son/wards/06436_thien_tan.geojson","boundary_source_page":"https://github.com/thanglequoc/vietnamese-provinces-database/blob/master/json/geojson/20_lang_son/wards/06436_thien_tan.geojson","source_catalog":"https://github.com/thanglequoc/vietnamese-provinces-database"},"geometry":null},{"type":"Feature","id":"06445","properties":{"commune_code":"06445","commune_name":"Tân Thành","commune_name_en":"Tan Thanh","commune_full_name":"Xã Tân Thành","commune_full_name_en":"Tan Thanh Commune","commune_slug":"tan_thanh","unit_type":"Xã","unit_type_en":"Commune","admin_level":2,"province_code":"20","province_name":"Lạng Sơn","province_full_name":"Tỉnh Lạng Sơn","province_slug":"lang_son","join_key":"06445","status":"active","dataset_effective_date":"2026-04-30","catalog_version":"2026-07-12","geometry_status":"not_embedded_boundary_available_by_url","boundary_source_url":"https://raw.githubusercontent.com/thanglequoc/vietnamese-provinces-database/master/json/geojson/20_lang_son/wards/06445_tan_thanh.geojson","boundary_source_page":"https://github.com/thanglequoc/vietnamese-provinces-database/blob/master/json/geojson/20_lang_son/wards/06445_tan_thanh.geojson","source_catalog":"https://github.com/thanglequoc/vietnamese-provinces-database"},"geometry":null},{"type":"Feature","id":"06457","properties":{"commune_code":"06457","commune_name":"Tuấn Sơn","commune_name_en":"Tuan Son","commune_full_name":"Xã Tuấn Sơn","commune_full_name_en":"Tuan Son Commune","commune_slug":"tuan_son","unit_type":"Xã","unit_type_en":"Commune","admin_level":2,"province_code":"20","province_name":"Lạng Sơn","province_full_name":"Tỉnh Lạng Sơn","province_slug":"lang_son","join_key":"06457","status":"active","dataset_effective_date":"2026-04-30","catalog_version":"2026-07-12","geometry_status":"not_embedded_boundary_available_by_url","boundary_source_url":"https://raw.githubusercontent.com/thanglequoc/vietnamese-provinces-database/master/json/geojson/20_lang_son/wards/06457_tuan_son.geojson","boundary_source_page":"https://github.com/thanglequoc/vietnamese-provinces-database/blob/master/json/geojson/20_lang_son/wards/06457_tuan_son.geojson","source_catalog":"https://github.com/thanglequoc/vietnamese-provinces-database"},"geometry":null},{"type":"Feature","id":"06463","properties":{"commune_code":"06463","commune_name":"Chi Lăng","commune_name_en":"Chi Lang","commune_full_name":"Xã Chi Lăng","commune_full_name_en":"Chi Lang Commune","commune_slug":"chi_lang","unit_type":"Xã","unit_type_en":"Commune","admin_level":2,"province_code":"20","province_name":"Lạng Sơn","province_full_name":"Tỉnh Lạng Sơn","province_slug":"lang_son","join_key":"06463","status":"active","dataset_effective_date":"2026-04-30","catalog_version":"2026-07-12","geometry_status":"not_embedded_boundary_available_by_url","boundary_source_url":"https://raw.githubusercontent.com/thanglequoc/vietnamese-provinces-database/master/json/geojson/20_lang_son/wards/06463_chi_lang.geojson","boundary_source_page":"https://github.com/thanglequoc/vietnamese-provinces-database/blob/master/json/geojson/20_lang_son/wards/06463_chi_lang.geojson","source_catalog":"https://github.com/thanglequoc/vietnamese-provinces-database"},"geometry":null},{"type":"Feature","id":"06475","properties":{"commune_code":"06475","commune_name":"Bằng Mạc","commune_name_en":"Bang Mac","commune_full_name":"Xã Bằng Mạc","commune_full_name_en":"Bang Mac Commune","commune_slug":"bang_mac","unit_type":"Xã","unit_type_en":"Commune","admin_level":2,"province_code":"20","province_name":"Lạng Sơn","province_full_name":"Tỉnh Lạng Sơn","province_slug":"lang_son","join_key":"06475","status":"active","dataset_effective_date":"2026-04-30","catalog_version":"2026-07-12","geometry_status":"not_embedded_boundary_available_by_url","boundary_source_url":"https://raw.githubusercontent.com/thanglequoc/vietnamese-provinces-database/master/json/geojson/20_lang_son/wards/06475_bang_mac.geojson","boundary_source_page":"https://github.com/thanglequoc/vietnamese-provinces-database/blob/master/json/geojson/20_lang_son/wards/06475_bang_mac.geojson","source_catalog":"https://github.com/thanglequoc/vietnamese-provinces-database"},"geometry":null},{"type":"Feature","id":"06481","properties":{"commune_code":"06481","commune_name":"Chiến Thắng","commune_name_en":"Chien Thang","commune_full_name":"Xã Chiến Thắng","commune_full_name_en":"Chien Thang Commune","commune_slug":"chien_thang","unit_type":"Xã","unit_type_en":"Commune","admin_level":2,"province_code":"20","province_name":"Lạng Sơn","province_full_name":"Tỉnh Lạng Sơn","province_slug":"lang_son","join_key":"06481","status":"active","dataset_effective_date":"2026-04-30","catalog_version":"2026-07-12","geometry_status":"not_embedded_boundary_available_by_url","boundary_source_url":"https://raw.githubusercontent.com/thanglequoc/vietnamese-provinces-database/master/json/geojson/20_lang_son/wards/06481_chien_thang.geojson","boundary_source_page":"https://github.com/thanglequoc/vietnamese-provinces-database/blob/master/json/geojson/20_lang_son/wards/06481_chien_thang.geojson","source_catalog":"https://github.com/thanglequoc/vietnamese-provinces-database"},"geometry":null},{"type":"Feature","id":"06496","properties":{"commune_code":"06496","commune_name":"Nhân Lý","commune_name_en":"Nhan Ly","commune_full_name":"Xã Nhân Lý","commune_full_name_en":"Nhan Ly Commune","commune_slug":"nhan_ly","unit_type":"Xã","unit_type_en":"Commune","admin_level":2,"province_code":"20","province_name":"Lạng Sơn","province_full_name":"Tỉnh Lạng Sơn","province_slug":"lang_son","join_key":"06496","status":"active","dataset_effective_date":"2026-04-30","catalog_version":"2026-07-12","geometry_status":"not_embedded_boundary_available_by_url","boundary_source_url":"https://raw.githubusercontent.com/thanglequoc/vietnamese-provinces-database/master/json/geojson/20_lang_son/wards/06496_nhan_ly.geojson","boundary_source_page":"https://github.com/thanglequoc/vietnamese-provinces-database/blob/master/json/geojson/20_lang_son/wards/06496_nhan_ly.geojson","source_catalog":"https://github.com/thanglequoc/vietnamese-provinces-database"},"geometry":null},{"type":"Feature","id":"06505","properties":{"commune_code":"06505","commune_name":"Vạn Linh","commune_name_en":"Van Linh","commune_full_name":"Xã Vạn Linh","commune_full_name_en":"Van Linh Commune","commune_slug":"van_linh","unit_type":"Xã","unit_type_en":"Commune","admin_level":2,"province_code":"20","province_name":"Lạng Sơn","province_full_name":"Tỉnh Lạng Sơn","province_slug":"lang_son","join_key":"06505","status":"active","dataset_effective_date":"2026-04-30","catalog_version":"2026-07-12","geometry_status":"not_embedded_boundary_available_by_url","boundary_source_url":"https://raw.githubusercontent.com/thanglequoc/vietnamese-provinces-database/master/json/geojson/20_lang_son/wards/06505_van_linh.geojson","boundary_source_page":"https://github.com/thanglequoc/vietnamese-provinces-database/blob/master/json/geojson/20_lang_son/wards/06505_van_linh.geojson","source_catalog":"https://github.com/thanglequoc/vietnamese-provinces-database"},"geometry":null},{"type":"Feature","id":"06517","properties":{"commune_code":"06517","commune_name":"Quan Sơn","commune_name_en":"Quan Son","commune_full_name":"Xã Quan Sơn","commune_full_name_en":"Quan Son Commune","commune_slug":"quan_son","unit_type":"Xã","unit_type_en":"Commune","admin_level":2,"province_code":"20","province_name":"Lạng Sơn","province_full_name":"Tỉnh Lạng Sơn","province_slug":"lang_son","join_key":"06517","status":"active","dataset_effective_date":"2026-04-30","catalog_version":"2026-07-12","geometry_status":"not_embedded_boundary_available_by_url","boundary_source_url":"https://raw.githubusercontent.com/thanglequoc/vietnamese-provinces-database/master/json/geojson/20_lang_son/wards/06517_quan_son.geojson","boundary_source_page":"https://github.com/thanglequoc/vietnamese-provinces-database/blob/master/json/geojson/20_lang_son/wards/06517_quan_son.geojson","source_catalog":"https://github.com/thanglequoc/vietnamese-provinces-database"},"geometry":null},{"type":"Feature","id":"06526","properties":{"commune_code":"06526","commune_name":"Na Dương","commune_name_en":"Na Duong","commune_full_name":"Xã Na Dương","commune_full_name_en":"Na Duong Commune","commune_slug":"na_duong","unit_type":"Xã","unit_type_en":"Commune","admin_level":2,"province_code":"20","province_name":"Lạng Sơn","province_full_name":"Tỉnh Lạng Sơn","province_slug":"lang_son","join_key":"06526","status":"active","dataset_effective_date":"2026-04-30","catalog_version":"2026-07-12","geometry_status":"not_embedded_boundary_available_by_url","boundary_source_url":"https://raw.githubusercontent.com/thanglequoc/vietnamese-provinces-database/master/json/geojson/20_lang_son/wards/06526_na_duong.geojson","boundary_source_page":"https://github.com/thanglequoc/vietnamese-provinces-database/blob/master/json/geojson/20_lang_son/wards/06526_na_duong.geojson","source_catalog":"https://github.com/thanglequoc/vietnamese-provinces-database"},"geometry":null},{"type":"Feature","id":"06529","properties":{"commune_code":"06529","commune_name":"Lộc Bình","commune_name_en":"Loc Binh","commune_full_name":"Xã Lộc Bình","commune_full_name_en":"Loc Binh Commune","commune_slug":"loc_binh","unit_type":"Xã","unit_type_en":"Commune","admin_level":2,"province_code":"20","province_name":"Lạng Sơn","province_full_name":"Tỉnh Lạng Sơn","province_slug":"lang_son","join_key":"06529","status":"active","dataset_effective_date":"2026-04-30","catalog_version":"2026-07-12","geometry_status":"not_embedded_boundary_available_by_url","boundary_source_url":"https://raw.githubusercontent.com/thanglequoc/vietnamese-provinces-database/master/json/geojson/20_lang_son/wards/06529_loc_binh.geojson","boundary_source_page":"https://github.com/thanglequoc/vietnamese-provinces-database/blob/master/json/geojson/20_lang_son/wards/06529_loc_binh.geojson","source_catalog":"https://github.com/thanglequoc/vietnamese-provinces-database"},"geometry":null},{"type":"Feature","id":"06541","properties":{"commune_code":"06541","commune_name":"Mẫu Sơn","commune_name_en":"Mau Son","commune_full_name":"Xã Mẫu Sơn","commune_full_name_en":"Mau Son Commune","commune_slug":"mau_son","unit_type":"Xã","unit_type_en":"Commune","admin_level":2,"province_code":"20","province_name":"Lạng Sơn","province_full_name":"Tỉnh Lạng Sơn","province_slug":"lang_son","join_key":"06541","status":"active","dataset_effective_date":"2026-04-30","catalog_version":"2026-07-12","geometry_status":"not_embedded_boundary_available_by_url","boundary_source_url":"https://raw.githubusercontent.com/thanglequoc/vietnamese-provinces-database/master/json/geojson/20_lang_son/wards/06541_mau_son.geojson","boundary_source_page":"https://github.com/thanglequoc/vietnamese-provinces-database/blob/master/json/geojson/20_lang_son/wards/06541_mau_son.geojson","source_catalog":"https://github.com/thanglequoc/vietnamese-provinces-database"},"geometry":null},{"type":"Feature","id":"06565","properties":{"commune_code":"06565","commune_name":"Khuất Xá","commune_name_en":"Khuat Xa","commune_full_name":"Xã Khuất Xá","commune_full_name_en":"Khuat Xa Commune","commune_slug":"khuat_xa","unit_type":"Xã","unit_type_en":"Commune","admin_level":2,"province_code":"20","province_name":"Lạng Sơn","province_full_name":"Tỉnh Lạng Sơn","province_slug":"lang_son","join_key":"06565","status":"active","dataset_effective_date":"2026-04-30","catalog_version":"2026-07-12","geometry_status":"not_embedded_boundary_available_by_url","boundary_source_url":"https://raw.githubusercontent.com/thanglequoc/vietnamese-provinces-database/master/json/geojson/20_lang_son/wards/06565_khuat_xa.geojson","boundary_source_page":"https://github.com/thanglequoc/vietnamese-provinces-database/blob/master/json/geojson/20_lang_son/wards/06565_khuat_xa.geojson","source_catalog":"https://github.com/thanglequoc/vietnamese-provinces-database"},"geometry":null},{"type":"Feature","id":"06577","properties":{"commune_code":"06577","commune_name":"Thống Nhất","commune_name_en":"Thong Nhat","commune_full_name":"Xã Thống Nhất","commune_full_name_en":"Thong Nhat Commune","commune_slug":"thong_nhat","unit_type":"Xã","unit_type_en":"Commune","admin_level":2,"province_code":"20","province_name":"Lạng Sơn","province_full_name":"Tỉnh Lạng Sơn","province_slug":"lang_son","join_key":"06577","status":"active","dataset_effective_date":"2026-04-30","catalog_version":"2026-07-12","geometry_status":"not_embedded_boundary_available_by_url","boundary_source_url":"https://raw.githubusercontent.com/thanglequoc/vietnamese-provinces-database/master/json/geojson/20_lang_son/wards/06577_thong_nhat.geojson","boundary_source_page":"https://github.com/thanglequoc/vietnamese-provinces-database/blob/master/json/geojson/20_lang_son/wards/06577_thong_nhat.geojson","source_catalog":"https://github.com/thanglequoc/vietnamese-provinces-database"},"geometry":null},{"type":"Feature","id":"06601","properties":{"commune_code":"06601","commune_name":"Lợi Bác","commune_name_en":"Loi Bac","commune_full_name":"Xã Lợi Bác","commune_full_name_en":"Loi Bac Commune","commune_slug":"loi_bac","unit_type":"Xã","unit_type_en":"Commune","admin_level":2,"province_code":"20","province_name":"Lạng Sơn","province_full_name":"Tỉnh Lạng Sơn","province_slug":"lang_son","join_key":"06601","status":"active","dataset_effective_date":"2026-04-30","catalog_version":"2026-07-12","geometry_status":"not_embedded_boundary_available_by_url","boundary_source_url":"https://raw.githubusercontent.com/thanglequoc/vietnamese-provinces-database/master/json/geojson/20_lang_son/wards/06601_loi_bac.geojson","boundary_source_page":"https://github.com/thanglequoc/vietnamese-provinces-database/blob/master/json/geojson/20_lang_son/wards/06601_loi_bac.geojson","source_catalog":"https://github.com/thanglequoc/vietnamese-provinces-database"},"geometry":null},{"type":"Feature","id":"06607","properties":{"commune_code":"06607","commune_name":"Xuân Dương","commune_name_en":"Xuan Duong","commune_full_name":"Xã Xuân Dương","commune_full_name_en":"Xuan Duong Commune","commune_slug":"xuan_duong","unit_type":"Xã","unit_type_en":"Commune","admin_level":2,"province_code":"20","province_name":"Lạng Sơn","province_full_name":"Tỉnh Lạng Sơn","province_slug":"lang_son","join_key":"06607","status":"active","dataset_effective_date":"2026-04-30","catalog_version":"2026-07-12","geometry_status":"not_embedded_boundary_available_by_url","boundary_source_url":"https://raw.githubusercontent.com/thanglequoc/vietnamese-provinces-database/master/json/geojson/20_lang_son/wards/06607_xuan_duong.geojson","boundary_source_page":"https://github.com/thanglequoc/vietnamese-provinces-database/blob/master/json/geojson/20_lang_son/wards/06607_xuan_duong.geojson","source_catalog":"https://github.com/thanglequoc/vietnamese-provinces-database"},"geometry":null},{"type":"Feature","id":"06613","properties":{"commune_code":"06613","commune_name":"Đình Lập","commune_name_en":"Dinh Lap","commune_full_name":"Xã Đình Lập","commune_full_name_en":"Dinh Lap Commune","commune_slug":"dinh_lap","unit_type":"Xã","unit_type_en":"Commune","admin_level":2,"province_code":"20","province_name":"Lạng Sơn","province_full_name":"Tỉnh Lạng Sơn","province_slug":"lang_son","join_key":"06613","status":"active","dataset_effective_date":"2026-04-30","catalog_version":"2026-07-12","geometry_status":"not_embedded_boundary_available_by_url","boundary_source_url":"https://raw.githubusercontent.com/thanglequoc/vietnamese-provinces-database/master/json/geojson/20_lang_son/wards/06613_dinh_lap.geojson","boundary_source_page":"https://github.com/thanglequoc/vietnamese-provinces-database/blob/master/json/geojson/20_lang_son/wards/06613_dinh_lap.geojson","source_catalog":"https://github.com/thanglequoc/vietnamese-provinces-database"},"geometry":null},{"type":"Feature","id":"06616","properties":{"commune_code":"06616","commune_name":"Thái Bình","commune_name_en":"Thai Binh","commune_full_name":"Xã Thái Bình","commune_full_name_en":"Thai Binh Commune","commune_slug":"thai_binh","unit_type":"Xã","unit_type_en":"Commune","admin_level":2,"province_code":"20","province_name":"Lạng Sơn","province_full_name":"Tỉnh Lạng Sơn","province_slug":"lang_son","join_key":"06616","status":"active","dataset_effective_date":"2026-04-30","catalog_version":"2026-07-12","geometry_status":"not_embedded_boundary_available_by_url","boundary_source_url":"https://raw.githubusercontent.com/thanglequoc/vietnamese-provinces-database/master/json/geojson/20_lang_son/wards/06616_thai_binh.geojson","boundary_source_page":"https://github.com/thanglequoc/vietnamese-provinces-database/blob/master/json/geojson/20_lang_son/wards/06616_thai_binh.geojson","source_catalog":"https://github.com/thanglequoc/vietnamese-provinces-database"},"geometry":null},{"type":"Feature","id":"06625","properties":{"commune_code":"06625","commune_name":"Kiên Mộc","commune_name_en":"Kien Moc","commune_full_name":"Xã Kiên Mộc","commune_full_name_en":"Kien Moc Commune","commune_slug":"kien_moc","unit_type":"Xã","unit_type_en":"Commune","admin_level":2,"province_code":"20","province_name":"Lạng Sơn","province_full_name":"Tỉnh Lạng Sơn","province_slug":"lang_son","join_key":"06625","status":"active","dataset_effective_date":"2026-04-30","catalog_version":"2026-07-12","geometry_status":"not_embedded_boundary_available_by_url","boundary_source_url":"https://raw.githubusercontent.com/thanglequoc/vietnamese-provinces-database/master/json/geojson/20_lang_son/wards/06625_kien_moc.geojson","boundary_source_page":"https://github.com/thanglequoc/vietnamese-provinces-database/blob/master/json/geojson/20_lang_son/wards/06625_kien_moc.geojson","source_catalog":"https://github.com/thanglequoc/vietnamese-provinces-database"},"geometry":null},{"type":"Feature","id":"06637","properties":{"commune_code":"06637","commune_name":"Châu Sơn","commune_name_en":"Chau Son","commune_full_name":"Xã Châu Sơn","commune_full_name_en":"Chau Son Commune","commune_slug":"chau_son","unit_type":"Xã","unit_type_en":"Commune","admin_level":2,"province_code":"20","province_name":"Lạng Sơn","province_full_name":"Tỉnh Lạng Sơn","province_slug":"lang_son","join_key":"06637","status":"active","dataset_effective_date":"2026-04-30","catalog_version":"2026-07-12","geometry_status":"not_embedded_boundary_available_by_url","boundary_source_url":"https://raw.githubusercontent.com/thanglequoc/vietnamese-provinces-database/master/json/geojson/20_lang_son/wards/06637_chau_son.geojson","boundary_source_page":"https://github.com/thanglequoc/vietnamese-provinces-database/blob/master/json/geojson/20_lang_son/wards/06637_chau_son.geojson","source_catalog":"https://github.com/thanglequoc/vietnamese-provinces-database"},"geometry":null}]}