{"type":"FeatureCollection","name":"44_quang_tri_communes_attributes","metadata":{"province_code":"44","province_name":"Quảng Trị","feature_count":78,"geometry":null,"join_key":"commune_code"},"features":[{"type":"Feature","id":"18859","properties":{"commune_code":"18859","commune_name":"Đồng Thuận","commune_name_en":"Dong Thuan","commune_full_name":"Phường Đồng Thuận","commune_full_name_en":"Dong Thuan Ward","commune_slug":"dong_thuan","unit_type":"Phường","unit_type_en":"Ward","admin_level":2,"province_code":"44","province_name":"Quảng Trị","province_full_name":"Tỉnh Quảng Trị","province_slug":"quang_tri","join_key":"18859","status":"active","dataset_effective_date":"2026-04-30","catalog_version":"2026-07-12","geometry_status":"not_embedded_boundary_available_by_url","boundary_source_url":"https://raw.githubusercontent.com/thanglequoc/vietnamese-provinces-database/master/json/geojson/44_quang_tri/wards/18859_dong_thuan.geojson","boundary_source_page":"https://github.com/thanglequoc/vietnamese-provinces-database/blob/master/json/geojson/44_quang_tri/wards/18859_dong_thuan.geojson","source_catalog":"https://github.com/thanglequoc/vietnamese-provinces-database"},"geometry":null},{"type":"Feature","id":"18871","properties":{"commune_code":"18871","commune_name":"Đồng Sơn","commune_name_en":"Dong Son","commune_full_name":"Phường Đồng Sơn","commune_full_name_en":"Dong Son Ward","commune_slug":"dong_son","unit_type":"Phường","unit_type_en":"Ward","admin_level":2,"province_code":"44","province_name":"Quảng Trị","province_full_name":"Tỉnh Quảng Trị","province_slug":"quang_tri","join_key":"18871","status":"active","dataset_effective_date":"2026-04-30","catalog_version":"2026-07-12","geometry_status":"not_embedded_boundary_available_by_url","boundary_source_url":"https://raw.githubusercontent.com/thanglequoc/vietnamese-provinces-database/master/json/geojson/44_quang_tri/wards/18871_dong_son.geojson","boundary_source_page":"https://github.com/thanglequoc/vietnamese-provinces-database/blob/master/json/geojson/44_quang_tri/wards/18871_dong_son.geojson","source_catalog":"https://github.com/thanglequoc/vietnamese-provinces-database"},"geometry":null},{"type":"Feature","id":"18880","properties":{"commune_code":"18880","commune_name":"Đồng Hới","commune_name_en":"Dong Hoi","commune_full_name":"Phường Đồng Hới","commune_full_name_en":"Dong Hoi Ward","commune_slug":"dong_hoi","unit_type":"Phường","unit_type_en":"Ward","admin_level":2,"province_code":"44","province_name":"Quảng Trị","province_full_name":"Tỉnh Quảng Trị","province_slug":"quang_tri","join_key":"18880","status":"active","dataset_effective_date":"2026-04-30","catalog_version":"2026-07-12","geometry_status":"not_embedded_boundary_available_by_url","boundary_source_url":"https://raw.githubusercontent.com/thanglequoc/vietnamese-provinces-database/master/json/geojson/44_quang_tri/wards/18880_dong_hoi.geojson","boundary_source_page":"https://github.com/thanglequoc/vietnamese-provinces-database/blob/master/json/geojson/44_quang_tri/wards/18880_dong_hoi.geojson","source_catalog":"https://github.com/thanglequoc/vietnamese-provinces-database"},"geometry":null},{"type":"Feature","id":"18901","properties":{"commune_code":"18901","commune_name":"Minh Hoá","commune_name_en":"Minh Hoa","commune_full_name":"Xã Minh Hoá","commune_full_name_en":"Minh Hoa Commune","commune_slug":"minh_hoa","unit_type":"Xã","unit_type_en":"Commune","admin_level":2,"province_code":"44","province_name":"Quảng Trị","province_full_name":"Tỉnh Quảng Trị","province_slug":"quang_tri","join_key":"18901","status":"active","dataset_effective_date":"2026-04-30","catalog_version":"2026-07-12","geometry_status":"not_embedded_boundary_available_by_url","boundary_source_url":"https://raw.githubusercontent.com/thanglequoc/vietnamese-provinces-database/master/json/geojson/44_quang_tri/wards/18901_minh_hoa.geojson","boundary_source_page":"https://github.com/thanglequoc/vietnamese-provinces-database/blob/master/json/geojson/44_quang_tri/wards/18901_minh_hoa.geojson","source_catalog":"https://github.com/thanglequoc/vietnamese-provinces-database"},"geometry":null},{"type":"Feature","id":"18904","properties":{"commune_code":"18904","commune_name":"Dân Hoá","commune_name_en":"Dan Hoa","commune_full_name":"Xã Dân Hoá","commune_full_name_en":"Dan Hoa Commune","commune_slug":"dan_hoa","unit_type":"Xã","unit_type_en":"Commune","admin_level":2,"province_code":"44","province_name":"Quảng Trị","province_full_name":"Tỉnh Quảng Trị","province_slug":"quang_tri","join_key":"18904","status":"active","dataset_effective_date":"2026-04-30","catalog_version":"2026-07-12","geometry_status":"not_embedded_boundary_available_by_url","boundary_source_url":"https://raw.githubusercontent.com/thanglequoc/vietnamese-provinces-database/master/json/geojson/44_quang_tri/wards/18904_dan_hoa.geojson","boundary_source_page":"https://github.com/thanglequoc/vietnamese-provinces-database/blob/master/json/geojson/44_quang_tri/wards/18904_dan_hoa.geojson","source_catalog":"https://github.com/thanglequoc/vietnamese-provinces-database"},"geometry":null},{"type":"Feature","id":"18919","properties":{"commune_code":"18919","commune_name":"Tân Thành","commune_name_en":"Tan Thanh","commune_full_name":"Xã Tân Thành","commune_full_name_en":"Tan Thanh Commune","commune_slug":"tan_thanh","unit_type":"Xã","unit_type_en":"Commune","admin_level":2,"province_code":"44","province_name":"Quảng Trị","province_full_name":"Tỉnh Quảng Trị","province_slug":"quang_tri","join_key":"18919","status":"active","dataset_effective_date":"2026-04-30","catalog_version":"2026-07-12","geometry_status":"not_embedded_boundary_available_by_url","boundary_source_url":"https://raw.githubusercontent.com/thanglequoc/vietnamese-provinces-database/master/json/geojson/44_quang_tri/wards/18919_tan_thanh.geojson","boundary_source_page":"https://github.com/thanglequoc/vietnamese-provinces-database/blob/master/json/geojson/44_quang_tri/wards/18919_tan_thanh.geojson","source_catalog":"https://github.com/thanglequoc/vietnamese-provinces-database"},"geometry":null},{"type":"Feature","id":"18922","properties":{"commune_code":"18922","commune_name":"Kim Điền","commune_name_en":"Kim Dien","commune_full_name":"Xã Kim Điền","commune_full_name_en":"Kim Dien Commune","commune_slug":"kim_dien","unit_type":"Xã","unit_type_en":"Commune","admin_level":2,"province_code":"44","province_name":"Quảng Trị","province_full_name":"Tỉnh Quảng Trị","province_slug":"quang_tri","join_key":"18922","status":"active","dataset_effective_date":"2026-04-30","catalog_version":"2026-07-12","geometry_status":"not_embedded_boundary_available_by_url","boundary_source_url":"https://raw.githubusercontent.com/thanglequoc/vietnamese-provinces-database/master/json/geojson/44_quang_tri/wards/18922_kim_dien.geojson","boundary_source_page":"https://github.com/thanglequoc/vietnamese-provinces-database/blob/master/json/geojson/44_quang_tri/wards/18922_kim_dien.geojson","source_catalog":"https://github.com/thanglequoc/vietnamese-provinces-database"},"geometry":null},{"type":"Feature","id":"18943","properties":{"commune_code":"18943","commune_name":"Kim Phú","commune_name_en":"Kim Phu","commune_full_name":"Xã Kim Phú","commune_full_name_en":"Kim Phu Commune","commune_slug":"kim_phu","unit_type":"Xã","unit_type_en":"Commune","admin_level":2,"province_code":"44","province_name":"Quảng Trị","province_full_name":"Tỉnh Quảng Trị","province_slug":"quang_tri","join_key":"18943","status":"active","dataset_effective_date":"2026-04-30","catalog_version":"2026-07-12","geometry_status":"not_embedded_boundary_available_by_url","boundary_source_url":"https://raw.githubusercontent.com/thanglequoc/vietnamese-provinces-database/master/json/geojson/44_quang_tri/wards/18943_kim_phu.geojson","boundary_source_page":"https://github.com/thanglequoc/vietnamese-provinces-database/blob/master/json/geojson/44_quang_tri/wards/18943_kim_phu.geojson","source_catalog":"https://github.com/thanglequoc/vietnamese-provinces-database"},"geometry":null},{"type":"Feature","id":"18949","properties":{"commune_code":"18949","commune_name":"Đồng Lê","commune_name_en":"Dong Le","commune_full_name":"Xã Đồng Lê","commune_full_name_en":"Dong Le Commune","commune_slug":"dong_le","unit_type":"Xã","unit_type_en":"Commune","admin_level":2,"province_code":"44","province_name":"Quảng Trị","province_full_name":"Tỉnh Quảng Trị","province_slug":"quang_tri","join_key":"18949","status":"active","dataset_effective_date":"2026-04-30","catalog_version":"2026-07-12","geometry_status":"not_embedded_boundary_available_by_url","boundary_source_url":"https://raw.githubusercontent.com/thanglequoc/vietnamese-provinces-database/master/json/geojson/44_quang_tri/wards/18949_dong_le.geojson","boundary_source_page":"https://github.com/thanglequoc/vietnamese-provinces-database/blob/master/json/geojson/44_quang_tri/wards/18949_dong_le.geojson","source_catalog":"https://github.com/thanglequoc/vietnamese-provinces-database"},"geometry":null},{"type":"Feature","id":"18952","properties":{"commune_code":"18952","commune_name":"Tuyên Sơn","commune_name_en":"Tuyen Son","commune_full_name":"Xã Tuyên Sơn","commune_full_name_en":"Tuyen Son Commune","commune_slug":"tuyen_son","unit_type":"Xã","unit_type_en":"Commune","admin_level":2,"province_code":"44","province_name":"Quảng Trị","province_full_name":"Tỉnh Quảng Trị","province_slug":"quang_tri","join_key":"18952","status":"active","dataset_effective_date":"2026-04-30","catalog_version":"2026-07-12","geometry_status":"not_embedded_boundary_available_by_url","boundary_source_url":"https://raw.githubusercontent.com/thanglequoc/vietnamese-provinces-database/master/json/geojson/44_quang_tri/wards/18952_tuyen_son.geojson","boundary_source_page":"https://github.com/thanglequoc/vietnamese-provinces-database/blob/master/json/geojson/44_quang_tri/wards/18952_tuyen_son.geojson","source_catalog":"https://github.com/thanglequoc/vietnamese-provinces-database"},"geometry":null},{"type":"Feature","id":"18958","properties":{"commune_code":"18958","commune_name":"Tuyên Lâm","commune_name_en":"Tuyen Lam","commune_full_name":"Xã Tuyên Lâm","commune_full_name_en":"Tuyen Lam Commune","commune_slug":"tuyen_lam","unit_type":"Xã","unit_type_en":"Commune","admin_level":2,"province_code":"44","province_name":"Quảng Trị","province_full_name":"Tỉnh Quảng Trị","province_slug":"quang_tri","join_key":"18958","status":"active","dataset_effective_date":"2026-04-30","catalog_version":"2026-07-12","geometry_status":"not_embedded_boundary_available_by_url","boundary_source_url":"https://raw.githubusercontent.com/thanglequoc/vietnamese-provinces-database/master/json/geojson/44_quang_tri/wards/18958_tuyen_lam.geojson","boundary_source_page":"https://github.com/thanglequoc/vietnamese-provinces-database/blob/master/json/geojson/44_quang_tri/wards/18958_tuyen_lam.geojson","source_catalog":"https://github.com/thanglequoc/vietnamese-provinces-database"},"geometry":null},{"type":"Feature","id":"18985","properties":{"commune_code":"18985","commune_name":"Tuyên Phú","commune_name_en":"Tuyen Phu","commune_full_name":"Xã Tuyên Phú","commune_full_name_en":"Tuyen Phu Commune","commune_slug":"tuyen_phu","unit_type":"Xã","unit_type_en":"Commune","admin_level":2,"province_code":"44","province_name":"Quảng Trị","province_full_name":"Tỉnh Quảng Trị","province_slug":"quang_tri","join_key":"18985","status":"active","dataset_effective_date":"2026-04-30","catalog_version":"2026-07-12","geometry_status":"not_embedded_boundary_available_by_url","boundary_source_url":"https://raw.githubusercontent.com/thanglequoc/vietnamese-provinces-database/master/json/geojson/44_quang_tri/wards/18985_tuyen_phu.geojson","boundary_source_page":"https://github.com/thanglequoc/vietnamese-provinces-database/blob/master/json/geojson/44_quang_tri/wards/18985_tuyen_phu.geojson","source_catalog":"https://github.com/thanglequoc/vietnamese-provinces-database"},"geometry":null},{"type":"Feature","id":"18991","properties":{"commune_code":"18991","commune_name":"Tuyên Bình","commune_name_en":"Tuyen Binh","commune_full_name":"Xã Tuyên Bình","commune_full_name_en":"Tuyen Binh Commune","commune_slug":"tuyen_binh","unit_type":"Xã","unit_type_en":"Commune","admin_level":2,"province_code":"44","province_name":"Quảng Trị","province_full_name":"Tỉnh Quảng Trị","province_slug":"quang_tri","join_key":"18991","status":"active","dataset_effective_date":"2026-04-30","catalog_version":"2026-07-12","geometry_status":"not_embedded_boundary_available_by_url","boundary_source_url":"https://raw.githubusercontent.com/thanglequoc/vietnamese-provinces-database/master/json/geojson/44_quang_tri/wards/18991_tuyen_binh.geojson","boundary_source_page":"https://github.com/thanglequoc/vietnamese-provinces-database/blob/master/json/geojson/44_quang_tri/wards/18991_tuyen_binh.geojson","source_catalog":"https://github.com/thanglequoc/vietnamese-provinces-database"},"geometry":null},{"type":"Feature","id":"18997","properties":{"commune_code":"18997","commune_name":"Tuyên Hoá","commune_name_en":"Tuyen Hoa","commune_full_name":"Xã Tuyên Hoá","commune_full_name_en":"Tuyen Hoa Commune","commune_slug":"tuyen_hoa","unit_type":"Xã","unit_type_en":"Commune","admin_level":2,"province_code":"44","province_name":"Quảng Trị","province_full_name":"Tỉnh Quảng Trị","province_slug":"quang_tri","join_key":"18997","status":"active","dataset_effective_date":"2026-04-30","catalog_version":"2026-07-12","geometry_status":"not_embedded_boundary_available_by_url","boundary_source_url":"https://raw.githubusercontent.com/thanglequoc/vietnamese-provinces-database/master/json/geojson/44_quang_tri/wards/18997_tuyen_hoa.geojson","boundary_source_page":"https://github.com/thanglequoc/vietnamese-provinces-database/blob/master/json/geojson/44_quang_tri/wards/18997_tuyen_hoa.geojson","source_catalog":"https://github.com/thanglequoc/vietnamese-provinces-database"},"geometry":null},{"type":"Feature","id":"19009","properties":{"commune_code":"19009","commune_name":"Ba Đồn","commune_name_en":"Ba Don","commune_full_name":"Phường Ba Đồn","commune_full_name_en":"Ba Don Ward","commune_slug":"ba_don","unit_type":"Phường","unit_type_en":"Ward","admin_level":2,"province_code":"44","province_name":"Quảng Trị","province_full_name":"Tỉnh Quảng Trị","province_slug":"quang_tri","join_key":"19009","status":"active","dataset_effective_date":"2026-04-30","catalog_version":"2026-07-12","geometry_status":"not_embedded_boundary_available_by_url","boundary_source_url":"https://raw.githubusercontent.com/thanglequoc/vietnamese-provinces-database/master/json/geojson/44_quang_tri/wards/19009_ba_don.geojson","boundary_source_page":"https://github.com/thanglequoc/vietnamese-provinces-database/blob/master/json/geojson/44_quang_tri/wards/19009_ba_don.geojson","source_catalog":"https://github.com/thanglequoc/vietnamese-provinces-database"},"geometry":null},{"type":"Feature","id":"19021","properties":{"commune_code":"19021","commune_name":"Phú Trạch","commune_name_en":"Phu Trach","commune_full_name":"Xã Phú Trạch","commune_full_name_en":"Phu Trach Commune","commune_slug":"phu_trach","unit_type":"Xã","unit_type_en":"Commune","admin_level":2,"province_code":"44","province_name":"Quảng Trị","province_full_name":"Tỉnh Quảng Trị","province_slug":"quang_tri","join_key":"19021","status":"active","dataset_effective_date":"2026-04-30","catalog_version":"2026-07-12","geometry_status":"not_embedded_boundary_available_by_url","boundary_source_url":"https://raw.githubusercontent.com/thanglequoc/vietnamese-provinces-database/master/json/geojson/44_quang_tri/wards/19021_phu_trach.geojson","boundary_source_page":"https://github.com/thanglequoc/vietnamese-provinces-database/blob/master/json/geojson/44_quang_tri/wards/19021_phu_trach.geojson","source_catalog":"https://github.com/thanglequoc/vietnamese-provinces-database"},"geometry":null},{"type":"Feature","id":"19030","properties":{"commune_code":"19030","commune_name":"Trung Thuần","commune_name_en":"Trung Thuan","commune_full_name":"Xã Trung Thuần","commune_full_name_en":"Trung Thuan Commune","commune_slug":"trung_thuan","unit_type":"Xã","unit_type_en":"Commune","admin_level":2,"province_code":"44","province_name":"Quảng Trị","province_full_name":"Tỉnh Quảng Trị","province_slug":"quang_tri","join_key":"19030","status":"active","dataset_effective_date":"2026-04-30","catalog_version":"2026-07-12","geometry_status":"not_embedded_boundary_available_by_url","boundary_source_url":"https://raw.githubusercontent.com/thanglequoc/vietnamese-provinces-database/master/json/geojson/44_quang_tri/wards/19030_trung_thuan.geojson","boundary_source_page":"https://github.com/thanglequoc/vietnamese-provinces-database/blob/master/json/geojson/44_quang_tri/wards/19030_trung_thuan.geojson","source_catalog":"https://github.com/thanglequoc/vietnamese-provinces-database"},"geometry":null},{"type":"Feature","id":"19033","properties":{"commune_code":"19033","commune_name":"Hoà Trạch","commune_name_en":"Hoa Trach","commune_full_name":"Xã Hoà Trạch","commune_full_name_en":"Hoa Trach Commune","commune_slug":"hoa_trach","unit_type":"Xã","unit_type_en":"Commune","admin_level":2,"province_code":"44","province_name":"Quảng Trị","province_full_name":"Tỉnh Quảng Trị","province_slug":"quang_tri","join_key":"19033","status":"active","dataset_effective_date":"2026-04-30","catalog_version":"2026-07-12","geometry_status":"not_embedded_boundary_available_by_url","boundary_source_url":"https://raw.githubusercontent.com/thanglequoc/vietnamese-provinces-database/master/json/geojson/44_quang_tri/wards/19033_hoa_trach.geojson","boundary_source_page":"https://github.com/thanglequoc/vietnamese-provinces-database/blob/master/json/geojson/44_quang_tri/wards/19033_hoa_trach.geojson","source_catalog":"https://github.com/thanglequoc/vietnamese-provinces-database"},"geometry":null},{"type":"Feature","id":"19051","properties":{"commune_code":"19051","commune_name":"Tân Gianh","commune_name_en":"Tan Gianh","commune_full_name":"Xã Tân Gianh","commune_full_name_en":"Tan Gianh Commune","commune_slug":"tan_gianh","unit_type":"Xã","unit_type_en":"Commune","admin_level":2,"province_code":"44","province_name":"Quảng Trị","province_full_name":"Tỉnh Quảng Trị","province_slug":"quang_tri","join_key":"19051","status":"active","dataset_effective_date":"2026-04-30","catalog_version":"2026-07-12","geometry_status":"not_embedded_boundary_available_by_url","boundary_source_url":"https://raw.githubusercontent.com/thanglequoc/vietnamese-provinces-database/master/json/geojson/44_quang_tri/wards/19051_tan_gianh.geojson","boundary_source_page":"https://github.com/thanglequoc/vietnamese-provinces-database/blob/master/json/geojson/44_quang_tri/wards/19051_tan_gianh.geojson","source_catalog":"https://github.com/thanglequoc/vietnamese-provinces-database"},"geometry":null},{"type":"Feature","id":"19057","properties":{"commune_code":"19057","commune_name":"Quảng Trạch","commune_name_en":"Quang Trach","commune_full_name":"Xã Quảng Trạch","commune_full_name_en":"Quang Trach Commune","commune_slug":"quang_trach","unit_type":"Xã","unit_type_en":"Commune","admin_level":2,"province_code":"44","province_name":"Quảng Trị","province_full_name":"Tỉnh Quảng Trị","province_slug":"quang_tri","join_key":"19057","status":"active","dataset_effective_date":"2026-04-30","catalog_version":"2026-07-12","geometry_status":"not_embedded_boundary_available_by_url","boundary_source_url":"https://raw.githubusercontent.com/thanglequoc/vietnamese-provinces-database/master/json/geojson/44_quang_tri/wards/19057_quang_trach.geojson","boundary_source_page":"https://github.com/thanglequoc/vietnamese-provinces-database/blob/master/json/geojson/44_quang_tri/wards/19057_quang_trach.geojson","source_catalog":"https://github.com/thanglequoc/vietnamese-provinces-database"},"geometry":null},{"type":"Feature","id":"19066","properties":{"commune_code":"19066","commune_name":"Bắc Gianh","commune_name_en":"Bac Gianh","commune_full_name":"Phường Bắc Gianh","commune_full_name_en":"Bac Gianh Ward","commune_slug":"bac_gianh","unit_type":"Phường","unit_type_en":"Ward","admin_level":2,"province_code":"44","province_name":"Quảng Trị","province_full_name":"Tỉnh Quảng Trị","province_slug":"quang_tri","join_key":"19066","status":"active","dataset_effective_date":"2026-04-30","catalog_version":"2026-07-12","geometry_status":"not_embedded_boundary_available_by_url","boundary_source_url":"https://raw.githubusercontent.com/thanglequoc/vietnamese-provinces-database/master/json/geojson/44_quang_tri/wards/19066_bac_gianh.geojson","boundary_source_page":"https://github.com/thanglequoc/vietnamese-provinces-database/blob/master/json/geojson/44_quang_tri/wards/19066_bac_gianh.geojson","source_catalog":"https://github.com/thanglequoc/vietnamese-provinces-database"},"geometry":null},{"type":"Feature","id":"19075","properties":{"commune_code":"19075","commune_name":"Nam Ba Đồn","commune_name_en":"Nam Ba Don","commune_full_name":"Xã Nam Ba Đồn","commune_full_name_en":"Nam Ba Don Commune","commune_slug":"nam_ba_don","unit_type":"Xã","unit_type_en":"Commune","admin_level":2,"province_code":"44","province_name":"Quảng Trị","province_full_name":"Tỉnh Quảng Trị","province_slug":"quang_tri","join_key":"19075","status":"active","dataset_effective_date":"2026-04-30","catalog_version":"2026-07-12","geometry_status":"not_embedded_boundary_available_by_url","boundary_source_url":"https://raw.githubusercontent.com/thanglequoc/vietnamese-provinces-database/master/json/geojson/44_quang_tri/wards/19075_nam_ba_don.geojson","boundary_source_page":"https://github.com/thanglequoc/vietnamese-provinces-database/blob/master/json/geojson/44_quang_tri/wards/19075_nam_ba_don.geojson","source_catalog":"https://github.com/thanglequoc/vietnamese-provinces-database"},"geometry":null},{"type":"Feature","id":"19093","properties":{"commune_code":"19093","commune_name":"Nam Gianh","commune_name_en":"Nam Gianh","commune_full_name":"Xã Nam Gianh","commune_full_name_en":"Nam Gianh Commune","commune_slug":"nam_gianh","unit_type":"Xã","unit_type_en":"Commune","admin_level":2,"province_code":"44","province_name":"Quảng Trị","province_full_name":"Tỉnh Quảng Trị","province_slug":"quang_tri","join_key":"19093","status":"active","dataset_effective_date":"2026-04-30","catalog_version":"2026-07-12","geometry_status":"not_embedded_boundary_available_by_url","boundary_source_url":"https://raw.githubusercontent.com/thanglequoc/vietnamese-provinces-database/master/json/geojson/44_quang_tri/wards/19093_nam_gianh.geojson","boundary_source_page":"https://github.com/thanglequoc/vietnamese-provinces-database/blob/master/json/geojson/44_quang_tri/wards/19093_nam_gianh.geojson","source_catalog":"https://github.com/thanglequoc/vietnamese-provinces-database"},"geometry":null},{"type":"Feature","id":"19111","properties":{"commune_code":"19111","commune_name":"Hoàn Lão","commune_name_en":"Hoan Lao","commune_full_name":"Xã Hoàn Lão","commune_full_name_en":"Hoan Lao Commune","commune_slug":"hoan_lao","unit_type":"Xã","unit_type_en":"Commune","admin_level":2,"province_code":"44","province_name":"Quảng Trị","province_full_name":"Tỉnh Quảng Trị","province_slug":"quang_tri","join_key":"19111","status":"active","dataset_effective_date":"2026-04-30","catalog_version":"2026-07-12","geometry_status":"not_embedded_boundary_available_by_url","boundary_source_url":"https://raw.githubusercontent.com/thanglequoc/vietnamese-provinces-database/master/json/geojson/44_quang_tri/wards/19111_hoan_lao.geojson","boundary_source_page":"https://github.com/thanglequoc/vietnamese-provinces-database/blob/master/json/geojson/44_quang_tri/wards/19111_hoan_lao.geojson","source_catalog":"https://github.com/thanglequoc/vietnamese-provinces-database"},"geometry":null},{"type":"Feature","id":"19126","properties":{"commune_code":"19126","commune_name":"Bắc Trạch","commune_name_en":"Bac Trach","commune_full_name":"Xã Bắc Trạch","commune_full_name_en":"Bac Trach Commune","commune_slug":"bac_trach","unit_type":"Xã","unit_type_en":"Commune","admin_level":2,"province_code":"44","province_name":"Quảng Trị","province_full_name":"Tỉnh Quảng Trị","province_slug":"quang_tri","join_key":"19126","status":"active","dataset_effective_date":"2026-04-30","catalog_version":"2026-07-12","geometry_status":"not_embedded_boundary_available_by_url","boundary_source_url":"https://raw.githubusercontent.com/thanglequoc/vietnamese-provinces-database/master/json/geojson/44_quang_tri/wards/19126_bac_trach.geojson","boundary_source_page":"https://github.com/thanglequoc/vietnamese-provinces-database/blob/master/json/geojson/44_quang_tri/wards/19126_bac_trach.geojson","source_catalog":"https://github.com/thanglequoc/vietnamese-provinces-database"},"geometry":null},{"type":"Feature","id":"19138","properties":{"commune_code":"19138","commune_name":"Phong Nha","commune_name_en":"Phong Nha","commune_full_name":"Xã Phong Nha","commune_full_name_en":"Phong Nha Commune","commune_slug":"phong_nha","unit_type":"Xã","unit_type_en":"Commune","admin_level":2,"province_code":"44","province_name":"Quảng Trị","province_full_name":"Tỉnh Quảng Trị","province_slug":"quang_tri","join_key":"19138","status":"active","dataset_effective_date":"2026-04-30","catalog_version":"2026-07-12","geometry_status":"not_embedded_boundary_available_by_url","boundary_source_url":"https://raw.githubusercontent.com/thanglequoc/vietnamese-provinces-database/master/json/geojson/44_quang_tri/wards/19138_phong_nha.geojson","boundary_source_page":"https://github.com/thanglequoc/vietnamese-provinces-database/blob/master/json/geojson/44_quang_tri/wards/19138_phong_nha.geojson","source_catalog":"https://github.com/thanglequoc/vietnamese-provinces-database"},"geometry":null},{"type":"Feature","id":"19141","properties":{"commune_code":"19141","commune_name":"Bố Trạch","commune_name_en":"Bo Trach","commune_full_name":"Xã Bố Trạch","commune_full_name_en":"Bo Trach Commune","commune_slug":"bo_trach","unit_type":"Xã","unit_type_en":"Commune","admin_level":2,"province_code":"44","province_name":"Quảng Trị","province_full_name":"Tỉnh Quảng Trị","province_slug":"quang_tri","join_key":"19141","status":"active","dataset_effective_date":"2026-04-30","catalog_version":"2026-07-12","geometry_status":"not_embedded_boundary_available_by_url","boundary_source_url":"https://raw.githubusercontent.com/thanglequoc/vietnamese-provinces-database/master/json/geojson/44_quang_tri/wards/19141_bo_trach.geojson","boundary_source_page":"https://github.com/thanglequoc/vietnamese-provinces-database/blob/master/json/geojson/44_quang_tri/wards/19141_bo_trach.geojson","source_catalog":"https://github.com/thanglequoc/vietnamese-provinces-database"},"geometry":null},{"type":"Feature","id":"19147","properties":{"commune_code":"19147","commune_name":"Thượng Trạch","commune_name_en":"Thuong Trach","commune_full_name":"Xã Thượng Trạch","commune_full_name_en":"Thuong Trach Commune","commune_slug":"thuong_trach","unit_type":"Xã","unit_type_en":"Commune","admin_level":2,"province_code":"44","province_name":"Quảng Trị","province_full_name":"Tỉnh Quảng Trị","province_slug":"quang_tri","join_key":"19147","status":"active","dataset_effective_date":"2026-04-30","catalog_version":"2026-07-12","geometry_status":"not_embedded_boundary_available_by_url","boundary_source_url":"https://raw.githubusercontent.com/thanglequoc/vietnamese-provinces-database/master/json/geojson/44_quang_tri/wards/19147_thuong_trach.geojson","boundary_source_page":"https://github.com/thanglequoc/vietnamese-provinces-database/blob/master/json/geojson/44_quang_tri/wards/19147_thuong_trach.geojson","source_catalog":"https://github.com/thanglequoc/vietnamese-provinces-database"},"geometry":null},{"type":"Feature","id":"19159","properties":{"commune_code":"19159","commune_name":"Đông Trạch","commune_name_en":"Dong Trach","commune_full_name":"Xã Đông Trạch","commune_full_name_en":"Dong Trach Commune","commune_slug":"dong_trach","unit_type":"Xã","unit_type_en":"Commune","admin_level":2,"province_code":"44","province_name":"Quảng Trị","province_full_name":"Tỉnh Quảng Trị","province_slug":"quang_tri","join_key":"19159","status":"active","dataset_effective_date":"2026-04-30","catalog_version":"2026-07-12","geometry_status":"not_embedded_boundary_available_by_url","boundary_source_url":"https://raw.githubusercontent.com/thanglequoc/vietnamese-provinces-database/master/json/geojson/44_quang_tri/wards/19159_dong_trach.geojson","boundary_source_page":"https://github.com/thanglequoc/vietnamese-provinces-database/blob/master/json/geojson/44_quang_tri/wards/19159_dong_trach.geojson","source_catalog":"https://github.com/thanglequoc/vietnamese-provinces-database"},"geometry":null},{"type":"Feature","id":"19198","properties":{"commune_code":"19198","commune_name":"Nam Trạch","commune_name_en":"Nam Trach","commune_full_name":"Xã Nam Trạch","commune_full_name_en":"Nam Trach Commune","commune_slug":"nam_trach","unit_type":"Xã","unit_type_en":"Commune","admin_level":2,"province_code":"44","province_name":"Quảng Trị","province_full_name":"Tỉnh Quảng Trị","province_slug":"quang_tri","join_key":"19198","status":"active","dataset_effective_date":"2026-04-30","catalog_version":"2026-07-12","geometry_status":"not_embedded_boundary_available_by_url","boundary_source_url":"https://raw.githubusercontent.com/thanglequoc/vietnamese-provinces-database/master/json/geojson/44_quang_tri/wards/19198_nam_trach.geojson","boundary_source_page":"https://github.com/thanglequoc/vietnamese-provinces-database/blob/master/json/geojson/44_quang_tri/wards/19198_nam_trach.geojson","source_catalog":"https://github.com/thanglequoc/vietnamese-provinces-database"},"geometry":null},{"type":"Feature","id":"19204","properties":{"commune_code":"19204","commune_name":"Trường Sơn","commune_name_en":"Truong Son","commune_full_name":"Xã Trường Sơn","commune_full_name_en":"Truong Son Commune","commune_slug":"truong_son","unit_type":"Xã","unit_type_en":"Commune","admin_level":2,"province_code":"44","province_name":"Quảng Trị","province_full_name":"Tỉnh Quảng Trị","province_slug":"quang_tri","join_key":"19204","status":"active","dataset_effective_date":"2026-04-30","catalog_version":"2026-07-12","geometry_status":"not_embedded_boundary_available_by_url","boundary_source_url":"https://raw.githubusercontent.com/thanglequoc/vietnamese-provinces-database/master/json/geojson/44_quang_tri/wards/19204_truong_son.geojson","boundary_source_page":"https://github.com/thanglequoc/vietnamese-provinces-database/blob/master/json/geojson/44_quang_tri/wards/19204_truong_son.geojson","source_catalog":"https://github.com/thanglequoc/vietnamese-provinces-database"},"geometry":null},{"type":"Feature","id":"19207","properties":{"commune_code":"19207","commune_name":"Quảng Ninh","commune_name_en":"Quang Ninh","commune_full_name":"Xã Quảng Ninh","commune_full_name_en":"Quang Ninh Commune","commune_slug":"quang_ninh","unit_type":"Xã","unit_type_en":"Commune","admin_level":2,"province_code":"44","province_name":"Quảng Trị","province_full_name":"Tỉnh Quảng Trị","province_slug":"quang_tri","join_key":"19207","status":"active","dataset_effective_date":"2026-04-30","catalog_version":"2026-07-12","geometry_status":"not_embedded_boundary_available_by_url","boundary_source_url":"https://raw.githubusercontent.com/thanglequoc/vietnamese-provinces-database/master/json/geojson/44_quang_tri/wards/19207_quang_ninh.geojson","boundary_source_page":"https://github.com/thanglequoc/vietnamese-provinces-database/blob/master/json/geojson/44_quang_tri/wards/19207_quang_ninh.geojson","source_catalog":"https://github.com/thanglequoc/vietnamese-provinces-database"},"geometry":null},{"type":"Feature","id":"19225","properties":{"commune_code":"19225","commune_name":"Ninh Châu","commune_name_en":"Ninh Chau","commune_full_name":"Xã Ninh Châu","commune_full_name_en":"Ninh Chau Commune","commune_slug":"ninh_chau","unit_type":"Xã","unit_type_en":"Commune","admin_level":2,"province_code":"44","province_name":"Quảng Trị","province_full_name":"Tỉnh Quảng Trị","province_slug":"quang_tri","join_key":"19225","status":"active","dataset_effective_date":"2026-04-30","catalog_version":"2026-07-12","geometry_status":"not_embedded_boundary_available_by_url","boundary_source_url":"https://raw.githubusercontent.com/thanglequoc/vietnamese-provinces-database/master/json/geojson/44_quang_tri/wards/19225_ninh_chau.geojson","boundary_source_page":"https://github.com/thanglequoc/vietnamese-provinces-database/blob/master/json/geojson/44_quang_tri/wards/19225_ninh_chau.geojson","source_catalog":"https://github.com/thanglequoc/vietnamese-provinces-database"},"geometry":null},{"type":"Feature","id":"19237","properties":{"commune_code":"19237","commune_name":"Trường Ninh","commune_name_en":"Truong Ninh","commune_full_name":"Xã Trường Ninh","commune_full_name_en":"Truong Ninh Commune","commune_slug":"truong_ninh","unit_type":"Xã","unit_type_en":"Commune","admin_level":2,"province_code":"44","province_name":"Quảng Trị","province_full_name":"Tỉnh Quảng Trị","province_slug":"quang_tri","join_key":"19237","status":"active","dataset_effective_date":"2026-04-30","catalog_version":"2026-07-12","geometry_status":"not_embedded_boundary_available_by_url","boundary_source_url":"https://raw.githubusercontent.com/thanglequoc/vietnamese-provinces-database/master/json/geojson/44_quang_tri/wards/19237_truong_ninh.geojson","boundary_source_page":"https://github.com/thanglequoc/vietnamese-provinces-database/blob/master/json/geojson/44_quang_tri/wards/19237_truong_ninh.geojson","source_catalog":"https://github.com/thanglequoc/vietnamese-provinces-database"},"geometry":null},{"type":"Feature","id":"19246","properties":{"commune_code":"19246","commune_name":"Lệ Ninh","commune_name_en":"Le Ninh","commune_full_name":"Xã Lệ Ninh","commune_full_name_en":"Le Ninh Commune","commune_slug":"le_ninh","unit_type":"Xã","unit_type_en":"Commune","admin_level":2,"province_code":"44","province_name":"Quảng Trị","province_full_name":"Tỉnh Quảng Trị","province_slug":"quang_tri","join_key":"19246","status":"active","dataset_effective_date":"2026-04-30","catalog_version":"2026-07-12","geometry_status":"not_embedded_boundary_available_by_url","boundary_source_url":"https://raw.githubusercontent.com/thanglequoc/vietnamese-provinces-database/master/json/geojson/44_quang_tri/wards/19246_le_ninh.geojson","boundary_source_page":"https://github.com/thanglequoc/vietnamese-provinces-database/blob/master/json/geojson/44_quang_tri/wards/19246_le_ninh.geojson","source_catalog":"https://github.com/thanglequoc/vietnamese-provinces-database"},"geometry":null},{"type":"Feature","id":"19249","properties":{"commune_code":"19249","commune_name":"Lệ Thuỷ","commune_name_en":"Le Thuy","commune_full_name":"Xã Lệ Thuỷ","commune_full_name_en":"Le Thuy Commune","commune_slug":"le_thuy","unit_type":"Xã","unit_type_en":"Commune","admin_level":2,"province_code":"44","province_name":"Quảng Trị","province_full_name":"Tỉnh Quảng Trị","province_slug":"quang_tri","join_key":"19249","status":"active","dataset_effective_date":"2026-04-30","catalog_version":"2026-07-12","geometry_status":"not_embedded_boundary_available_by_url","boundary_source_url":"https://raw.githubusercontent.com/thanglequoc/vietnamese-provinces-database/master/json/geojson/44_quang_tri/wards/19249_le_thuy.geojson","boundary_source_page":"https://github.com/thanglequoc/vietnamese-provinces-database/blob/master/json/geojson/44_quang_tri/wards/19249_le_thuy.geojson","source_catalog":"https://github.com/thanglequoc/vietnamese-provinces-database"},"geometry":null},{"type":"Feature","id":"19255","properties":{"commune_code":"19255","commune_name":"Cam Hồng","commune_name_en":"Cam Hong","commune_full_name":"Xã Cam Hồng","commune_full_name_en":"Cam Hong Commune","commune_slug":"cam_hong","unit_type":"Xã","unit_type_en":"Commune","admin_level":2,"province_code":"44","province_name":"Quảng Trị","province_full_name":"Tỉnh Quảng Trị","province_slug":"quang_tri","join_key":"19255","status":"active","dataset_effective_date":"2026-04-30","catalog_version":"2026-07-12","geometry_status":"not_embedded_boundary_available_by_url","boundary_source_url":"https://raw.githubusercontent.com/thanglequoc/vietnamese-provinces-database/master/json/geojson/44_quang_tri/wards/19255_cam_hong.geojson","boundary_source_page":"https://github.com/thanglequoc/vietnamese-provinces-database/blob/master/json/geojson/44_quang_tri/wards/19255_cam_hong.geojson","source_catalog":"https://github.com/thanglequoc/vietnamese-provinces-database"},"geometry":null},{"type":"Feature","id":"19288","properties":{"commune_code":"19288","commune_name":"Sen Ngư","commune_name_en":"Sen Ngu","commune_full_name":"Xã Sen Ngư","commune_full_name_en":"Sen Ngu Commune","commune_slug":"sen_ngu","unit_type":"Xã","unit_type_en":"Commune","admin_level":2,"province_code":"44","province_name":"Quảng Trị","province_full_name":"Tỉnh Quảng Trị","province_slug":"quang_tri","join_key":"19288","status":"active","dataset_effective_date":"2026-04-30","catalog_version":"2026-07-12","geometry_status":"not_embedded_boundary_available_by_url","boundary_source_url":"https://raw.githubusercontent.com/thanglequoc/vietnamese-provinces-database/master/json/geojson/44_quang_tri/wards/19288_sen_ngu.geojson","boundary_source_page":"https://github.com/thanglequoc/vietnamese-provinces-database/blob/master/json/geojson/44_quang_tri/wards/19288_sen_ngu.geojson","source_catalog":"https://github.com/thanglequoc/vietnamese-provinces-database"},"geometry":null},{"type":"Feature","id":"19291","properties":{"commune_code":"19291","commune_name":"Tân Mỹ","commune_name_en":"Tan My","commune_full_name":"Xã Tân Mỹ","commune_full_name_en":"Tan My Commune","commune_slug":"tan_my","unit_type":"Xã","unit_type_en":"Commune","admin_level":2,"province_code":"44","province_name":"Quảng Trị","province_full_name":"Tỉnh Quảng Trị","province_slug":"quang_tri","join_key":"19291","status":"active","dataset_effective_date":"2026-04-30","catalog_version":"2026-07-12","geometry_status":"not_embedded_boundary_available_by_url","boundary_source_url":"https://raw.githubusercontent.com/thanglequoc/vietnamese-provinces-database/master/json/geojson/44_quang_tri/wards/19291_tan_my.geojson","boundary_source_page":"https://github.com/thanglequoc/vietnamese-provinces-database/blob/master/json/geojson/44_quang_tri/wards/19291_tan_my.geojson","source_catalog":"https://github.com/thanglequoc/vietnamese-provinces-database"},"geometry":null},{"type":"Feature","id":"19309","properties":{"commune_code":"19309","commune_name":"Trường Phú","commune_name_en":"Truong Phu","commune_full_name":"Xã Trường Phú","commune_full_name_en":"Truong Phu Commune","commune_slug":"truong_phu","unit_type":"Xã","unit_type_en":"Commune","admin_level":2,"province_code":"44","province_name":"Quảng Trị","province_full_name":"Tỉnh Quảng Trị","province_slug":"quang_tri","join_key":"19309","status":"active","dataset_effective_date":"2026-04-30","catalog_version":"2026-07-12","geometry_status":"not_embedded_boundary_available_by_url","boundary_source_url":"https://raw.githubusercontent.com/thanglequoc/vietnamese-provinces-database/master/json/geojson/44_quang_tri/wards/19309_truong_phu.geojson","boundary_source_page":"https://github.com/thanglequoc/vietnamese-provinces-database/blob/master/json/geojson/44_quang_tri/wards/19309_truong_phu.geojson","source_catalog":"https://github.com/thanglequoc/vietnamese-provinces-database"},"geometry":null},{"type":"Feature","id":"19318","properties":{"commune_code":"19318","commune_name":"Kim Ngân","commune_name_en":"Kim Ngan","commune_full_name":"Xã Kim Ngân","commune_full_name_en":"Kim Ngan Commune","commune_slug":"kim_ngan","unit_type":"Xã","unit_type_en":"Commune","admin_level":2,"province_code":"44","province_name":"Quảng Trị","province_full_name":"Tỉnh Quảng Trị","province_slug":"quang_tri","join_key":"19318","status":"active","dataset_effective_date":"2026-04-30","catalog_version":"2026-07-12","geometry_status":"not_embedded_boundary_available_by_url","boundary_source_url":"https://raw.githubusercontent.com/thanglequoc/vietnamese-provinces-database/master/json/geojson/44_quang_tri/wards/19318_kim_ngan.geojson","boundary_source_page":"https://github.com/thanglequoc/vietnamese-provinces-database/blob/master/json/geojson/44_quang_tri/wards/19318_kim_ngan.geojson","source_catalog":"https://github.com/thanglequoc/vietnamese-provinces-database"},"geometry":null},{"type":"Feature","id":"19333","properties":{"commune_code":"19333","commune_name":"Đông Hà","commune_name_en":"Dong Ha","commune_full_name":"Phường Đông Hà","commune_full_name_en":"Dong Ha Ward","commune_slug":"dong_ha","unit_type":"Phường","unit_type_en":"Ward","admin_level":2,"province_code":"44","province_name":"Quảng Trị","province_full_name":"Tỉnh Quảng Trị","province_slug":"quang_tri","join_key":"19333","status":"active","dataset_effective_date":"2026-04-30","catalog_version":"2026-07-12","geometry_status":"not_embedded_boundary_available_by_url","boundary_source_url":"https://raw.githubusercontent.com/thanglequoc/vietnamese-provinces-database/master/json/geojson/44_quang_tri/wards/19333_dong_ha.geojson","boundary_source_page":"https://github.com/thanglequoc/vietnamese-provinces-database/blob/master/json/geojson/44_quang_tri/wards/19333_dong_ha.geojson","source_catalog":"https://github.com/thanglequoc/vietnamese-provinces-database"},"geometry":null},{"type":"Feature","id":"19351","properties":{"commune_code":"19351","commune_name":"Nam Đông Hà","commune_name_en":"Nam Dong Ha","commune_full_name":"Phường Nam Đông Hà","commune_full_name_en":"Nam Dong Ha Ward","commune_slug":"nam_dong_ha","unit_type":"Phường","unit_type_en":"Ward","admin_level":2,"province_code":"44","province_name":"Quảng Trị","province_full_name":"Tỉnh Quảng Trị","province_slug":"quang_tri","join_key":"19351","status":"active","dataset_effective_date":"2026-04-30","catalog_version":"2026-07-12","geometry_status":"not_embedded_boundary_available_by_url","boundary_source_url":"https://raw.githubusercontent.com/thanglequoc/vietnamese-provinces-database/master/json/geojson/44_quang_tri/wards/19351_nam_dong_ha.geojson","boundary_source_page":"https://github.com/thanglequoc/vietnamese-provinces-database/blob/master/json/geojson/44_quang_tri/wards/19351_nam_dong_ha.geojson","source_catalog":"https://github.com/thanglequoc/vietnamese-provinces-database"},"geometry":null},{"type":"Feature","id":"19360","properties":{"commune_code":"19360","commune_name":"Quảng Trị","commune_name_en":"Quang Tri","commune_full_name":"Phường Quảng Trị","commune_full_name_en":"Quang Tri Ward","commune_slug":"quang_tri","unit_type":"Phường","unit_type_en":"Ward","admin_level":2,"province_code":"44","province_name":"Quảng Trị","province_full_name":"Tỉnh Quảng Trị","province_slug":"quang_tri","join_key":"19360","status":"active","dataset_effective_date":"2026-04-30","catalog_version":"2026-07-12","geometry_status":"not_embedded_boundary_available_by_url","boundary_source_url":"https://raw.githubusercontent.com/thanglequoc/vietnamese-provinces-database/master/json/geojson/44_quang_tri/wards/19360_quang_tri.geojson","boundary_source_page":"https://github.com/thanglequoc/vietnamese-provinces-database/blob/master/json/geojson/44_quang_tri/wards/19360_quang_tri.geojson","source_catalog":"https://github.com/thanglequoc/vietnamese-provinces-database"},"geometry":null},{"type":"Feature","id":"19363","properties":{"commune_code":"19363","commune_name":"Vĩnh Linh","commune_name_en":"Vinh Linh","commune_full_name":"Xã Vĩnh Linh","commune_full_name_en":"Vinh Linh Commune","commune_slug":"vinh_linh","unit_type":"Xã","unit_type_en":"Commune","admin_level":2,"province_code":"44","province_name":"Quảng Trị","province_full_name":"Tỉnh Quảng Trị","province_slug":"quang_tri","join_key":"19363","status":"active","dataset_effective_date":"2026-04-30","catalog_version":"2026-07-12","geometry_status":"not_embedded_boundary_available_by_url","boundary_source_url":"https://raw.githubusercontent.com/thanglequoc/vietnamese-provinces-database/master/json/geojson/44_quang_tri/wards/19363_vinh_linh.geojson","boundary_source_page":"https://github.com/thanglequoc/vietnamese-provinces-database/blob/master/json/geojson/44_quang_tri/wards/19363_vinh_linh.geojson","source_catalog":"https://github.com/thanglequoc/vietnamese-provinces-database"},"geometry":null},{"type":"Feature","id":"19366","properties":{"commune_code":"19366","commune_name":"Bến Quan","commune_name_en":"Ben Quan","commune_full_name":"Xã Bến Quan","commune_full_name_en":"Ben Quan Commune","commune_slug":"ben_quan","unit_type":"Xã","unit_type_en":"Commune","admin_level":2,"province_code":"44","province_name":"Quảng Trị","province_full_name":"Tỉnh Quảng Trị","province_slug":"quang_tri","join_key":"19366","status":"active","dataset_effective_date":"2026-04-30","catalog_version":"2026-07-12","geometry_status":"not_embedded_boundary_available_by_url","boundary_source_url":"https://raw.githubusercontent.com/thanglequoc/vietnamese-provinces-database/master/json/geojson/44_quang_tri/wards/19366_ben_quan.geojson","boundary_source_page":"https://github.com/thanglequoc/vietnamese-provinces-database/blob/master/json/geojson/44_quang_tri/wards/19366_ben_quan.geojson","source_catalog":"https://github.com/thanglequoc/vietnamese-provinces-database"},"geometry":null},{"type":"Feature","id":"19372","properties":{"commune_code":"19372","commune_name":"Vĩnh Hoàng","commune_name_en":"Vinh Hoang","commune_full_name":"Xã Vĩnh Hoàng","commune_full_name_en":"Vinh Hoang Commune","commune_slug":"vinh_hoang","unit_type":"Xã","unit_type_en":"Commune","admin_level":2,"province_code":"44","province_name":"Quảng Trị","province_full_name":"Tỉnh Quảng Trị","province_slug":"quang_tri","join_key":"19372","status":"active","dataset_effective_date":"2026-04-30","catalog_version":"2026-07-12","geometry_status":"not_embedded_boundary_available_by_url","boundary_source_url":"https://raw.githubusercontent.com/thanglequoc/vietnamese-provinces-database/master/json/geojson/44_quang_tri/wards/19372_vinh_hoang.geojson","boundary_source_page":"https://github.com/thanglequoc/vietnamese-provinces-database/blob/master/json/geojson/44_quang_tri/wards/19372_vinh_hoang.geojson","source_catalog":"https://github.com/thanglequoc/vietnamese-provinces-database"},"geometry":null},{"type":"Feature","id":"19405","properties":{"commune_code":"19405","commune_name":"Vĩnh Thuỷ","commune_name_en":"Vinh Thuy","commune_full_name":"Xã Vĩnh Thuỷ","commune_full_name_en":"Vinh Thuy Commune","commune_slug":"vinh_thuy","unit_type":"Xã","unit_type_en":"Commune","admin_level":2,"province_code":"44","province_name":"Quảng Trị","province_full_name":"Tỉnh Quảng Trị","province_slug":"quang_tri","join_key":"19405","status":"active","dataset_effective_date":"2026-04-30","catalog_version":"2026-07-12","geometry_status":"not_embedded_boundary_available_by_url","boundary_source_url":"https://raw.githubusercontent.com/thanglequoc/vietnamese-provinces-database/master/json/geojson/44_quang_tri/wards/19405_vinh_thuy.geojson","boundary_source_page":"https://github.com/thanglequoc/vietnamese-provinces-database/blob/master/json/geojson/44_quang_tri/wards/19405_vinh_thuy.geojson","source_catalog":"https://github.com/thanglequoc/vietnamese-provinces-database"},"geometry":null},{"type":"Feature","id":"19414","properties":{"commune_code":"19414","commune_name":"Cửa Tùng","commune_name_en":"Cua Tung","commune_full_name":"Xã Cửa Tùng","commune_full_name_en":"Cua Tung Commune","commune_slug":"cua_tung","unit_type":"Xã","unit_type_en":"Commune","admin_level":2,"province_code":"44","province_name":"Quảng Trị","province_full_name":"Tỉnh Quảng Trị","province_slug":"quang_tri","join_key":"19414","status":"active","dataset_effective_date":"2026-04-30","catalog_version":"2026-07-12","geometry_status":"not_embedded_boundary_available_by_url","boundary_source_url":"https://raw.githubusercontent.com/thanglequoc/vietnamese-provinces-database/master/json/geojson/44_quang_tri/wards/19414_cua_tung.geojson","boundary_source_page":"https://github.com/thanglequoc/vietnamese-provinces-database/blob/master/json/geojson/44_quang_tri/wards/19414_cua_tung.geojson","source_catalog":"https://github.com/thanglequoc/vietnamese-provinces-database"},"geometry":null},{"type":"Feature","id":"19429","properties":{"commune_code":"19429","commune_name":"Khe Sanh","commune_name_en":"Khe Sanh","commune_full_name":"Xã Khe Sanh","commune_full_name_en":"Khe Sanh Commune","commune_slug":"khe_sanh","unit_type":"Xã","unit_type_en":"Commune","admin_level":2,"province_code":"44","province_name":"Quảng Trị","province_full_name":"Tỉnh Quảng Trị","province_slug":"quang_tri","join_key":"19429","status":"active","dataset_effective_date":"2026-04-30","catalog_version":"2026-07-12","geometry_status":"not_embedded_boundary_available_by_url","boundary_source_url":"https://raw.githubusercontent.com/thanglequoc/vietnamese-provinces-database/master/json/geojson/44_quang_tri/wards/19429_khe_sanh.geojson","boundary_source_page":"https://github.com/thanglequoc/vietnamese-provinces-database/blob/master/json/geojson/44_quang_tri/wards/19429_khe_sanh.geojson","source_catalog":"https://github.com/thanglequoc/vietnamese-provinces-database"},"geometry":null},{"type":"Feature","id":"19432","properties":{"commune_code":"19432","commune_name":"Lao Bảo","commune_name_en":"Lao Bao","commune_full_name":"Xã Lao Bảo","commune_full_name_en":"Lao Bao Commune","commune_slug":"lao_bao","unit_type":"Xã","unit_type_en":"Commune","admin_level":2,"province_code":"44","province_name":"Quảng Trị","province_full_name":"Tỉnh Quảng Trị","province_slug":"quang_tri","join_key":"19432","status":"active","dataset_effective_date":"2026-04-30","catalog_version":"2026-07-12","geometry_status":"not_embedded_boundary_available_by_url","boundary_source_url":"https://raw.githubusercontent.com/thanglequoc/vietnamese-provinces-database/master/json/geojson/44_quang_tri/wards/19432_lao_bao.geojson","boundary_source_page":"https://github.com/thanglequoc/vietnamese-provinces-database/blob/master/json/geojson/44_quang_tri/wards/19432_lao_bao.geojson","source_catalog":"https://github.com/thanglequoc/vietnamese-provinces-database"},"geometry":null},{"type":"Feature","id":"19435","properties":{"commune_code":"19435","commune_name":"Hướng Lập","commune_name_en":"Huong Lap","commune_full_name":"Xã Hướng Lập","commune_full_name_en":"Huong Lap Commune","commune_slug":"huong_lap","unit_type":"Xã","unit_type_en":"Commune","admin_level":2,"province_code":"44","province_name":"Quảng Trị","province_full_name":"Tỉnh Quảng Trị","province_slug":"quang_tri","join_key":"19435","status":"active","dataset_effective_date":"2026-04-30","catalog_version":"2026-07-12","geometry_status":"not_embedded_boundary_available_by_url","boundary_source_url":"https://raw.githubusercontent.com/thanglequoc/vietnamese-provinces-database/master/json/geojson/44_quang_tri/wards/19435_huong_lap.geojson","boundary_source_page":"https://github.com/thanglequoc/vietnamese-provinces-database/blob/master/json/geojson/44_quang_tri/wards/19435_huong_lap.geojson","source_catalog":"https://github.com/thanglequoc/vietnamese-provinces-database"},"geometry":null},{"type":"Feature","id":"19441","properties":{"commune_code":"19441","commune_name":"Hướng Phùng","commune_name_en":"Huong Phung","commune_full_name":"Xã Hướng Phùng","commune_full_name_en":"Huong Phung Commune","commune_slug":"huong_phung","unit_type":"Xã","unit_type_en":"Commune","admin_level":2,"province_code":"44","province_name":"Quảng Trị","province_full_name":"Tỉnh Quảng Trị","province_slug":"quang_tri","join_key":"19441","status":"active","dataset_effective_date":"2026-04-30","catalog_version":"2026-07-12","geometry_status":"not_embedded_boundary_available_by_url","boundary_source_url":"https://raw.githubusercontent.com/thanglequoc/vietnamese-provinces-database/master/json/geojson/44_quang_tri/wards/19441_huong_phung.geojson","boundary_source_page":"https://github.com/thanglequoc/vietnamese-provinces-database/blob/master/json/geojson/44_quang_tri/wards/19441_huong_phung.geojson","source_catalog":"https://github.com/thanglequoc/vietnamese-provinces-database"},"geometry":null},{"type":"Feature","id":"19462","properties":{"commune_code":"19462","commune_name":"Tân Lập","commune_name_en":"Tan Lap","commune_full_name":"Xã Tân Lập","commune_full_name_en":"Tan Lap Commune","commune_slug":"tan_lap","unit_type":"Xã","unit_type_en":"Commune","admin_level":2,"province_code":"44","province_name":"Quảng Trị","province_full_name":"Tỉnh Quảng Trị","province_slug":"quang_tri","join_key":"19462","status":"active","dataset_effective_date":"2026-04-30","catalog_version":"2026-07-12","geometry_status":"not_embedded_boundary_available_by_url","boundary_source_url":"https://raw.githubusercontent.com/thanglequoc/vietnamese-provinces-database/master/json/geojson/44_quang_tri/wards/19462_tan_lap.geojson","boundary_source_page":"https://github.com/thanglequoc/vietnamese-provinces-database/blob/master/json/geojson/44_quang_tri/wards/19462_tan_lap.geojson","source_catalog":"https://github.com/thanglequoc/vietnamese-provinces-database"},"geometry":null},{"type":"Feature","id":"19483","properties":{"commune_code":"19483","commune_name":"A Dơi","commune_name_en":"A Doi","commune_full_name":"Xã A Dơi","commune_full_name_en":"A Doi Commune","commune_slug":"a_doi","unit_type":"Xã","unit_type_en":"Commune","admin_level":2,"province_code":"44","province_name":"Quảng Trị","province_full_name":"Tỉnh Quảng Trị","province_slug":"quang_tri","join_key":"19483","status":"active","dataset_effective_date":"2026-04-30","catalog_version":"2026-07-12","geometry_status":"not_embedded_boundary_available_by_url","boundary_source_url":"https://raw.githubusercontent.com/thanglequoc/vietnamese-provinces-database/master/json/geojson/44_quang_tri/wards/19483_a_doi.geojson","boundary_source_page":"https://github.com/thanglequoc/vietnamese-provinces-database/blob/master/json/geojson/44_quang_tri/wards/19483_a_doi.geojson","source_catalog":"https://github.com/thanglequoc/vietnamese-provinces-database"},"geometry":null},{"type":"Feature","id":"19489","properties":{"commune_code":"19489","commune_name":"Lìa","commune_name_en":"Lia","commune_full_name":"Xã Lìa","commune_full_name_en":"Lia Commune","commune_slug":"lia","unit_type":"Xã","unit_type_en":"Commune","admin_level":2,"province_code":"44","province_name":"Quảng Trị","province_full_name":"Tỉnh Quảng Trị","province_slug":"quang_tri","join_key":"19489","status":"active","dataset_effective_date":"2026-04-30","catalog_version":"2026-07-12","geometry_status":"not_embedded_boundary_available_by_url","boundary_source_url":"https://raw.githubusercontent.com/thanglequoc/vietnamese-provinces-database/master/json/geojson/44_quang_tri/wards/19489_lia.geojson","boundary_source_page":"https://github.com/thanglequoc/vietnamese-provinces-database/blob/master/json/geojson/44_quang_tri/wards/19489_lia.geojson","source_catalog":"https://github.com/thanglequoc/vietnamese-provinces-database"},"geometry":null},{"type":"Feature","id":"19495","properties":{"commune_code":"19495","commune_name":"Gio Linh","commune_name_en":"Gio Linh","commune_full_name":"Xã Gio Linh","commune_full_name_en":"Gio Linh Commune","commune_slug":"gio_linh","unit_type":"Xã","unit_type_en":"Commune","admin_level":2,"province_code":"44","province_name":"Quảng Trị","province_full_name":"Tỉnh Quảng Trị","province_slug":"quang_tri","join_key":"19495","status":"active","dataset_effective_date":"2026-04-30","catalog_version":"2026-07-12","geometry_status":"not_embedded_boundary_available_by_url","boundary_source_url":"https://raw.githubusercontent.com/thanglequoc/vietnamese-provinces-database/master/json/geojson/44_quang_tri/wards/19495_gio_linh.geojson","boundary_source_page":"https://github.com/thanglequoc/vietnamese-provinces-database/blob/master/json/geojson/44_quang_tri/wards/19495_gio_linh.geojson","source_catalog":"https://github.com/thanglequoc/vietnamese-provinces-database"},"geometry":null},{"type":"Feature","id":"19496","properties":{"commune_code":"19496","commune_name":"Cửa Việt","commune_name_en":"Cua Viet","commune_full_name":"Xã Cửa Việt","commune_full_name_en":"Cua Viet Commune","commune_slug":"cua_viet","unit_type":"Xã","unit_type_en":"Commune","admin_level":2,"province_code":"44","province_name":"Quảng Trị","province_full_name":"Tỉnh Quảng Trị","province_slug":"quang_tri","join_key":"19496","status":"active","dataset_effective_date":"2026-04-30","catalog_version":"2026-07-12","geometry_status":"not_embedded_boundary_available_by_url","boundary_source_url":"https://raw.githubusercontent.com/thanglequoc/vietnamese-provinces-database/master/json/geojson/44_quang_tri/wards/19496_cua_viet.geojson","boundary_source_page":"https://github.com/thanglequoc/vietnamese-provinces-database/blob/master/json/geojson/44_quang_tri/wards/19496_cua_viet.geojson","source_catalog":"https://github.com/thanglequoc/vietnamese-provinces-database"},"geometry":null},{"type":"Feature","id":"19501","properties":{"commune_code":"19501","commune_name":"Bến Hải","commune_name_en":"Ben Hai","commune_full_name":"Xã Bến Hải","commune_full_name_en":"Ben Hai Commune","commune_slug":"ben_hai","unit_type":"Xã","unit_type_en":"Commune","admin_level":2,"province_code":"44","province_name":"Quảng Trị","province_full_name":"Tỉnh Quảng Trị","province_slug":"quang_tri","join_key":"19501","status":"active","dataset_effective_date":"2026-04-30","catalog_version":"2026-07-12","geometry_status":"not_embedded_boundary_available_by_url","boundary_source_url":"https://raw.githubusercontent.com/thanglequoc/vietnamese-provinces-database/master/json/geojson/44_quang_tri/wards/19501_ben_hai.geojson","boundary_source_page":"https://github.com/thanglequoc/vietnamese-provinces-database/blob/master/json/geojson/44_quang_tri/wards/19501_ben_hai.geojson","source_catalog":"https://github.com/thanglequoc/vietnamese-provinces-database"},"geometry":null},{"type":"Feature","id":"19537","properties":{"commune_code":"19537","commune_name":"Cồn Tiên","commune_name_en":"Con Tien","commune_full_name":"Xã Cồn Tiên","commune_full_name_en":"Con Tien Commune","commune_slug":"con_tien","unit_type":"Xã","unit_type_en":"Commune","admin_level":2,"province_code":"44","province_name":"Quảng Trị","province_full_name":"Tỉnh Quảng Trị","province_slug":"quang_tri","join_key":"19537","status":"active","dataset_effective_date":"2026-04-30","catalog_version":"2026-07-12","geometry_status":"not_embedded_boundary_available_by_url","boundary_source_url":"https://raw.githubusercontent.com/thanglequoc/vietnamese-provinces-database/master/json/geojson/44_quang_tri/wards/19537_con_tien.geojson","boundary_source_page":"https://github.com/thanglequoc/vietnamese-provinces-database/blob/master/json/geojson/44_quang_tri/wards/19537_con_tien.geojson","source_catalog":"https://github.com/thanglequoc/vietnamese-provinces-database"},"geometry":null},{"type":"Feature","id":"19555","properties":{"commune_code":"19555","commune_name":"Hướng Hiệp","commune_name_en":"Huong Hiep","commune_full_name":"Xã Hướng Hiệp","commune_full_name_en":"Huong Hiep Commune","commune_slug":"huong_hiep","unit_type":"Xã","unit_type_en":"Commune","admin_level":2,"province_code":"44","province_name":"Quảng Trị","province_full_name":"Tỉnh Quảng Trị","province_slug":"quang_tri","join_key":"19555","status":"active","dataset_effective_date":"2026-04-30","catalog_version":"2026-07-12","geometry_status":"not_embedded_boundary_available_by_url","boundary_source_url":"https://raw.githubusercontent.com/thanglequoc/vietnamese-provinces-database/master/json/geojson/44_quang_tri/wards/19555_huong_hiep.geojson","boundary_source_page":"https://github.com/thanglequoc/vietnamese-provinces-database/blob/master/json/geojson/44_quang_tri/wards/19555_huong_hiep.geojson","source_catalog":"https://github.com/thanglequoc/vietnamese-provinces-database"},"geometry":null},{"type":"Feature","id":"19564","properties":{"commune_code":"19564","commune_name":"Đakrông","commune_name_en":"Dakrong","commune_full_name":"Xã Đakrông","commune_full_name_en":"Dakrong Commune","commune_slug":"dakrong","unit_type":"Xã","unit_type_en":"Commune","admin_level":2,"province_code":"44","province_name":"Quảng Trị","province_full_name":"Tỉnh Quảng Trị","province_slug":"quang_tri","join_key":"19564","status":"active","dataset_effective_date":"2026-04-30","catalog_version":"2026-07-12","geometry_status":"not_embedded_boundary_available_by_url","boundary_source_url":"https://raw.githubusercontent.com/thanglequoc/vietnamese-provinces-database/master/json/geojson/44_quang_tri/wards/19564_dakrong.geojson","boundary_source_page":"https://github.com/thanglequoc/vietnamese-provinces-database/blob/master/json/geojson/44_quang_tri/wards/19564_dakrong.geojson","source_catalog":"https://github.com/thanglequoc/vietnamese-provinces-database"},"geometry":null},{"type":"Feature","id":"19567","properties":{"commune_code":"19567","commune_name":"Ba Lòng","commune_name_en":"Ba Long","commune_full_name":"Xã Ba Lòng","commune_full_name_en":"Ba Long Commune","commune_slug":"ba_long","unit_type":"Xã","unit_type_en":"Commune","admin_level":2,"province_code":"44","province_name":"Quảng Trị","province_full_name":"Tỉnh Quảng Trị","province_slug":"quang_tri","join_key":"19567","status":"active","dataset_effective_date":"2026-04-30","catalog_version":"2026-07-12","geometry_status":"not_embedded_boundary_available_by_url","boundary_source_url":"https://raw.githubusercontent.com/thanglequoc/vietnamese-provinces-database/master/json/geojson/44_quang_tri/wards/19567_ba_long.geojson","boundary_source_page":"https://github.com/thanglequoc/vietnamese-provinces-database/blob/master/json/geojson/44_quang_tri/wards/19567_ba_long.geojson","source_catalog":"https://github.com/thanglequoc/vietnamese-provinces-database"},"geometry":null},{"type":"Feature","id":"19588","properties":{"commune_code":"19588","commune_name":"Tà Rụt","commune_name_en":"Ta Rut","commune_full_name":"Xã Tà Rụt","commune_full_name_en":"Ta Rut Commune","commune_slug":"ta_rut","unit_type":"Xã","unit_type_en":"Commune","admin_level":2,"province_code":"44","province_name":"Quảng Trị","province_full_name":"Tỉnh Quảng Trị","province_slug":"quang_tri","join_key":"19588","status":"active","dataset_effective_date":"2026-04-30","catalog_version":"2026-07-12","geometry_status":"not_embedded_boundary_available_by_url","boundary_source_url":"https://raw.githubusercontent.com/thanglequoc/vietnamese-provinces-database/master/json/geojson/44_quang_tri/wards/19588_ta_rut.geojson","boundary_source_page":"https://github.com/thanglequoc/vietnamese-provinces-database/blob/master/json/geojson/44_quang_tri/wards/19588_ta_rut.geojson","source_catalog":"https://github.com/thanglequoc/vietnamese-provinces-database"},"geometry":null},{"type":"Feature","id":"19594","properties":{"commune_code":"19594","commune_name":"La Lay","commune_name_en":"La Lay","commune_full_name":"Xã La Lay","commune_full_name_en":"La Lay Commune","commune_slug":"la_lay","unit_type":"Xã","unit_type_en":"Commune","admin_level":2,"province_code":"44","province_name":"Quảng Trị","province_full_name":"Tỉnh Quảng Trị","province_slug":"quang_tri","join_key":"19594","status":"active","dataset_effective_date":"2026-04-30","catalog_version":"2026-07-12","geometry_status":"not_embedded_boundary_available_by_url","boundary_source_url":"https://raw.githubusercontent.com/thanglequoc/vietnamese-provinces-database/master/json/geojson/44_quang_tri/wards/19594_la_lay.geojson","boundary_source_page":"https://github.com/thanglequoc/vietnamese-provinces-database/blob/master/json/geojson/44_quang_tri/wards/19594_la_lay.geojson","source_catalog":"https://github.com/thanglequoc/vietnamese-provinces-database"},"geometry":null},{"type":"Feature","id":"19597","properties":{"commune_code":"19597","commune_name":"Cam Lộ","commune_name_en":"Cam Lo","commune_full_name":"Xã Cam Lộ","commune_full_name_en":"Cam Lo Commune","commune_slug":"cam_lo","unit_type":"Xã","unit_type_en":"Commune","admin_level":2,"province_code":"44","province_name":"Quảng Trị","province_full_name":"Tỉnh Quảng Trị","province_slug":"quang_tri","join_key":"19597","status":"active","dataset_effective_date":"2026-04-30","catalog_version":"2026-07-12","geometry_status":"not_embedded_boundary_available_by_url","boundary_source_url":"https://raw.githubusercontent.com/thanglequoc/vietnamese-provinces-database/master/json/geojson/44_quang_tri/wards/19597_cam_lo.geojson","boundary_source_page":"https://github.com/thanglequoc/vietnamese-provinces-database/blob/master/json/geojson/44_quang_tri/wards/19597_cam_lo.geojson","source_catalog":"https://github.com/thanglequoc/vietnamese-provinces-database"},"geometry":null},{"type":"Feature","id":"19603","properties":{"commune_code":"19603","commune_name":"Hiếu Giang","commune_name_en":"Hieu Giang","commune_full_name":"Xã Hiếu Giang","commune_full_name_en":"Hieu Giang Commune","commune_slug":"hieu_giang","unit_type":"Xã","unit_type_en":"Commune","admin_level":2,"province_code":"44","province_name":"Quảng Trị","province_full_name":"Tỉnh Quảng Trị","province_slug":"quang_tri","join_key":"19603","status":"active","dataset_effective_date":"2026-04-30","catalog_version":"2026-07-12","geometry_status":"not_embedded_boundary_available_by_url","boundary_source_url":"https://raw.githubusercontent.com/thanglequoc/vietnamese-provinces-database/master/json/geojson/44_quang_tri/wards/19603_hieu_giang.geojson","boundary_source_page":"https://github.com/thanglequoc/vietnamese-provinces-database/blob/master/json/geojson/44_quang_tri/wards/19603_hieu_giang.geojson","source_catalog":"https://github.com/thanglequoc/vietnamese-provinces-database"},"geometry":null},{"type":"Feature","id":"19624","properties":{"commune_code":"19624","commune_name":"Triệu Phong","commune_name_en":"Trieu Phong","commune_full_name":"Xã Triệu Phong","commune_full_name_en":"Trieu Phong Commune","commune_slug":"trieu_phong","unit_type":"Xã","unit_type_en":"Commune","admin_level":2,"province_code":"44","province_name":"Quảng Trị","province_full_name":"Tỉnh Quảng Trị","province_slug":"quang_tri","join_key":"19624","status":"active","dataset_effective_date":"2026-04-30","catalog_version":"2026-07-12","geometry_status":"not_embedded_boundary_available_by_url","boundary_source_url":"https://raw.githubusercontent.com/thanglequoc/vietnamese-provinces-database/master/json/geojson/44_quang_tri/wards/19624_trieu_phong.geojson","boundary_source_page":"https://github.com/thanglequoc/vietnamese-provinces-database/blob/master/json/geojson/44_quang_tri/wards/19624_trieu_phong.geojson","source_catalog":"https://github.com/thanglequoc/vietnamese-provinces-database"},"geometry":null},{"type":"Feature","id":"19639","properties":{"commune_code":"19639","commune_name":"Nam Cửa Việt","commune_name_en":"Nam Cua Viet","commune_full_name":"Xã Nam Cửa Việt","commune_full_name_en":"Nam Cua Viet Commune","commune_slug":"nam_cua_viet","unit_type":"Xã","unit_type_en":"Commune","admin_level":2,"province_code":"44","province_name":"Quảng Trị","province_full_name":"Tỉnh Quảng Trị","province_slug":"quang_tri","join_key":"19639","status":"active","dataset_effective_date":"2026-04-30","catalog_version":"2026-07-12","geometry_status":"not_embedded_boundary_available_by_url","boundary_source_url":"https://raw.githubusercontent.com/thanglequoc/vietnamese-provinces-database/master/json/geojson/44_quang_tri/wards/19639_nam_cua_viet.geojson","boundary_source_page":"https://github.com/thanglequoc/vietnamese-provinces-database/blob/master/json/geojson/44_quang_tri/wards/19639_nam_cua_viet.geojson","source_catalog":"https://github.com/thanglequoc/vietnamese-provinces-database"},"geometry":null},{"type":"Feature","id":"19645","properties":{"commune_code":"19645","commune_name":"Triệu Bình","commune_name_en":"Trieu Binh","commune_full_name":"Xã Triệu Bình","commune_full_name_en":"Trieu Binh Commune","commune_slug":"trieu_binh","unit_type":"Xã","unit_type_en":"Commune","admin_level":2,"province_code":"44","province_name":"Quảng Trị","province_full_name":"Tỉnh Quảng Trị","province_slug":"quang_tri","join_key":"19645","status":"active","dataset_effective_date":"2026-04-30","catalog_version":"2026-07-12","geometry_status":"not_embedded_boundary_available_by_url","boundary_source_url":"https://raw.githubusercontent.com/thanglequoc/vietnamese-provinces-database/master/json/geojson/44_quang_tri/wards/19645_trieu_binh.geojson","boundary_source_page":"https://github.com/thanglequoc/vietnamese-provinces-database/blob/master/json/geojson/44_quang_tri/wards/19645_trieu_binh.geojson","source_catalog":"https://github.com/thanglequoc/vietnamese-provinces-database"},"geometry":null},{"type":"Feature","id":"19654","properties":{"commune_code":"19654","commune_name":"Triệu Cơ","commune_name_en":"Trieu Co","commune_full_name":"Xã Triệu Cơ","commune_full_name_en":"Trieu Co Commune","commune_slug":"trieu_co","unit_type":"Xã","unit_type_en":"Commune","admin_level":2,"province_code":"44","province_name":"Quảng Trị","province_full_name":"Tỉnh Quảng Trị","province_slug":"quang_tri","join_key":"19654","status":"active","dataset_effective_date":"2026-04-30","catalog_version":"2026-07-12","geometry_status":"not_embedded_boundary_available_by_url","boundary_source_url":"https://raw.githubusercontent.com/thanglequoc/vietnamese-provinces-database/master/json/geojson/44_quang_tri/wards/19654_trieu_co.geojson","boundary_source_page":"https://github.com/thanglequoc/vietnamese-provinces-database/blob/master/json/geojson/44_quang_tri/wards/19654_trieu_co.geojson","source_catalog":"https://github.com/thanglequoc/vietnamese-provinces-database"},"geometry":null},{"type":"Feature","id":"19669","properties":{"commune_code":"19669","commune_name":"Ái Tử","commune_name_en":"Ai Tu","commune_full_name":"Xã Ái Tử","commune_full_name_en":"Ai Tu Commune","commune_slug":"ai_tu","unit_type":"Xã","unit_type_en":"Commune","admin_level":2,"province_code":"44","province_name":"Quảng Trị","province_full_name":"Tỉnh Quảng Trị","province_slug":"quang_tri","join_key":"19669","status":"active","dataset_effective_date":"2026-04-30","catalog_version":"2026-07-12","geometry_status":"not_embedded_boundary_available_by_url","boundary_source_url":"https://raw.githubusercontent.com/thanglequoc/vietnamese-provinces-database/master/json/geojson/44_quang_tri/wards/19669_ai_tu.geojson","boundary_source_page":"https://github.com/thanglequoc/vietnamese-provinces-database/blob/master/json/geojson/44_quang_tri/wards/19669_ai_tu.geojson","source_catalog":"https://github.com/thanglequoc/vietnamese-provinces-database"},"geometry":null},{"type":"Feature","id":"19681","properties":{"commune_code":"19681","commune_name":"Diên Sanh","commune_name_en":"Dien Sanh","commune_full_name":"Xã Diên Sanh","commune_full_name_en":"Dien Sanh Commune","commune_slug":"dien_sanh","unit_type":"Xã","unit_type_en":"Commune","admin_level":2,"province_code":"44","province_name":"Quảng Trị","province_full_name":"Tỉnh Quảng Trị","province_slug":"quang_tri","join_key":"19681","status":"active","dataset_effective_date":"2026-04-30","catalog_version":"2026-07-12","geometry_status":"not_embedded_boundary_available_by_url","boundary_source_url":"https://raw.githubusercontent.com/thanglequoc/vietnamese-provinces-database/master/json/geojson/44_quang_tri/wards/19681_dien_sanh.geojson","boundary_source_page":"https://github.com/thanglequoc/vietnamese-provinces-database/blob/master/json/geojson/44_quang_tri/wards/19681_dien_sanh.geojson","source_catalog":"https://github.com/thanglequoc/vietnamese-provinces-database"},"geometry":null},{"type":"Feature","id":"19699","properties":{"commune_code":"19699","commune_name":"Vĩnh Định","commune_name_en":"Vinh Dinh","commune_full_name":"Xã Vĩnh Định","commune_full_name_en":"Vinh Dinh Commune","commune_slug":"vinh_dinh","unit_type":"Xã","unit_type_en":"Commune","admin_level":2,"province_code":"44","province_name":"Quảng Trị","province_full_name":"Tỉnh Quảng Trị","province_slug":"quang_tri","join_key":"19699","status":"active","dataset_effective_date":"2026-04-30","catalog_version":"2026-07-12","geometry_status":"not_embedded_boundary_available_by_url","boundary_source_url":"https://raw.githubusercontent.com/thanglequoc/vietnamese-provinces-database/master/json/geojson/44_quang_tri/wards/19699_vinh_dinh.geojson","boundary_source_page":"https://github.com/thanglequoc/vietnamese-provinces-database/blob/master/json/geojson/44_quang_tri/wards/19699_vinh_dinh.geojson","source_catalog":"https://github.com/thanglequoc/vietnamese-provinces-database"},"geometry":null},{"type":"Feature","id":"19702","properties":{"commune_code":"19702","commune_name":"Hải Lăng","commune_name_en":"Hai Lang","commune_full_name":"Xã Hải Lăng","commune_full_name_en":"Hai Lang Commune","commune_slug":"hai_lang","unit_type":"Xã","unit_type_en":"Commune","admin_level":2,"province_code":"44","province_name":"Quảng Trị","province_full_name":"Tỉnh Quảng Trị","province_slug":"quang_tri","join_key":"19702","status":"active","dataset_effective_date":"2026-04-30","catalog_version":"2026-07-12","geometry_status":"not_embedded_boundary_available_by_url","boundary_source_url":"https://raw.githubusercontent.com/thanglequoc/vietnamese-provinces-database/master/json/geojson/44_quang_tri/wards/19702_hai_lang.geojson","boundary_source_page":"https://github.com/thanglequoc/vietnamese-provinces-database/blob/master/json/geojson/44_quang_tri/wards/19702_hai_lang.geojson","source_catalog":"https://github.com/thanglequoc/vietnamese-provinces-database"},"geometry":null},{"type":"Feature","id":"19735","properties":{"commune_code":"19735","commune_name":"Nam Hải Lăng","commune_name_en":"Nam Hai Lang","commune_full_name":"Xã Nam Hải Lăng","commune_full_name_en":"Nam Hai Lang Commune","commune_slug":"nam_hai_lang","unit_type":"Xã","unit_type_en":"Commune","admin_level":2,"province_code":"44","province_name":"Quảng Trị","province_full_name":"Tỉnh Quảng Trị","province_slug":"quang_tri","join_key":"19735","status":"active","dataset_effective_date":"2026-04-30","catalog_version":"2026-07-12","geometry_status":"not_embedded_boundary_available_by_url","boundary_source_url":"https://raw.githubusercontent.com/thanglequoc/vietnamese-provinces-database/master/json/geojson/44_quang_tri/wards/19735_nam_hai_lang.geojson","boundary_source_page":"https://github.com/thanglequoc/vietnamese-provinces-database/blob/master/json/geojson/44_quang_tri/wards/19735_nam_hai_lang.geojson","source_catalog":"https://github.com/thanglequoc/vietnamese-provinces-database"},"geometry":null},{"type":"Feature","id":"19741","properties":{"commune_code":"19741","commune_name":"Mỹ Thuỷ","commune_name_en":"My Thuy","commune_full_name":"Xã Mỹ Thuỷ","commune_full_name_en":"My Thuy Commune","commune_slug":"my_thuy","unit_type":"Xã","unit_type_en":"Commune","admin_level":2,"province_code":"44","province_name":"Quảng Trị","province_full_name":"Tỉnh Quảng Trị","province_slug":"quang_tri","join_key":"19741","status":"active","dataset_effective_date":"2026-04-30","catalog_version":"2026-07-12","geometry_status":"not_embedded_boundary_available_by_url","boundary_source_url":"https://raw.githubusercontent.com/thanglequoc/vietnamese-provinces-database/master/json/geojson/44_quang_tri/wards/19741_my_thuy.geojson","boundary_source_page":"https://github.com/thanglequoc/vietnamese-provinces-database/blob/master/json/geojson/44_quang_tri/wards/19741_my_thuy.geojson","source_catalog":"https://github.com/thanglequoc/vietnamese-provinces-database"},"geometry":null},{"type":"Feature","id":"19742","properties":{"commune_code":"19742","commune_name":"Cồn Cỏ","commune_name_en":"Con Co","commune_full_name":"Đặc khu Cồn Cỏ","commune_full_name_en":"Con Co Special administrative region","commune_slug":"con_co","unit_type":"Đặc khu","unit_type_en":"Special administrative region","admin_level":2,"province_code":"44","province_name":"Quảng Trị","province_full_name":"Tỉnh Quảng Trị","province_slug":"quang_tri","join_key":"19742","status":"active","dataset_effective_date":"2026-04-30","catalog_version":"2026-07-12","geometry_status":"not_embedded_boundary_available_by_url","boundary_source_url":"https://raw.githubusercontent.com/thanglequoc/vietnamese-provinces-database/master/json/geojson/44_quang_tri/wards/19742_con_co.geojson","boundary_source_page":"https://github.com/thanglequoc/vietnamese-provinces-database/blob/master/json/geojson/44_quang_tri/wards/19742_con_co.geojson","source_catalog":"https://github.com/thanglequoc/vietnamese-provinces-database"},"geometry":null}]}