{"type":"FeatureCollection","name":"48_da_nang_communes_attributes","metadata":{"province_code":"48","province_name":"Đà Nẵng","feature_count":94,"geometry":null,"join_key":"commune_code"},"features":[{"type":"Feature","id":"20194","properties":{"commune_code":"20194","commune_name":"Hải Vân","commune_name_en":"Hai Van","commune_full_name":"Phường Hải Vân","commune_full_name_en":"Hai Van Ward","commune_slug":"hai_van","unit_type":"Phường","unit_type_en":"Ward","admin_level":2,"province_code":"48","province_name":"Đà Nẵng","province_full_name":"Thành phố Đà Nẵng","province_slug":"da_nang","join_key":"20194","status":"active","dataset_effective_date":"2026-04-30","catalog_version":"2026-07-12","geometry_status":"not_embedded_boundary_available_by_url","boundary_source_url":"https://raw.githubusercontent.com/thanglequoc/vietnamese-provinces-database/master/json/geojson/48_da_nang/wards/20194_hai_van.geojson","boundary_source_page":"https://github.com/thanglequoc/vietnamese-provinces-database/blob/master/json/geojson/48_da_nang/wards/20194_hai_van.geojson","source_catalog":"https://github.com/thanglequoc/vietnamese-provinces-database"},"geometry":null},{"type":"Feature","id":"20197","properties":{"commune_code":"20197","commune_name":"Liên Chiểu","commune_name_en":"Lien Chieu","commune_full_name":"Phường Liên Chiểu","commune_full_name_en":"Lien Chieu Ward","commune_slug":"lien_chieu","unit_type":"Phường","unit_type_en":"Ward","admin_level":2,"province_code":"48","province_name":"Đà Nẵng","province_full_name":"Thành phố Đà Nẵng","province_slug":"da_nang","join_key":"20197","status":"active","dataset_effective_date":"2026-04-30","catalog_version":"2026-07-12","geometry_status":"not_embedded_boundary_available_by_url","boundary_source_url":"https://raw.githubusercontent.com/thanglequoc/vietnamese-provinces-database/master/json/geojson/48_da_nang/wards/20197_lien_chieu.geojson","boundary_source_page":"https://github.com/thanglequoc/vietnamese-provinces-database/blob/master/json/geojson/48_da_nang/wards/20197_lien_chieu.geojson","source_catalog":"https://github.com/thanglequoc/vietnamese-provinces-database"},"geometry":null},{"type":"Feature","id":"20200","properties":{"commune_code":"20200","commune_name":"Hoà Khánh","commune_name_en":"Hoa Khanh","commune_full_name":"Phường Hoà Khánh","commune_full_name_en":"Hoa Khanh Ward","commune_slug":"hoa_khanh","unit_type":"Phường","unit_type_en":"Ward","admin_level":2,"province_code":"48","province_name":"Đà Nẵng","province_full_name":"Thành phố Đà Nẵng","province_slug":"da_nang","join_key":"20200","status":"active","dataset_effective_date":"2026-04-30","catalog_version":"2026-07-12","geometry_status":"not_embedded_boundary_available_by_url","boundary_source_url":"https://raw.githubusercontent.com/thanglequoc/vietnamese-provinces-database/master/json/geojson/48_da_nang/wards/20200_hoa_khanh.geojson","boundary_source_page":"https://github.com/thanglequoc/vietnamese-provinces-database/blob/master/json/geojson/48_da_nang/wards/20200_hoa_khanh.geojson","source_catalog":"https://github.com/thanglequoc/vietnamese-provinces-database"},"geometry":null},{"type":"Feature","id":"20209","properties":{"commune_code":"20209","commune_name":"Thanh Khê","commune_name_en":"Thanh Khe","commune_full_name":"Phường Thanh Khê","commune_full_name_en":"Thanh Khe Ward","commune_slug":"thanh_khe","unit_type":"Phường","unit_type_en":"Ward","admin_level":2,"province_code":"48","province_name":"Đà Nẵng","province_full_name":"Thành phố Đà Nẵng","province_slug":"da_nang","join_key":"20209","status":"active","dataset_effective_date":"2026-04-30","catalog_version":"2026-07-12","geometry_status":"not_embedded_boundary_available_by_url","boundary_source_url":"https://raw.githubusercontent.com/thanglequoc/vietnamese-provinces-database/master/json/geojson/48_da_nang/wards/20209_thanh_khe.geojson","boundary_source_page":"https://github.com/thanglequoc/vietnamese-provinces-database/blob/master/json/geojson/48_da_nang/wards/20209_thanh_khe.geojson","source_catalog":"https://github.com/thanglequoc/vietnamese-provinces-database"},"geometry":null},{"type":"Feature","id":"20242","properties":{"commune_code":"20242","commune_name":"Hải Châu","commune_name_en":"Hai Chau","commune_full_name":"Phường Hải Châu","commune_full_name_en":"Hai Chau Ward","commune_slug":"hai_chau","unit_type":"Phường","unit_type_en":"Ward","admin_level":2,"province_code":"48","province_name":"Đà Nẵng","province_full_name":"Thành phố Đà Nẵng","province_slug":"da_nang","join_key":"20242","status":"active","dataset_effective_date":"2026-04-30","catalog_version":"2026-07-12","geometry_status":"not_embedded_boundary_available_by_url","boundary_source_url":"https://raw.githubusercontent.com/thanglequoc/vietnamese-provinces-database/master/json/geojson/48_da_nang/wards/20242_hai_chau.geojson","boundary_source_page":"https://github.com/thanglequoc/vietnamese-provinces-database/blob/master/json/geojson/48_da_nang/wards/20242_hai_chau.geojson","source_catalog":"https://github.com/thanglequoc/vietnamese-provinces-database"},"geometry":null},{"type":"Feature","id":"20257","properties":{"commune_code":"20257","commune_name":"Hoà Cường","commune_name_en":"Hoa Cuong","commune_full_name":"Phường Hoà Cường","commune_full_name_en":"Hoa Cuong Ward","commune_slug":"hoa_cuong","unit_type":"Phường","unit_type_en":"Ward","admin_level":2,"province_code":"48","province_name":"Đà Nẵng","province_full_name":"Thành phố Đà Nẵng","province_slug":"da_nang","join_key":"20257","status":"active","dataset_effective_date":"2026-04-30","catalog_version":"2026-07-12","geometry_status":"not_embedded_boundary_available_by_url","boundary_source_url":"https://raw.githubusercontent.com/thanglequoc/vietnamese-provinces-database/master/json/geojson/48_da_nang/wards/20257_hoa_cuong.geojson","boundary_source_page":"https://github.com/thanglequoc/vietnamese-provinces-database/blob/master/json/geojson/48_da_nang/wards/20257_hoa_cuong.geojson","source_catalog":"https://github.com/thanglequoc/vietnamese-provinces-database"},"geometry":null},{"type":"Feature","id":"20260","properties":{"commune_code":"20260","commune_name":"Cẩm Lệ","commune_name_en":"Cam Le","commune_full_name":"Phường Cẩm Lệ","commune_full_name_en":"Cam Le Ward","commune_slug":"cam_le","unit_type":"Phường","unit_type_en":"Ward","admin_level":2,"province_code":"48","province_name":"Đà Nẵng","province_full_name":"Thành phố Đà Nẵng","province_slug":"da_nang","join_key":"20260","status":"active","dataset_effective_date":"2026-04-30","catalog_version":"2026-07-12","geometry_status":"not_embedded_boundary_available_by_url","boundary_source_url":"https://raw.githubusercontent.com/thanglequoc/vietnamese-provinces-database/master/json/geojson/48_da_nang/wards/20260_cam_le.geojson","boundary_source_page":"https://github.com/thanglequoc/vietnamese-provinces-database/blob/master/json/geojson/48_da_nang/wards/20260_cam_le.geojson","source_catalog":"https://github.com/thanglequoc/vietnamese-provinces-database"},"geometry":null},{"type":"Feature","id":"20263","properties":{"commune_code":"20263","commune_name":"Sơn Trà","commune_name_en":"Son Tra","commune_full_name":"Phường Sơn Trà","commune_full_name_en":"Son Tra Ward","commune_slug":"son_tra","unit_type":"Phường","unit_type_en":"Ward","admin_level":2,"province_code":"48","province_name":"Đà Nẵng","province_full_name":"Thành phố Đà Nẵng","province_slug":"da_nang","join_key":"20263","status":"active","dataset_effective_date":"2026-04-30","catalog_version":"2026-07-12","geometry_status":"not_embedded_boundary_available_by_url","boundary_source_url":"https://raw.githubusercontent.com/thanglequoc/vietnamese-provinces-database/master/json/geojson/48_da_nang/wards/20263_son_tra.geojson","boundary_source_page":"https://github.com/thanglequoc/vietnamese-provinces-database/blob/master/json/geojson/48_da_nang/wards/20263_son_tra.geojson","source_catalog":"https://github.com/thanglequoc/vietnamese-provinces-database"},"geometry":null},{"type":"Feature","id":"20275","properties":{"commune_code":"20275","commune_name":"An Hải","commune_name_en":"An Hai","commune_full_name":"Phường An Hải","commune_full_name_en":"An Hai Ward","commune_slug":"an_hai","unit_type":"Phường","unit_type_en":"Ward","admin_level":2,"province_code":"48","province_name":"Đà Nẵng","province_full_name":"Thành phố Đà Nẵng","province_slug":"da_nang","join_key":"20275","status":"active","dataset_effective_date":"2026-04-30","catalog_version":"2026-07-12","geometry_status":"not_embedded_boundary_available_by_url","boundary_source_url":"https://raw.githubusercontent.com/thanglequoc/vietnamese-provinces-database/master/json/geojson/48_da_nang/wards/20275_an_hai.geojson","boundary_source_page":"https://github.com/thanglequoc/vietnamese-provinces-database/blob/master/json/geojson/48_da_nang/wards/20275_an_hai.geojson","source_catalog":"https://github.com/thanglequoc/vietnamese-provinces-database"},"geometry":null},{"type":"Feature","id":"20285","properties":{"commune_code":"20285","commune_name":"Ngũ Hành Sơn","commune_name_en":"Ngu Hanh Son","commune_full_name":"Phường Ngũ Hành Sơn","commune_full_name_en":"Ngu Hanh Son Ward","commune_slug":"ngu_hanh_son","unit_type":"Phường","unit_type_en":"Ward","admin_level":2,"province_code":"48","province_name":"Đà Nẵng","province_full_name":"Thành phố Đà Nẵng","province_slug":"da_nang","join_key":"20285","status":"active","dataset_effective_date":"2026-04-30","catalog_version":"2026-07-12","geometry_status":"not_embedded_boundary_available_by_url","boundary_source_url":"https://raw.githubusercontent.com/thanglequoc/vietnamese-provinces-database/master/json/geojson/48_da_nang/wards/20285_ngu_hanh_son.geojson","boundary_source_page":"https://github.com/thanglequoc/vietnamese-provinces-database/blob/master/json/geojson/48_da_nang/wards/20285_ngu_hanh_son.geojson","source_catalog":"https://github.com/thanglequoc/vietnamese-provinces-database"},"geometry":null},{"type":"Feature","id":"20305","properties":{"commune_code":"20305","commune_name":"An Khê","commune_name_en":"An Khe","commune_full_name":"Phường An Khê","commune_full_name_en":"An Khe Ward","commune_slug":"an_khe","unit_type":"Phường","unit_type_en":"Ward","admin_level":2,"province_code":"48","province_name":"Đà Nẵng","province_full_name":"Thành phố Đà Nẵng","province_slug":"da_nang","join_key":"20305","status":"active","dataset_effective_date":"2026-04-30","catalog_version":"2026-07-12","geometry_status":"not_embedded_boundary_available_by_url","boundary_source_url":"https://raw.githubusercontent.com/thanglequoc/vietnamese-provinces-database/master/json/geojson/48_da_nang/wards/20305_an_khe.geojson","boundary_source_page":"https://github.com/thanglequoc/vietnamese-provinces-database/blob/master/json/geojson/48_da_nang/wards/20305_an_khe.geojson","source_catalog":"https://github.com/thanglequoc/vietnamese-provinces-database"},"geometry":null},{"type":"Feature","id":"20308","properties":{"commune_code":"20308","commune_name":"Bà Nà","commune_name_en":"Ba Na","commune_full_name":"Xã Bà Nà","commune_full_name_en":"Ba Na Commune","commune_slug":"ba_na","unit_type":"Xã","unit_type_en":"Commune","admin_level":2,"province_code":"48","province_name":"Đà Nẵng","province_full_name":"Thành phố Đà Nẵng","province_slug":"da_nang","join_key":"20308","status":"active","dataset_effective_date":"2026-04-30","catalog_version":"2026-07-12","geometry_status":"not_embedded_boundary_available_by_url","boundary_source_url":"https://raw.githubusercontent.com/thanglequoc/vietnamese-provinces-database/master/json/geojson/48_da_nang/wards/20308_ba_na.geojson","boundary_source_page":"https://github.com/thanglequoc/vietnamese-provinces-database/blob/master/json/geojson/48_da_nang/wards/20308_ba_na.geojson","source_catalog":"https://github.com/thanglequoc/vietnamese-provinces-database"},"geometry":null},{"type":"Feature","id":"20314","properties":{"commune_code":"20314","commune_name":"Hoà Xuân","commune_name_en":"Hoa Xuan","commune_full_name":"Phường Hoà Xuân","commune_full_name_en":"Hoa Xuan Ward","commune_slug":"hoa_xuan","unit_type":"Phường","unit_type_en":"Ward","admin_level":2,"province_code":"48","province_name":"Đà Nẵng","province_full_name":"Thành phố Đà Nẵng","province_slug":"da_nang","join_key":"20314","status":"active","dataset_effective_date":"2026-04-30","catalog_version":"2026-07-12","geometry_status":"not_embedded_boundary_available_by_url","boundary_source_url":"https://raw.githubusercontent.com/thanglequoc/vietnamese-provinces-database/master/json/geojson/48_da_nang/wards/20314_hoa_xuan.geojson","boundary_source_page":"https://github.com/thanglequoc/vietnamese-provinces-database/blob/master/json/geojson/48_da_nang/wards/20314_hoa_xuan.geojson","source_catalog":"https://github.com/thanglequoc/vietnamese-provinces-database"},"geometry":null},{"type":"Feature","id":"20320","properties":{"commune_code":"20320","commune_name":"Hoà Vang","commune_name_en":"Hoa Vang","commune_full_name":"Xã Hoà Vang","commune_full_name_en":"Hoa Vang Commune","commune_slug":"hoa_vang","unit_type":"Xã","unit_type_en":"Commune","admin_level":2,"province_code":"48","province_name":"Đà Nẵng","province_full_name":"Thành phố Đà Nẵng","province_slug":"da_nang","join_key":"20320","status":"active","dataset_effective_date":"2026-04-30","catalog_version":"2026-07-12","geometry_status":"not_embedded_boundary_available_by_url","boundary_source_url":"https://raw.githubusercontent.com/thanglequoc/vietnamese-provinces-database/master/json/geojson/48_da_nang/wards/20320_hoa_vang.geojson","boundary_source_page":"https://github.com/thanglequoc/vietnamese-provinces-database/blob/master/json/geojson/48_da_nang/wards/20320_hoa_vang.geojson","source_catalog":"https://github.com/thanglequoc/vietnamese-provinces-database"},"geometry":null},{"type":"Feature","id":"20332","properties":{"commune_code":"20332","commune_name":"Hoà Tiến","commune_name_en":"Hoa Tien","commune_full_name":"Xã Hoà Tiến","commune_full_name_en":"Hoa Tien Commune","commune_slug":"hoa_tien","unit_type":"Xã","unit_type_en":"Commune","admin_level":2,"province_code":"48","province_name":"Đà Nẵng","province_full_name":"Thành phố Đà Nẵng","province_slug":"da_nang","join_key":"20332","status":"active","dataset_effective_date":"2026-04-30","catalog_version":"2026-07-12","geometry_status":"not_embedded_boundary_available_by_url","boundary_source_url":"https://raw.githubusercontent.com/thanglequoc/vietnamese-provinces-database/master/json/geojson/48_da_nang/wards/20332_hoa_tien.geojson","boundary_source_page":"https://github.com/thanglequoc/vietnamese-provinces-database/blob/master/json/geojson/48_da_nang/wards/20332_hoa_tien.geojson","source_catalog":"https://github.com/thanglequoc/vietnamese-provinces-database"},"geometry":null},{"type":"Feature","id":"20333","properties":{"commune_code":"20333","commune_name":"Hoàng Sa","commune_name_en":"Paracel","commune_full_name":"Đặc khu Hoàng Sa","commune_full_name_en":"Paracel Special administrative region","commune_slug":"hoang_sa","unit_type":"Đặc khu","unit_type_en":"Special administrative region","admin_level":2,"province_code":"48","province_name":"Đà Nẵng","province_full_name":"Thành phố Đà Nẵng","province_slug":"da_nang","join_key":"20333","status":"active","dataset_effective_date":"2026-04-30","catalog_version":"2026-07-12","geometry_status":"not_embedded_boundary_available_by_url","boundary_source_url":"https://raw.githubusercontent.com/thanglequoc/vietnamese-provinces-database/master/json/geojson/48_da_nang/wards/20333_hoang_sa.geojson","boundary_source_page":"https://github.com/thanglequoc/vietnamese-provinces-database/blob/master/json/geojson/48_da_nang/wards/20333_hoang_sa.geojson","source_catalog":"https://github.com/thanglequoc/vietnamese-provinces-database"},"geometry":null},{"type":"Feature","id":"20335","properties":{"commune_code":"20335","commune_name":"Bàn Thạch","commune_name_en":"Ban Thach","commune_full_name":"Phường Bàn Thạch","commune_full_name_en":"Ban Thach Ward","commune_slug":"ban_thach","unit_type":"Phường","unit_type_en":"Ward","admin_level":2,"province_code":"48","province_name":"Đà Nẵng","province_full_name":"Thành phố Đà Nẵng","province_slug":"da_nang","join_key":"20335","status":"active","dataset_effective_date":"2026-04-30","catalog_version":"2026-07-12","geometry_status":"not_embedded_boundary_available_by_url","boundary_source_url":"https://raw.githubusercontent.com/thanglequoc/vietnamese-provinces-database/master/json/geojson/48_da_nang/wards/20335_ban_thach.geojson","boundary_source_page":"https://github.com/thanglequoc/vietnamese-provinces-database/blob/master/json/geojson/48_da_nang/wards/20335_ban_thach.geojson","source_catalog":"https://github.com/thanglequoc/vietnamese-provinces-database"},"geometry":null},{"type":"Feature","id":"20341","properties":{"commune_code":"20341","commune_name":"Tam Kỳ","commune_name_en":"Tam Ky","commune_full_name":"Phường Tam Kỳ","commune_full_name_en":"Tam Ky Ward","commune_slug":"tam_ky","unit_type":"Phường","unit_type_en":"Ward","admin_level":2,"province_code":"48","province_name":"Đà Nẵng","province_full_name":"Thành phố Đà Nẵng","province_slug":"da_nang","join_key":"20341","status":"active","dataset_effective_date":"2026-04-30","catalog_version":"2026-07-12","geometry_status":"not_embedded_boundary_available_by_url","boundary_source_url":"https://raw.githubusercontent.com/thanglequoc/vietnamese-provinces-database/master/json/geojson/48_da_nang/wards/20341_tam_ky.geojson","boundary_source_page":"https://github.com/thanglequoc/vietnamese-provinces-database/blob/master/json/geojson/48_da_nang/wards/20341_tam_ky.geojson","source_catalog":"https://github.com/thanglequoc/vietnamese-provinces-database"},"geometry":null},{"type":"Feature","id":"20350","properties":{"commune_code":"20350","commune_name":"Hương Trà","commune_name_en":"Huong Tra","commune_full_name":"Phường Hương Trà","commune_full_name_en":"Huong Tra Ward","commune_slug":"huong_tra","unit_type":"Phường","unit_type_en":"Ward","admin_level":2,"province_code":"48","province_name":"Đà Nẵng","province_full_name":"Thành phố Đà Nẵng","province_slug":"da_nang","join_key":"20350","status":"active","dataset_effective_date":"2026-04-30","catalog_version":"2026-07-12","geometry_status":"not_embedded_boundary_available_by_url","boundary_source_url":"https://raw.githubusercontent.com/thanglequoc/vietnamese-provinces-database/master/json/geojson/48_da_nang/wards/20350_huong_tra.geojson","boundary_source_page":"https://github.com/thanglequoc/vietnamese-provinces-database/blob/master/json/geojson/48_da_nang/wards/20350_huong_tra.geojson","source_catalog":"https://github.com/thanglequoc/vietnamese-provinces-database"},"geometry":null},{"type":"Feature","id":"20356","properties":{"commune_code":"20356","commune_name":"Quảng Phú","commune_name_en":"Quang Phu","commune_full_name":"Phường Quảng Phú","commune_full_name_en":"Quang Phu Ward","commune_slug":"quang_phu","unit_type":"Phường","unit_type_en":"Ward","admin_level":2,"province_code":"48","province_name":"Đà Nẵng","province_full_name":"Thành phố Đà Nẵng","province_slug":"da_nang","join_key":"20356","status":"active","dataset_effective_date":"2026-04-30","catalog_version":"2026-07-12","geometry_status":"not_embedded_boundary_available_by_url","boundary_source_url":"https://raw.githubusercontent.com/thanglequoc/vietnamese-provinces-database/master/json/geojson/48_da_nang/wards/20356_quang_phu.geojson","boundary_source_page":"https://github.com/thanglequoc/vietnamese-provinces-database/blob/master/json/geojson/48_da_nang/wards/20356_quang_phu.geojson","source_catalog":"https://github.com/thanglequoc/vietnamese-provinces-database"},"geometry":null},{"type":"Feature","id":"20364","properties":{"commune_code":"20364","commune_name":"Chiên Đàn","commune_name_en":"Chien Dan","commune_full_name":"Xã Chiên Đàn","commune_full_name_en":"Chien Dan Commune","commune_slug":"chien_dan","unit_type":"Xã","unit_type_en":"Commune","admin_level":2,"province_code":"48","province_name":"Đà Nẵng","province_full_name":"Thành phố Đà Nẵng","province_slug":"da_nang","join_key":"20364","status":"active","dataset_effective_date":"2026-04-30","catalog_version":"2026-07-12","geometry_status":"not_embedded_boundary_available_by_url","boundary_source_url":"https://raw.githubusercontent.com/thanglequoc/vietnamese-provinces-database/master/json/geojson/48_da_nang/wards/20364_chien_dan.geojson","boundary_source_page":"https://github.com/thanglequoc/vietnamese-provinces-database/blob/master/json/geojson/48_da_nang/wards/20364_chien_dan.geojson","source_catalog":"https://github.com/thanglequoc/vietnamese-provinces-database"},"geometry":null},{"type":"Feature","id":"20380","properties":{"commune_code":"20380","commune_name":"Tây Hồ","commune_name_en":"Tay Ho","commune_full_name":"Xã Tây Hồ","commune_full_name_en":"Tay Ho Commune","commune_slug":"tay_ho","unit_type":"Xã","unit_type_en":"Commune","admin_level":2,"province_code":"48","province_name":"Đà Nẵng","province_full_name":"Thành phố Đà Nẵng","province_slug":"da_nang","join_key":"20380","status":"active","dataset_effective_date":"2026-04-30","catalog_version":"2026-07-12","geometry_status":"not_embedded_boundary_available_by_url","boundary_source_url":"https://raw.githubusercontent.com/thanglequoc/vietnamese-provinces-database/master/json/geojson/48_da_nang/wards/20380_tay_ho.geojson","boundary_source_page":"https://github.com/thanglequoc/vietnamese-provinces-database/blob/master/json/geojson/48_da_nang/wards/20380_tay_ho.geojson","source_catalog":"https://github.com/thanglequoc/vietnamese-provinces-database"},"geometry":null},{"type":"Feature","id":"20392","properties":{"commune_code":"20392","commune_name":"Phú Ninh","commune_name_en":"Phu Ninh","commune_full_name":"Xã Phú Ninh","commune_full_name_en":"Phu Ninh Commune","commune_slug":"phu_ninh","unit_type":"Xã","unit_type_en":"Commune","admin_level":2,"province_code":"48","province_name":"Đà Nẵng","province_full_name":"Thành phố Đà Nẵng","province_slug":"da_nang","join_key":"20392","status":"active","dataset_effective_date":"2026-04-30","catalog_version":"2026-07-12","geometry_status":"not_embedded_boundary_available_by_url","boundary_source_url":"https://raw.githubusercontent.com/thanglequoc/vietnamese-provinces-database/master/json/geojson/48_da_nang/wards/20392_phu_ninh.geojson","boundary_source_page":"https://github.com/thanglequoc/vietnamese-provinces-database/blob/master/json/geojson/48_da_nang/wards/20392_phu_ninh.geojson","source_catalog":"https://github.com/thanglequoc/vietnamese-provinces-database"},"geometry":null},{"type":"Feature","id":"20401","properties":{"commune_code":"20401","commune_name":"Hội An Tây","commune_name_en":"Hoi An Tay","commune_full_name":"Phường Hội An Tây","commune_full_name_en":"Hoi An Tay Ward","commune_slug":"hoi_an_tay","unit_type":"Phường","unit_type_en":"Ward","admin_level":2,"province_code":"48","province_name":"Đà Nẵng","province_full_name":"Thành phố Đà Nẵng","province_slug":"da_nang","join_key":"20401","status":"active","dataset_effective_date":"2026-04-30","catalog_version":"2026-07-12","geometry_status":"not_embedded_boundary_available_by_url","boundary_source_url":"https://raw.githubusercontent.com/thanglequoc/vietnamese-provinces-database/master/json/geojson/48_da_nang/wards/20401_hoi_an_tay.geojson","boundary_source_page":"https://github.com/thanglequoc/vietnamese-provinces-database/blob/master/json/geojson/48_da_nang/wards/20401_hoi_an_tay.geojson","source_catalog":"https://github.com/thanglequoc/vietnamese-provinces-database"},"geometry":null},{"type":"Feature","id":"20410","properties":{"commune_code":"20410","commune_name":"Hội An","commune_name_en":"Hoi An","commune_full_name":"Phường Hội An","commune_full_name_en":"Hoi An Ward","commune_slug":"hoi_an","unit_type":"Phường","unit_type_en":"Ward","admin_level":2,"province_code":"48","province_name":"Đà Nẵng","province_full_name":"Thành phố Đà Nẵng","province_slug":"da_nang","join_key":"20410","status":"active","dataset_effective_date":"2026-04-30","catalog_version":"2026-07-12","geometry_status":"not_embedded_boundary_available_by_url","boundary_source_url":"https://raw.githubusercontent.com/thanglequoc/vietnamese-provinces-database/master/json/geojson/48_da_nang/wards/20410_hoi_an.geojson","boundary_source_page":"https://github.com/thanglequoc/vietnamese-provinces-database/blob/master/json/geojson/48_da_nang/wards/20410_hoi_an.geojson","source_catalog":"https://github.com/thanglequoc/vietnamese-provinces-database"},"geometry":null},{"type":"Feature","id":"20413","properties":{"commune_code":"20413","commune_name":"Hội An Đông","commune_name_en":"Hoi An Dong","commune_full_name":"Phường Hội An Đông","commune_full_name_en":"Hoi An Dong Ward","commune_slug":"hoi_an_dong","unit_type":"Phường","unit_type_en":"Ward","admin_level":2,"province_code":"48","province_name":"Đà Nẵng","province_full_name":"Thành phố Đà Nẵng","province_slug":"da_nang","join_key":"20413","status":"active","dataset_effective_date":"2026-04-30","catalog_version":"2026-07-12","geometry_status":"not_embedded_boundary_available_by_url","boundary_source_url":"https://raw.githubusercontent.com/thanglequoc/vietnamese-provinces-database/master/json/geojson/48_da_nang/wards/20413_hoi_an_dong.geojson","boundary_source_page":"https://github.com/thanglequoc/vietnamese-provinces-database/blob/master/json/geojson/48_da_nang/wards/20413_hoi_an_dong.geojson","source_catalog":"https://github.com/thanglequoc/vietnamese-provinces-database"},"geometry":null},{"type":"Feature","id":"20434","properties":{"commune_code":"20434","commune_name":"Tân Hiệp","commune_name_en":"Tan Hiep","commune_full_name":"Xã Tân Hiệp","commune_full_name_en":"Tan Hiep Commune","commune_slug":"tan_hiep","unit_type":"Xã","unit_type_en":"Commune","admin_level":2,"province_code":"48","province_name":"Đà Nẵng","province_full_name":"Thành phố Đà Nẵng","province_slug":"da_nang","join_key":"20434","status":"active","dataset_effective_date":"2026-04-30","catalog_version":"2026-07-12","geometry_status":"not_embedded_boundary_available_by_url","boundary_source_url":"https://raw.githubusercontent.com/thanglequoc/vietnamese-provinces-database/master/json/geojson/48_da_nang/wards/20434_tan_hiep.geojson","boundary_source_page":"https://github.com/thanglequoc/vietnamese-provinces-database/blob/master/json/geojson/48_da_nang/wards/20434_tan_hiep.geojson","source_catalog":"https://github.com/thanglequoc/vietnamese-provinces-database"},"geometry":null},{"type":"Feature","id":"20443","properties":{"commune_code":"20443","commune_name":"Hùng Sơn","commune_name_en":"Hung Son","commune_full_name":"Xã Hùng Sơn","commune_full_name_en":"Hung Son Commune","commune_slug":"hung_son","unit_type":"Xã","unit_type_en":"Commune","admin_level":2,"province_code":"48","province_name":"Đà Nẵng","province_full_name":"Thành phố Đà Nẵng","province_slug":"da_nang","join_key":"20443","status":"active","dataset_effective_date":"2026-04-30","catalog_version":"2026-07-12","geometry_status":"not_embedded_boundary_available_by_url","boundary_source_url":"https://raw.githubusercontent.com/thanglequoc/vietnamese-provinces-database/master/json/geojson/48_da_nang/wards/20443_hung_son.geojson","boundary_source_page":"https://github.com/thanglequoc/vietnamese-provinces-database/blob/master/json/geojson/48_da_nang/wards/20443_hung_son.geojson","source_catalog":"https://github.com/thanglequoc/vietnamese-provinces-database"},"geometry":null},{"type":"Feature","id":"20455","properties":{"commune_code":"20455","commune_name":"Tây Giang","commune_name_en":"Tay Giang","commune_full_name":"Xã Tây Giang","commune_full_name_en":"Tay Giang Commune","commune_slug":"tay_giang","unit_type":"Xã","unit_type_en":"Commune","admin_level":2,"province_code":"48","province_name":"Đà Nẵng","province_full_name":"Thành phố Đà Nẵng","province_slug":"da_nang","join_key":"20455","status":"active","dataset_effective_date":"2026-04-30","catalog_version":"2026-07-12","geometry_status":"not_embedded_boundary_available_by_url","boundary_source_url":"https://raw.githubusercontent.com/thanglequoc/vietnamese-provinces-database/master/json/geojson/48_da_nang/wards/20455_tay_giang.geojson","boundary_source_page":"https://github.com/thanglequoc/vietnamese-provinces-database/blob/master/json/geojson/48_da_nang/wards/20455_tay_giang.geojson","source_catalog":"https://github.com/thanglequoc/vietnamese-provinces-database"},"geometry":null},{"type":"Feature","id":"20458","properties":{"commune_code":"20458","commune_name":"Avương","commune_name_en":"Avuong","commune_full_name":"Xã Avương","commune_full_name_en":"Avuong Commune","commune_slug":"avuong","unit_type":"Xã","unit_type_en":"Commune","admin_level":2,"province_code":"48","province_name":"Đà Nẵng","province_full_name":"Thành phố Đà Nẵng","province_slug":"da_nang","join_key":"20458","status":"active","dataset_effective_date":"2026-04-30","catalog_version":"2026-07-12","geometry_status":"not_embedded_boundary_available_by_url","boundary_source_url":"https://raw.githubusercontent.com/thanglequoc/vietnamese-provinces-database/master/json/geojson/48_da_nang/wards/20458_avuong.geojson","boundary_source_page":"https://github.com/thanglequoc/vietnamese-provinces-database/blob/master/json/geojson/48_da_nang/wards/20458_avuong.geojson","source_catalog":"https://github.com/thanglequoc/vietnamese-provinces-database"},"geometry":null},{"type":"Feature","id":"20467","properties":{"commune_code":"20467","commune_name":"Đông Giang","commune_name_en":"Dong Giang","commune_full_name":"Xã Đông Giang","commune_full_name_en":"Dong Giang Commune","commune_slug":"dong_giang","unit_type":"Xã","unit_type_en":"Commune","admin_level":2,"province_code":"48","province_name":"Đà Nẵng","province_full_name":"Thành phố Đà Nẵng","province_slug":"da_nang","join_key":"20467","status":"active","dataset_effective_date":"2026-04-30","catalog_version":"2026-07-12","geometry_status":"not_embedded_boundary_available_by_url","boundary_source_url":"https://raw.githubusercontent.com/thanglequoc/vietnamese-provinces-database/master/json/geojson/48_da_nang/wards/20467_dong_giang.geojson","boundary_source_page":"https://github.com/thanglequoc/vietnamese-provinces-database/blob/master/json/geojson/48_da_nang/wards/20467_dong_giang.geojson","source_catalog":"https://github.com/thanglequoc/vietnamese-provinces-database"},"geometry":null},{"type":"Feature","id":"20476","properties":{"commune_code":"20476","commune_name":"Sông Kôn","commune_name_en":"Song Kon","commune_full_name":"Xã Sông Kôn","commune_full_name_en":"Song Kon Commune","commune_slug":"song_kon","unit_type":"Xã","unit_type_en":"Commune","admin_level":2,"province_code":"48","province_name":"Đà Nẵng","province_full_name":"Thành phố Đà Nẵng","province_slug":"da_nang","join_key":"20476","status":"active","dataset_effective_date":"2026-04-30","catalog_version":"2026-07-12","geometry_status":"not_embedded_boundary_available_by_url","boundary_source_url":"https://raw.githubusercontent.com/thanglequoc/vietnamese-provinces-database/master/json/geojson/48_da_nang/wards/20476_song_kon.geojson","boundary_source_page":"https://github.com/thanglequoc/vietnamese-provinces-database/blob/master/json/geojson/48_da_nang/wards/20476_song_kon.geojson","source_catalog":"https://github.com/thanglequoc/vietnamese-provinces-database"},"geometry":null},{"type":"Feature","id":"20485","properties":{"commune_code":"20485","commune_name":"Sông Vàng","commune_name_en":"Song Vang","commune_full_name":"Xã Sông Vàng","commune_full_name_en":"Song Vang Commune","commune_slug":"song_vang","unit_type":"Xã","unit_type_en":"Commune","admin_level":2,"province_code":"48","province_name":"Đà Nẵng","province_full_name":"Thành phố Đà Nẵng","province_slug":"da_nang","join_key":"20485","status":"active","dataset_effective_date":"2026-04-30","catalog_version":"2026-07-12","geometry_status":"not_embedded_boundary_available_by_url","boundary_source_url":"https://raw.githubusercontent.com/thanglequoc/vietnamese-provinces-database/master/json/geojson/48_da_nang/wards/20485_song_vang.geojson","boundary_source_page":"https://github.com/thanglequoc/vietnamese-provinces-database/blob/master/json/geojson/48_da_nang/wards/20485_song_vang.geojson","source_catalog":"https://github.com/thanglequoc/vietnamese-provinces-database"},"geometry":null},{"type":"Feature","id":"20494","properties":{"commune_code":"20494","commune_name":"Bến Hiên","commune_name_en":"Ben Hien","commune_full_name":"Xã Bến Hiên","commune_full_name_en":"Ben Hien Commune","commune_slug":"ben_hien","unit_type":"Xã","unit_type_en":"Commune","admin_level":2,"province_code":"48","province_name":"Đà Nẵng","province_full_name":"Thành phố Đà Nẵng","province_slug":"da_nang","join_key":"20494","status":"active","dataset_effective_date":"2026-04-30","catalog_version":"2026-07-12","geometry_status":"not_embedded_boundary_available_by_url","boundary_source_url":"https://raw.githubusercontent.com/thanglequoc/vietnamese-provinces-database/master/json/geojson/48_da_nang/wards/20494_ben_hien.geojson","boundary_source_page":"https://github.com/thanglequoc/vietnamese-provinces-database/blob/master/json/geojson/48_da_nang/wards/20494_ben_hien.geojson","source_catalog":"https://github.com/thanglequoc/vietnamese-provinces-database"},"geometry":null},{"type":"Feature","id":"20500","properties":{"commune_code":"20500","commune_name":"Đại Lộc","commune_name_en":"Dai Loc","commune_full_name":"Xã Đại Lộc","commune_full_name_en":"Dai Loc Commune","commune_slug":"dai_loc","unit_type":"Xã","unit_type_en":"Commune","admin_level":2,"province_code":"48","province_name":"Đà Nẵng","province_full_name":"Thành phố Đà Nẵng","province_slug":"da_nang","join_key":"20500","status":"active","dataset_effective_date":"2026-04-30","catalog_version":"2026-07-12","geometry_status":"not_embedded_boundary_available_by_url","boundary_source_url":"https://raw.githubusercontent.com/thanglequoc/vietnamese-provinces-database/master/json/geojson/48_da_nang/wards/20500_dai_loc.geojson","boundary_source_page":"https://github.com/thanglequoc/vietnamese-provinces-database/blob/master/json/geojson/48_da_nang/wards/20500_dai_loc.geojson","source_catalog":"https://github.com/thanglequoc/vietnamese-provinces-database"},"geometry":null},{"type":"Feature","id":"20506","properties":{"commune_code":"20506","commune_name":"Thượng Đức","commune_name_en":"Thuong Duc","commune_full_name":"Xã Thượng Đức","commune_full_name_en":"Thuong Duc Commune","commune_slug":"thuong_duc","unit_type":"Xã","unit_type_en":"Commune","admin_level":2,"province_code":"48","province_name":"Đà Nẵng","province_full_name":"Thành phố Đà Nẵng","province_slug":"da_nang","join_key":"20506","status":"active","dataset_effective_date":"2026-04-30","catalog_version":"2026-07-12","geometry_status":"not_embedded_boundary_available_by_url","boundary_source_url":"https://raw.githubusercontent.com/thanglequoc/vietnamese-provinces-database/master/json/geojson/48_da_nang/wards/20506_thuong_duc.geojson","boundary_source_page":"https://github.com/thanglequoc/vietnamese-provinces-database/blob/master/json/geojson/48_da_nang/wards/20506_thuong_duc.geojson","source_catalog":"https://github.com/thanglequoc/vietnamese-provinces-database"},"geometry":null},{"type":"Feature","id":"20515","properties":{"commune_code":"20515","commune_name":"Hà Nha","commune_name_en":"Ha Nha","commune_full_name":"Xã Hà Nha","commune_full_name_en":"Ha Nha Commune","commune_slug":"ha_nha","unit_type":"Xã","unit_type_en":"Commune","admin_level":2,"province_code":"48","province_name":"Đà Nẵng","province_full_name":"Thành phố Đà Nẵng","province_slug":"da_nang","join_key":"20515","status":"active","dataset_effective_date":"2026-04-30","catalog_version":"2026-07-12","geometry_status":"not_embedded_boundary_available_by_url","boundary_source_url":"https://raw.githubusercontent.com/thanglequoc/vietnamese-provinces-database/master/json/geojson/48_da_nang/wards/20515_ha_nha.geojson","boundary_source_page":"https://github.com/thanglequoc/vietnamese-provinces-database/blob/master/json/geojson/48_da_nang/wards/20515_ha_nha.geojson","source_catalog":"https://github.com/thanglequoc/vietnamese-provinces-database"},"geometry":null},{"type":"Feature","id":"20539","properties":{"commune_code":"20539","commune_name":"Vu Gia","commune_name_en":"Vu Gia","commune_full_name":"Xã Vu Gia","commune_full_name_en":"Vu Gia Commune","commune_slug":"vu_gia","unit_type":"Xã","unit_type_en":"Commune","admin_level":2,"province_code":"48","province_name":"Đà Nẵng","province_full_name":"Thành phố Đà Nẵng","province_slug":"da_nang","join_key":"20539","status":"active","dataset_effective_date":"2026-04-30","catalog_version":"2026-07-12","geometry_status":"not_embedded_boundary_available_by_url","boundary_source_url":"https://raw.githubusercontent.com/thanglequoc/vietnamese-provinces-database/master/json/geojson/48_da_nang/wards/20539_vu_gia.geojson","boundary_source_page":"https://github.com/thanglequoc/vietnamese-provinces-database/blob/master/json/geojson/48_da_nang/wards/20539_vu_gia.geojson","source_catalog":"https://github.com/thanglequoc/vietnamese-provinces-database"},"geometry":null},{"type":"Feature","id":"20542","properties":{"commune_code":"20542","commune_name":"Phú Thuận","commune_name_en":"Phu Thuan","commune_full_name":"Xã Phú Thuận","commune_full_name_en":"Phu Thuan Commune","commune_slug":"phu_thuan","unit_type":"Xã","unit_type_en":"Commune","admin_level":2,"province_code":"48","province_name":"Đà Nẵng","province_full_name":"Thành phố Đà Nẵng","province_slug":"da_nang","join_key":"20542","status":"active","dataset_effective_date":"2026-04-30","catalog_version":"2026-07-12","geometry_status":"not_embedded_boundary_available_by_url","boundary_source_url":"https://raw.githubusercontent.com/thanglequoc/vietnamese-provinces-database/master/json/geojson/48_da_nang/wards/20542_phu_thuan.geojson","boundary_source_page":"https://github.com/thanglequoc/vietnamese-provinces-database/blob/master/json/geojson/48_da_nang/wards/20542_phu_thuan.geojson","source_catalog":"https://github.com/thanglequoc/vietnamese-provinces-database"},"geometry":null},{"type":"Feature","id":"20551","properties":{"commune_code":"20551","commune_name":"Điện Bàn","commune_name_en":"Dien Ban","commune_full_name":"Phường Điện Bàn","commune_full_name_en":"Dien Ban Ward","commune_slug":"dien_ban","unit_type":"Phường","unit_type_en":"Ward","admin_level":2,"province_code":"48","province_name":"Đà Nẵng","province_full_name":"Thành phố Đà Nẵng","province_slug":"da_nang","join_key":"20551","status":"active","dataset_effective_date":"2026-04-30","catalog_version":"2026-07-12","geometry_status":"not_embedded_boundary_available_by_url","boundary_source_url":"https://raw.githubusercontent.com/thanglequoc/vietnamese-provinces-database/master/json/geojson/48_da_nang/wards/20551_dien_ban.geojson","boundary_source_page":"https://github.com/thanglequoc/vietnamese-provinces-database/blob/master/json/geojson/48_da_nang/wards/20551_dien_ban.geojson","source_catalog":"https://github.com/thanglequoc/vietnamese-provinces-database"},"geometry":null},{"type":"Feature","id":"20557","properties":{"commune_code":"20557","commune_name":"Điện Bàn Bắc","commune_name_en":"Dien Ban Bac","commune_full_name":"Phường Điện Bàn Bắc","commune_full_name_en":"Dien Ban Bac Ward","commune_slug":"dien_ban_bac","unit_type":"Phường","unit_type_en":"Ward","admin_level":2,"province_code":"48","province_name":"Đà Nẵng","province_full_name":"Thành phố Đà Nẵng","province_slug":"da_nang","join_key":"20557","status":"active","dataset_effective_date":"2026-04-30","catalog_version":"2026-07-12","geometry_status":"not_embedded_boundary_available_by_url","boundary_source_url":"https://raw.githubusercontent.com/thanglequoc/vietnamese-provinces-database/master/json/geojson/48_da_nang/wards/20557_dien_ban_bac.geojson","boundary_source_page":"https://github.com/thanglequoc/vietnamese-provinces-database/blob/master/json/geojson/48_da_nang/wards/20557_dien_ban_bac.geojson","source_catalog":"https://github.com/thanglequoc/vietnamese-provinces-database"},"geometry":null},{"type":"Feature","id":"20569","properties":{"commune_code":"20569","commune_name":"Điện Bàn Tây","commune_name_en":"Dien Ban Tay","commune_full_name":"Xã Điện Bàn Tây","commune_full_name_en":"Dien Ban Tay Commune","commune_slug":"dien_ban_tay","unit_type":"Xã","unit_type_en":"Commune","admin_level":2,"province_code":"48","province_name":"Đà Nẵng","province_full_name":"Thành phố Đà Nẵng","province_slug":"da_nang","join_key":"20569","status":"active","dataset_effective_date":"2026-04-30","catalog_version":"2026-07-12","geometry_status":"not_embedded_boundary_available_by_url","boundary_source_url":"https://raw.githubusercontent.com/thanglequoc/vietnamese-provinces-database/master/json/geojson/48_da_nang/wards/20569_dien_ban_tay.geojson","boundary_source_page":"https://github.com/thanglequoc/vietnamese-provinces-database/blob/master/json/geojson/48_da_nang/wards/20569_dien_ban_tay.geojson","source_catalog":"https://github.com/thanglequoc/vietnamese-provinces-database"},"geometry":null},{"type":"Feature","id":"20575","properties":{"commune_code":"20575","commune_name":"An Thắng","commune_name_en":"An Thang","commune_full_name":"Phường An Thắng","commune_full_name_en":"An Thang Ward","commune_slug":"an_thang","unit_type":"Phường","unit_type_en":"Ward","admin_level":2,"province_code":"48","province_name":"Đà Nẵng","province_full_name":"Thành phố Đà Nẵng","province_slug":"da_nang","join_key":"20575","status":"active","dataset_effective_date":"2026-04-30","catalog_version":"2026-07-12","geometry_status":"not_embedded_boundary_available_by_url","boundary_source_url":"https://raw.githubusercontent.com/thanglequoc/vietnamese-provinces-database/master/json/geojson/48_da_nang/wards/20575_an_thang.geojson","boundary_source_page":"https://github.com/thanglequoc/vietnamese-provinces-database/blob/master/json/geojson/48_da_nang/wards/20575_an_thang.geojson","source_catalog":"https://github.com/thanglequoc/vietnamese-provinces-database"},"geometry":null},{"type":"Feature","id":"20579","properties":{"commune_code":"20579","commune_name":"Điện Bàn Đông","commune_name_en":"Dien Ban Dong","commune_full_name":"Phường Điện Bàn Đông","commune_full_name_en":"Dien Ban Dong Ward","commune_slug":"dien_ban_dong","unit_type":"Phường","unit_type_en":"Ward","admin_level":2,"province_code":"48","province_name":"Đà Nẵng","province_full_name":"Thành phố Đà Nẵng","province_slug":"da_nang","join_key":"20579","status":"active","dataset_effective_date":"2026-04-30","catalog_version":"2026-07-12","geometry_status":"not_embedded_boundary_available_by_url","boundary_source_url":"https://raw.githubusercontent.com/thanglequoc/vietnamese-provinces-database/master/json/geojson/48_da_nang/wards/20579_dien_ban_dong.geojson","boundary_source_page":"https://github.com/thanglequoc/vietnamese-provinces-database/blob/master/json/geojson/48_da_nang/wards/20579_dien_ban_dong.geojson","source_catalog":"https://github.com/thanglequoc/vietnamese-provinces-database"},"geometry":null},{"type":"Feature","id":"20587","properties":{"commune_code":"20587","commune_name":"Gò Nổi","commune_name_en":"Go Noi","commune_full_name":"Xã Gò Nổi","commune_full_name_en":"Go Noi Commune","commune_slug":"go_noi","unit_type":"Xã","unit_type_en":"Commune","admin_level":2,"province_code":"48","province_name":"Đà Nẵng","province_full_name":"Thành phố Đà Nẵng","province_slug":"da_nang","join_key":"20587","status":"active","dataset_effective_date":"2026-04-30","catalog_version":"2026-07-12","geometry_status":"not_embedded_boundary_available_by_url","boundary_source_url":"https://raw.githubusercontent.com/thanglequoc/vietnamese-provinces-database/master/json/geojson/48_da_nang/wards/20587_go_noi.geojson","boundary_source_page":"https://github.com/thanglequoc/vietnamese-provinces-database/blob/master/json/geojson/48_da_nang/wards/20587_go_noi.geojson","source_catalog":"https://github.com/thanglequoc/vietnamese-provinces-database"},"geometry":null},{"type":"Feature","id":"20599","properties":{"commune_code":"20599","commune_name":"Nam Phước","commune_name_en":"Nam Phuoc","commune_full_name":"Xã Nam Phước","commune_full_name_en":"Nam Phuoc Commune","commune_slug":"nam_phuoc","unit_type":"Xã","unit_type_en":"Commune","admin_level":2,"province_code":"48","province_name":"Đà Nẵng","province_full_name":"Thành phố Đà Nẵng","province_slug":"da_nang","join_key":"20599","status":"active","dataset_effective_date":"2026-04-30","catalog_version":"2026-07-12","geometry_status":"not_embedded_boundary_available_by_url","boundary_source_url":"https://raw.githubusercontent.com/thanglequoc/vietnamese-provinces-database/master/json/geojson/48_da_nang/wards/20599_nam_phuoc.geojson","boundary_source_page":"https://github.com/thanglequoc/vietnamese-provinces-database/blob/master/json/geojson/48_da_nang/wards/20599_nam_phuoc.geojson","source_catalog":"https://github.com/thanglequoc/vietnamese-provinces-database"},"geometry":null},{"type":"Feature","id":"20611","properties":{"commune_code":"20611","commune_name":"Thu Bồn","commune_name_en":"Thu Bon","commune_full_name":"Xã Thu Bồn","commune_full_name_en":"Thu Bon Commune","commune_slug":"thu_bon","unit_type":"Xã","unit_type_en":"Commune","admin_level":2,"province_code":"48","province_name":"Đà Nẵng","province_full_name":"Thành phố Đà Nẵng","province_slug":"da_nang","join_key":"20611","status":"active","dataset_effective_date":"2026-04-30","catalog_version":"2026-07-12","geometry_status":"not_embedded_boundary_available_by_url","boundary_source_url":"https://raw.githubusercontent.com/thanglequoc/vietnamese-provinces-database/master/json/geojson/48_da_nang/wards/20611_thu_bon.geojson","boundary_source_page":"https://github.com/thanglequoc/vietnamese-provinces-database/blob/master/json/geojson/48_da_nang/wards/20611_thu_bon.geojson","source_catalog":"https://github.com/thanglequoc/vietnamese-provinces-database"},"geometry":null},{"type":"Feature","id":"20623","properties":{"commune_code":"20623","commune_name":"Duy Xuyên","commune_name_en":"Duy Xuyen","commune_full_name":"Xã Duy Xuyên","commune_full_name_en":"Duy Xuyen Commune","commune_slug":"duy_xuyen","unit_type":"Xã","unit_type_en":"Commune","admin_level":2,"province_code":"48","province_name":"Đà Nẵng","province_full_name":"Thành phố Đà Nẵng","province_slug":"da_nang","join_key":"20623","status":"active","dataset_effective_date":"2026-04-30","catalog_version":"2026-07-12","geometry_status":"not_embedded_boundary_available_by_url","boundary_source_url":"https://raw.githubusercontent.com/thanglequoc/vietnamese-provinces-database/master/json/geojson/48_da_nang/wards/20623_duy_xuyen.geojson","boundary_source_page":"https://github.com/thanglequoc/vietnamese-provinces-database/blob/master/json/geojson/48_da_nang/wards/20623_duy_xuyen.geojson","source_catalog":"https://github.com/thanglequoc/vietnamese-provinces-database"},"geometry":null},{"type":"Feature","id":"20635","properties":{"commune_code":"20635","commune_name":"Duy Nghĩa","commune_name_en":"Duy Nghia","commune_full_name":"Xã Duy Nghĩa","commune_full_name_en":"Duy Nghia Commune","commune_slug":"duy_nghia","unit_type":"Xã","unit_type_en":"Commune","admin_level":2,"province_code":"48","province_name":"Đà Nẵng","province_full_name":"Thành phố Đà Nẵng","province_slug":"da_nang","join_key":"20635","status":"active","dataset_effective_date":"2026-04-30","catalog_version":"2026-07-12","geometry_status":"not_embedded_boundary_available_by_url","boundary_source_url":"https://raw.githubusercontent.com/thanglequoc/vietnamese-provinces-database/master/json/geojson/48_da_nang/wards/20635_duy_nghia.geojson","boundary_source_page":"https://github.com/thanglequoc/vietnamese-provinces-database/blob/master/json/geojson/48_da_nang/wards/20635_duy_nghia.geojson","source_catalog":"https://github.com/thanglequoc/vietnamese-provinces-database"},"geometry":null},{"type":"Feature","id":"20641","properties":{"commune_code":"20641","commune_name":"Quế Sơn","commune_name_en":"Que Son","commune_full_name":"Xã Quế Sơn","commune_full_name_en":"Que Son Commune","commune_slug":"que_son","unit_type":"Xã","unit_type_en":"Commune","admin_level":2,"province_code":"48","province_name":"Đà Nẵng","province_full_name":"Thành phố Đà Nẵng","province_slug":"da_nang","join_key":"20641","status":"active","dataset_effective_date":"2026-04-30","catalog_version":"2026-07-12","geometry_status":"not_embedded_boundary_available_by_url","boundary_source_url":"https://raw.githubusercontent.com/thanglequoc/vietnamese-provinces-database/master/json/geojson/48_da_nang/wards/20641_que_son.geojson","boundary_source_page":"https://github.com/thanglequoc/vietnamese-provinces-database/blob/master/json/geojson/48_da_nang/wards/20641_que_son.geojson","source_catalog":"https://github.com/thanglequoc/vietnamese-provinces-database"},"geometry":null},{"type":"Feature","id":"20650","properties":{"commune_code":"20650","commune_name":"Xuân Phú","commune_name_en":"Xuan Phu","commune_full_name":"Xã Xuân Phú","commune_full_name_en":"Xuan Phu Commune","commune_slug":"xuan_phu","unit_type":"Xã","unit_type_en":"Commune","admin_level":2,"province_code":"48","province_name":"Đà Nẵng","province_full_name":"Thành phố Đà Nẵng","province_slug":"da_nang","join_key":"20650","status":"active","dataset_effective_date":"2026-04-30","catalog_version":"2026-07-12","geometry_status":"not_embedded_boundary_available_by_url","boundary_source_url":"https://raw.githubusercontent.com/thanglequoc/vietnamese-provinces-database/master/json/geojson/48_da_nang/wards/20650_xuan_phu.geojson","boundary_source_page":"https://github.com/thanglequoc/vietnamese-provinces-database/blob/master/json/geojson/48_da_nang/wards/20650_xuan_phu.geojson","source_catalog":"https://github.com/thanglequoc/vietnamese-provinces-database"},"geometry":null},{"type":"Feature","id":"20656","properties":{"commune_code":"20656","commune_name":"Nông Sơn","commune_name_en":"Nong Son","commune_full_name":"Xã Nông Sơn","commune_full_name_en":"Nong Son Commune","commune_slug":"nong_son","unit_type":"Xã","unit_type_en":"Commune","admin_level":2,"province_code":"48","province_name":"Đà Nẵng","province_full_name":"Thành phố Đà Nẵng","province_slug":"da_nang","join_key":"20656","status":"active","dataset_effective_date":"2026-04-30","catalog_version":"2026-07-12","geometry_status":"not_embedded_boundary_available_by_url","boundary_source_url":"https://raw.githubusercontent.com/thanglequoc/vietnamese-provinces-database/master/json/geojson/48_da_nang/wards/20656_nong_son.geojson","boundary_source_page":"https://github.com/thanglequoc/vietnamese-provinces-database/blob/master/json/geojson/48_da_nang/wards/20656_nong_son.geojson","source_catalog":"https://github.com/thanglequoc/vietnamese-provinces-database"},"geometry":null},{"type":"Feature","id":"20662","properties":{"commune_code":"20662","commune_name":"Quế Sơn Trung","commune_name_en":"Que Son Trung","commune_full_name":"Xã Quế Sơn Trung","commune_full_name_en":"Que Son Trung Commune","commune_slug":"que_son_trung","unit_type":"Xã","unit_type_en":"Commune","admin_level":2,"province_code":"48","province_name":"Đà Nẵng","province_full_name":"Thành phố Đà Nẵng","province_slug":"da_nang","join_key":"20662","status":"active","dataset_effective_date":"2026-04-30","catalog_version":"2026-07-12","geometry_status":"not_embedded_boundary_available_by_url","boundary_source_url":"https://raw.githubusercontent.com/thanglequoc/vietnamese-provinces-database/master/json/geojson/48_da_nang/wards/20662_que_son_trung.geojson","boundary_source_page":"https://github.com/thanglequoc/vietnamese-provinces-database/blob/master/json/geojson/48_da_nang/wards/20662_que_son_trung.geojson","source_catalog":"https://github.com/thanglequoc/vietnamese-provinces-database"},"geometry":null},{"type":"Feature","id":"20669","properties":{"commune_code":"20669","commune_name":"Quế Phước","commune_name_en":"Que Phuoc","commune_full_name":"Xã Quế Phước","commune_full_name_en":"Que Phuoc Commune","commune_slug":"que_phuoc","unit_type":"Xã","unit_type_en":"Commune","admin_level":2,"province_code":"48","province_name":"Đà Nẵng","province_full_name":"Thành phố Đà Nẵng","province_slug":"da_nang","join_key":"20669","status":"active","dataset_effective_date":"2026-04-30","catalog_version":"2026-07-12","geometry_status":"not_embedded_boundary_available_by_url","boundary_source_url":"https://raw.githubusercontent.com/thanglequoc/vietnamese-provinces-database/master/json/geojson/48_da_nang/wards/20669_que_phuoc.geojson","boundary_source_page":"https://github.com/thanglequoc/vietnamese-provinces-database/blob/master/json/geojson/48_da_nang/wards/20669_que_phuoc.geojson","source_catalog":"https://github.com/thanglequoc/vietnamese-provinces-database"},"geometry":null},{"type":"Feature","id":"20695","properties":{"commune_code":"20695","commune_name":"Thạnh Mỹ","commune_name_en":"Thanh My","commune_full_name":"Xã Thạnh Mỹ","commune_full_name_en":"Thanh My Commune","commune_slug":"thanh_my","unit_type":"Xã","unit_type_en":"Commune","admin_level":2,"province_code":"48","province_name":"Đà Nẵng","province_full_name":"Thành phố Đà Nẵng","province_slug":"da_nang","join_key":"20695","status":"active","dataset_effective_date":"2026-04-30","catalog_version":"2026-07-12","geometry_status":"not_embedded_boundary_available_by_url","boundary_source_url":"https://raw.githubusercontent.com/thanglequoc/vietnamese-provinces-database/master/json/geojson/48_da_nang/wards/20695_thanh_my.geojson","boundary_source_page":"https://github.com/thanglequoc/vietnamese-provinces-database/blob/master/json/geojson/48_da_nang/wards/20695_thanh_my.geojson","source_catalog":"https://github.com/thanglequoc/vietnamese-provinces-database"},"geometry":null},{"type":"Feature","id":"20698","properties":{"commune_code":"20698","commune_name":"La Êê","commune_name_en":"La Ee","commune_full_name":"Xã La Êê","commune_full_name_en":"La Ee Commune","commune_slug":"la_ee","unit_type":"Xã","unit_type_en":"Commune","admin_level":2,"province_code":"48","province_name":"Đà Nẵng","province_full_name":"Thành phố Đà Nẵng","province_slug":"da_nang","join_key":"20698","status":"active","dataset_effective_date":"2026-04-30","catalog_version":"2026-07-12","geometry_status":"not_embedded_boundary_available_by_url","boundary_source_url":"https://raw.githubusercontent.com/thanglequoc/vietnamese-provinces-database/master/json/geojson/48_da_nang/wards/20698_la_ee.geojson","boundary_source_page":"https://github.com/thanglequoc/vietnamese-provinces-database/blob/master/json/geojson/48_da_nang/wards/20698_la_ee.geojson","source_catalog":"https://github.com/thanglequoc/vietnamese-provinces-database"},"geometry":null},{"type":"Feature","id":"20704","properties":{"commune_code":"20704","commune_name":"La Dêê","commune_name_en":"La Dee","commune_full_name":"Xã La Dêê","commune_full_name_en":"La Dee Commune","commune_slug":"la_dee","unit_type":"Xã","unit_type_en":"Commune","admin_level":2,"province_code":"48","province_name":"Đà Nẵng","province_full_name":"Thành phố Đà Nẵng","province_slug":"da_nang","join_key":"20704","status":"active","dataset_effective_date":"2026-04-30","catalog_version":"2026-07-12","geometry_status":"not_embedded_boundary_available_by_url","boundary_source_url":"https://raw.githubusercontent.com/thanglequoc/vietnamese-provinces-database/master/json/geojson/48_da_nang/wards/20704_la_dee.geojson","boundary_source_page":"https://github.com/thanglequoc/vietnamese-provinces-database/blob/master/json/geojson/48_da_nang/wards/20704_la_dee.geojson","source_catalog":"https://github.com/thanglequoc/vietnamese-provinces-database"},"geometry":null},{"type":"Feature","id":"20707","properties":{"commune_code":"20707","commune_name":"Nam Giang","commune_name_en":"Nam Giang","commune_full_name":"Xã Nam Giang","commune_full_name_en":"Nam Giang Commune","commune_slug":"nam_giang","unit_type":"Xã","unit_type_en":"Commune","admin_level":2,"province_code":"48","province_name":"Đà Nẵng","province_full_name":"Thành phố Đà Nẵng","province_slug":"da_nang","join_key":"20707","status":"active","dataset_effective_date":"2026-04-30","catalog_version":"2026-07-12","geometry_status":"not_embedded_boundary_available_by_url","boundary_source_url":"https://raw.githubusercontent.com/thanglequoc/vietnamese-provinces-database/master/json/geojson/48_da_nang/wards/20707_nam_giang.geojson","boundary_source_page":"https://github.com/thanglequoc/vietnamese-provinces-database/blob/master/json/geojson/48_da_nang/wards/20707_nam_giang.geojson","source_catalog":"https://github.com/thanglequoc/vietnamese-provinces-database"},"geometry":null},{"type":"Feature","id":"20710","properties":{"commune_code":"20710","commune_name":"Bến Giằng","commune_name_en":"Ben Giang","commune_full_name":"Xã Bến Giằng","commune_full_name_en":"Ben Giang Commune","commune_slug":"ben_giang","unit_type":"Xã","unit_type_en":"Commune","admin_level":2,"province_code":"48","province_name":"Đà Nẵng","province_full_name":"Thành phố Đà Nẵng","province_slug":"da_nang","join_key":"20710","status":"active","dataset_effective_date":"2026-04-30","catalog_version":"2026-07-12","geometry_status":"not_embedded_boundary_available_by_url","boundary_source_url":"https://raw.githubusercontent.com/thanglequoc/vietnamese-provinces-database/master/json/geojson/48_da_nang/wards/20710_ben_giang.geojson","boundary_source_page":"https://github.com/thanglequoc/vietnamese-provinces-database/blob/master/json/geojson/48_da_nang/wards/20710_ben_giang.geojson","source_catalog":"https://github.com/thanglequoc/vietnamese-provinces-database"},"geometry":null},{"type":"Feature","id":"20716","properties":{"commune_code":"20716","commune_name":"Đắc Pring","commune_name_en":"Dac Pring","commune_full_name":"Xã Đắc Pring","commune_full_name_en":"Dac Pring Commune","commune_slug":"dac_pring","unit_type":"Xã","unit_type_en":"Commune","admin_level":2,"province_code":"48","province_name":"Đà Nẵng","province_full_name":"Thành phố Đà Nẵng","province_slug":"da_nang","join_key":"20716","status":"active","dataset_effective_date":"2026-04-30","catalog_version":"2026-07-12","geometry_status":"not_embedded_boundary_available_by_url","boundary_source_url":"https://raw.githubusercontent.com/thanglequoc/vietnamese-provinces-database/master/json/geojson/48_da_nang/wards/20716_dac_pring.geojson","boundary_source_page":"https://github.com/thanglequoc/vietnamese-provinces-database/blob/master/json/geojson/48_da_nang/wards/20716_dac_pring.geojson","source_catalog":"https://github.com/thanglequoc/vietnamese-provinces-database"},"geometry":null},{"type":"Feature","id":"20722","properties":{"commune_code":"20722","commune_name":"Khâm Đức","commune_name_en":"Kham Duc","commune_full_name":"Xã Khâm Đức","commune_full_name_en":"Kham Duc Commune","commune_slug":"kham_duc","unit_type":"Xã","unit_type_en":"Commune","admin_level":2,"province_code":"48","province_name":"Đà Nẵng","province_full_name":"Thành phố Đà Nẵng","province_slug":"da_nang","join_key":"20722","status":"active","dataset_effective_date":"2026-04-30","catalog_version":"2026-07-12","geometry_status":"not_embedded_boundary_available_by_url","boundary_source_url":"https://raw.githubusercontent.com/thanglequoc/vietnamese-provinces-database/master/json/geojson/48_da_nang/wards/20722_kham_duc.geojson","boundary_source_page":"https://github.com/thanglequoc/vietnamese-provinces-database/blob/master/json/geojson/48_da_nang/wards/20722_kham_duc.geojson","source_catalog":"https://github.com/thanglequoc/vietnamese-provinces-database"},"geometry":null},{"type":"Feature","id":"20728","properties":{"commune_code":"20728","commune_name":"Phước Hiệp","commune_name_en":"Phuoc Hiep","commune_full_name":"Xã Phước Hiệp","commune_full_name_en":"Phuoc Hiep Commune","commune_slug":"phuoc_hiep","unit_type":"Xã","unit_type_en":"Commune","admin_level":2,"province_code":"48","province_name":"Đà Nẵng","province_full_name":"Thành phố Đà Nẵng","province_slug":"da_nang","join_key":"20728","status":"active","dataset_effective_date":"2026-04-30","catalog_version":"2026-07-12","geometry_status":"not_embedded_boundary_available_by_url","boundary_source_url":"https://raw.githubusercontent.com/thanglequoc/vietnamese-provinces-database/master/json/geojson/48_da_nang/wards/20728_phuoc_hiep.geojson","boundary_source_page":"https://github.com/thanglequoc/vietnamese-provinces-database/blob/master/json/geojson/48_da_nang/wards/20728_phuoc_hiep.geojson","source_catalog":"https://github.com/thanglequoc/vietnamese-provinces-database"},"geometry":null},{"type":"Feature","id":"20734","properties":{"commune_code":"20734","commune_name":"Phước Năng","commune_name_en":"Phuoc Nang","commune_full_name":"Xã Phước Năng","commune_full_name_en":"Phuoc Nang Commune","commune_slug":"phuoc_nang","unit_type":"Xã","unit_type_en":"Commune","admin_level":2,"province_code":"48","province_name":"Đà Nẵng","province_full_name":"Thành phố Đà Nẵng","province_slug":"da_nang","join_key":"20734","status":"active","dataset_effective_date":"2026-04-30","catalog_version":"2026-07-12","geometry_status":"not_embedded_boundary_available_by_url","boundary_source_url":"https://raw.githubusercontent.com/thanglequoc/vietnamese-provinces-database/master/json/geojson/48_da_nang/wards/20734_phuoc_nang.geojson","boundary_source_page":"https://github.com/thanglequoc/vietnamese-provinces-database/blob/master/json/geojson/48_da_nang/wards/20734_phuoc_nang.geojson","source_catalog":"https://github.com/thanglequoc/vietnamese-provinces-database"},"geometry":null},{"type":"Feature","id":"20740","properties":{"commune_code":"20740","commune_name":"Phước Chánh","commune_name_en":"Phuoc Chanh","commune_full_name":"Xã Phước Chánh","commune_full_name_en":"Phuoc Chanh Commune","commune_slug":"phuoc_chanh","unit_type":"Xã","unit_type_en":"Commune","admin_level":2,"province_code":"48","province_name":"Đà Nẵng","province_full_name":"Thành phố Đà Nẵng","province_slug":"da_nang","join_key":"20740","status":"active","dataset_effective_date":"2026-04-30","catalog_version":"2026-07-12","geometry_status":"not_embedded_boundary_available_by_url","boundary_source_url":"https://raw.githubusercontent.com/thanglequoc/vietnamese-provinces-database/master/json/geojson/48_da_nang/wards/20740_phuoc_chanh.geojson","boundary_source_page":"https://github.com/thanglequoc/vietnamese-provinces-database/blob/master/json/geojson/48_da_nang/wards/20740_phuoc_chanh.geojson","source_catalog":"https://github.com/thanglequoc/vietnamese-provinces-database"},"geometry":null},{"type":"Feature","id":"20752","properties":{"commune_code":"20752","commune_name":"Phước Thành","commune_name_en":"Phuoc Thanh","commune_full_name":"Xã Phước Thành","commune_full_name_en":"Phuoc Thanh Commune","commune_slug":"phuoc_thanh","unit_type":"Xã","unit_type_en":"Commune","admin_level":2,"province_code":"48","province_name":"Đà Nẵng","province_full_name":"Thành phố Đà Nẵng","province_slug":"da_nang","join_key":"20752","status":"active","dataset_effective_date":"2026-04-30","catalog_version":"2026-07-12","geometry_status":"not_embedded_boundary_available_by_url","boundary_source_url":"https://raw.githubusercontent.com/thanglequoc/vietnamese-provinces-database/master/json/geojson/48_da_nang/wards/20752_phuoc_thanh.geojson","boundary_source_page":"https://github.com/thanglequoc/vietnamese-provinces-database/blob/master/json/geojson/48_da_nang/wards/20752_phuoc_thanh.geojson","source_catalog":"https://github.com/thanglequoc/vietnamese-provinces-database"},"geometry":null},{"type":"Feature","id":"20767","properties":{"commune_code":"20767","commune_name":"Việt An","commune_name_en":"Viet An","commune_full_name":"Xã Việt An","commune_full_name_en":"Viet An Commune","commune_slug":"viet_an","unit_type":"Xã","unit_type_en":"Commune","admin_level":2,"province_code":"48","province_name":"Đà Nẵng","province_full_name":"Thành phố Đà Nẵng","province_slug":"da_nang","join_key":"20767","status":"active","dataset_effective_date":"2026-04-30","catalog_version":"2026-07-12","geometry_status":"not_embedded_boundary_available_by_url","boundary_source_url":"https://raw.githubusercontent.com/thanglequoc/vietnamese-provinces-database/master/json/geojson/48_da_nang/wards/20767_viet_an.geojson","boundary_source_page":"https://github.com/thanglequoc/vietnamese-provinces-database/blob/master/json/geojson/48_da_nang/wards/20767_viet_an.geojson","source_catalog":"https://github.com/thanglequoc/vietnamese-provinces-database"},"geometry":null},{"type":"Feature","id":"20770","properties":{"commune_code":"20770","commune_name":"Phước Trà","commune_name_en":"Phuoc Tra","commune_full_name":"Xã Phước Trà","commune_full_name_en":"Phuoc Tra Commune","commune_slug":"phuoc_tra","unit_type":"Xã","unit_type_en":"Commune","admin_level":2,"province_code":"48","province_name":"Đà Nẵng","province_full_name":"Thành phố Đà Nẵng","province_slug":"da_nang","join_key":"20770","status":"active","dataset_effective_date":"2026-04-30","catalog_version":"2026-07-12","geometry_status":"not_embedded_boundary_available_by_url","boundary_source_url":"https://raw.githubusercontent.com/thanglequoc/vietnamese-provinces-database/master/json/geojson/48_da_nang/wards/20770_phuoc_tra.geojson","boundary_source_page":"https://github.com/thanglequoc/vietnamese-provinces-database/blob/master/json/geojson/48_da_nang/wards/20770_phuoc_tra.geojson","source_catalog":"https://github.com/thanglequoc/vietnamese-provinces-database"},"geometry":null},{"type":"Feature","id":"20779","properties":{"commune_code":"20779","commune_name":"Hiệp Đức","commune_name_en":"Hiep Duc","commune_full_name":"Xã Hiệp Đức","commune_full_name_en":"Hiep Duc Commune","commune_slug":"hiep_duc","unit_type":"Xã","unit_type_en":"Commune","admin_level":2,"province_code":"48","province_name":"Đà Nẵng","province_full_name":"Thành phố Đà Nẵng","province_slug":"da_nang","join_key":"20779","status":"active","dataset_effective_date":"2026-04-30","catalog_version":"2026-07-12","geometry_status":"not_embedded_boundary_available_by_url","boundary_source_url":"https://raw.githubusercontent.com/thanglequoc/vietnamese-provinces-database/master/json/geojson/48_da_nang/wards/20779_hiep_duc.geojson","boundary_source_page":"https://github.com/thanglequoc/vietnamese-provinces-database/blob/master/json/geojson/48_da_nang/wards/20779_hiep_duc.geojson","source_catalog":"https://github.com/thanglequoc/vietnamese-provinces-database"},"geometry":null},{"type":"Feature","id":"20791","properties":{"commune_code":"20791","commune_name":"Thăng Bình","commune_name_en":"Thang Binh","commune_full_name":"Xã Thăng Bình","commune_full_name_en":"Thang Binh Commune","commune_slug":"thang_binh","unit_type":"Xã","unit_type_en":"Commune","admin_level":2,"province_code":"48","province_name":"Đà Nẵng","province_full_name":"Thành phố Đà Nẵng","province_slug":"da_nang","join_key":"20791","status":"active","dataset_effective_date":"2026-04-30","catalog_version":"2026-07-12","geometry_status":"not_embedded_boundary_available_by_url","boundary_source_url":"https://raw.githubusercontent.com/thanglequoc/vietnamese-provinces-database/master/json/geojson/48_da_nang/wards/20791_thang_binh.geojson","boundary_source_page":"https://github.com/thanglequoc/vietnamese-provinces-database/blob/master/json/geojson/48_da_nang/wards/20791_thang_binh.geojson","source_catalog":"https://github.com/thanglequoc/vietnamese-provinces-database"},"geometry":null},{"type":"Feature","id":"20794","properties":{"commune_code":"20794","commune_name":"Thăng An","commune_name_en":"Thang An","commune_full_name":"Xã Thăng An","commune_full_name_en":"Thang An Commune","commune_slug":"thang_an","unit_type":"Xã","unit_type_en":"Commune","admin_level":2,"province_code":"48","province_name":"Đà Nẵng","province_full_name":"Thành phố Đà Nẵng","province_slug":"da_nang","join_key":"20794","status":"active","dataset_effective_date":"2026-04-30","catalog_version":"2026-07-12","geometry_status":"not_embedded_boundary_available_by_url","boundary_source_url":"https://raw.githubusercontent.com/thanglequoc/vietnamese-provinces-database/master/json/geojson/48_da_nang/wards/20794_thang_an.geojson","boundary_source_page":"https://github.com/thanglequoc/vietnamese-provinces-database/blob/master/json/geojson/48_da_nang/wards/20794_thang_an.geojson","source_catalog":"https://github.com/thanglequoc/vietnamese-provinces-database"},"geometry":null},{"type":"Feature","id":"20818","properties":{"commune_code":"20818","commune_name":"Đồng Dương","commune_name_en":"Dong Duong","commune_full_name":"Xã Đồng Dương","commune_full_name_en":"Dong Duong Commune","commune_slug":"dong_duong","unit_type":"Xã","unit_type_en":"Commune","admin_level":2,"province_code":"48","province_name":"Đà Nẵng","province_full_name":"Thành phố Đà Nẵng","province_slug":"da_nang","join_key":"20818","status":"active","dataset_effective_date":"2026-04-30","catalog_version":"2026-07-12","geometry_status":"not_embedded_boundary_available_by_url","boundary_source_url":"https://raw.githubusercontent.com/thanglequoc/vietnamese-provinces-database/master/json/geojson/48_da_nang/wards/20818_dong_duong.geojson","boundary_source_page":"https://github.com/thanglequoc/vietnamese-provinces-database/blob/master/json/geojson/48_da_nang/wards/20818_dong_duong.geojson","source_catalog":"https://github.com/thanglequoc/vietnamese-provinces-database"},"geometry":null},{"type":"Feature","id":"20827","properties":{"commune_code":"20827","commune_name":"Thăng Phú","commune_name_en":"Thang Phu","commune_full_name":"Xã Thăng Phú","commune_full_name_en":"Thang Phu Commune","commune_slug":"thang_phu","unit_type":"Xã","unit_type_en":"Commune","admin_level":2,"province_code":"48","province_name":"Đà Nẵng","province_full_name":"Thành phố Đà Nẵng","province_slug":"da_nang","join_key":"20827","status":"active","dataset_effective_date":"2026-04-30","catalog_version":"2026-07-12","geometry_status":"not_embedded_boundary_available_by_url","boundary_source_url":"https://raw.githubusercontent.com/thanglequoc/vietnamese-provinces-database/master/json/geojson/48_da_nang/wards/20827_thang_phu.geojson","boundary_source_page":"https://github.com/thanglequoc/vietnamese-provinces-database/blob/master/json/geojson/48_da_nang/wards/20827_thang_phu.geojson","source_catalog":"https://github.com/thanglequoc/vietnamese-provinces-database"},"geometry":null},{"type":"Feature","id":"20836","properties":{"commune_code":"20836","commune_name":"Thăng Trường","commune_name_en":"Thang Truong","commune_full_name":"Xã Thăng Trường","commune_full_name_en":"Thang Truong Commune","commune_slug":"thang_truong","unit_type":"Xã","unit_type_en":"Commune","admin_level":2,"province_code":"48","province_name":"Đà Nẵng","province_full_name":"Thành phố Đà Nẵng","province_slug":"da_nang","join_key":"20836","status":"active","dataset_effective_date":"2026-04-30","catalog_version":"2026-07-12","geometry_status":"not_embedded_boundary_available_by_url","boundary_source_url":"https://raw.githubusercontent.com/thanglequoc/vietnamese-provinces-database/master/json/geojson/48_da_nang/wards/20836_thang_truong.geojson","boundary_source_page":"https://github.com/thanglequoc/vietnamese-provinces-database/blob/master/json/geojson/48_da_nang/wards/20836_thang_truong.geojson","source_catalog":"https://github.com/thanglequoc/vietnamese-provinces-database"},"geometry":null},{"type":"Feature","id":"20848","properties":{"commune_code":"20848","commune_name":"Thăng Điền","commune_name_en":"Thang Dien","commune_full_name":"Xã Thăng Điền","commune_full_name_en":"Thang Dien Commune","commune_slug":"thang_dien","unit_type":"Xã","unit_type_en":"Commune","admin_level":2,"province_code":"48","province_name":"Đà Nẵng","province_full_name":"Thành phố Đà Nẵng","province_slug":"da_nang","join_key":"20848","status":"active","dataset_effective_date":"2026-04-30","catalog_version":"2026-07-12","geometry_status":"not_embedded_boundary_available_by_url","boundary_source_url":"https://raw.githubusercontent.com/thanglequoc/vietnamese-provinces-database/master/json/geojson/48_da_nang/wards/20848_thang_dien.geojson","boundary_source_page":"https://github.com/thanglequoc/vietnamese-provinces-database/blob/master/json/geojson/48_da_nang/wards/20848_thang_dien.geojson","source_catalog":"https://github.com/thanglequoc/vietnamese-provinces-database"},"geometry":null},{"type":"Feature","id":"20854","properties":{"commune_code":"20854","commune_name":"Tiên Phước","commune_name_en":"Tien Phuoc","commune_full_name":"Xã Tiên Phước","commune_full_name_en":"Tien Phuoc Commune","commune_slug":"tien_phuoc","unit_type":"Xã","unit_type_en":"Commune","admin_level":2,"province_code":"48","province_name":"Đà Nẵng","province_full_name":"Thành phố Đà Nẵng","province_slug":"da_nang","join_key":"20854","status":"active","dataset_effective_date":"2026-04-30","catalog_version":"2026-07-12","geometry_status":"not_embedded_boundary_available_by_url","boundary_source_url":"https://raw.githubusercontent.com/thanglequoc/vietnamese-provinces-database/master/json/geojson/48_da_nang/wards/20854_tien_phuoc.geojson","boundary_source_page":"https://github.com/thanglequoc/vietnamese-provinces-database/blob/master/json/geojson/48_da_nang/wards/20854_tien_phuoc.geojson","source_catalog":"https://github.com/thanglequoc/vietnamese-provinces-database"},"geometry":null},{"type":"Feature","id":"20857","properties":{"commune_code":"20857","commune_name":"Sơn Cẩm Hà","commune_name_en":"Son Cam Ha","commune_full_name":"Xã Sơn Cẩm Hà","commune_full_name_en":"Son Cam Ha Commune","commune_slug":"son_cam_ha","unit_type":"Xã","unit_type_en":"Commune","admin_level":2,"province_code":"48","province_name":"Đà Nẵng","province_full_name":"Thành phố Đà Nẵng","province_slug":"da_nang","join_key":"20857","status":"active","dataset_effective_date":"2026-04-30","catalog_version":"2026-07-12","geometry_status":"not_embedded_boundary_available_by_url","boundary_source_url":"https://raw.githubusercontent.com/thanglequoc/vietnamese-provinces-database/master/json/geojson/48_da_nang/wards/20857_son_cam_ha.geojson","boundary_source_page":"https://github.com/thanglequoc/vietnamese-provinces-database/blob/master/json/geojson/48_da_nang/wards/20857_son_cam_ha.geojson","source_catalog":"https://github.com/thanglequoc/vietnamese-provinces-database"},"geometry":null},{"type":"Feature","id":"20875","properties":{"commune_code":"20875","commune_name":"Lãnh Ngọc","commune_name_en":"Lanh Ngoc","commune_full_name":"Xã Lãnh Ngọc","commune_full_name_en":"Lanh Ngoc Commune","commune_slug":"lanh_ngoc","unit_type":"Xã","unit_type_en":"Commune","admin_level":2,"province_code":"48","province_name":"Đà Nẵng","province_full_name":"Thành phố Đà Nẵng","province_slug":"da_nang","join_key":"20875","status":"active","dataset_effective_date":"2026-04-30","catalog_version":"2026-07-12","geometry_status":"not_embedded_boundary_available_by_url","boundary_source_url":"https://raw.githubusercontent.com/thanglequoc/vietnamese-provinces-database/master/json/geojson/48_da_nang/wards/20875_lanh_ngoc.geojson","boundary_source_page":"https://github.com/thanglequoc/vietnamese-provinces-database/blob/master/json/geojson/48_da_nang/wards/20875_lanh_ngoc.geojson","source_catalog":"https://github.com/thanglequoc/vietnamese-provinces-database"},"geometry":null},{"type":"Feature","id":"20878","properties":{"commune_code":"20878","commune_name":"Thạnh Bình","commune_name_en":"Thanh Binh","commune_full_name":"Xã Thạnh Bình","commune_full_name_en":"Thanh Binh Commune","commune_slug":"thanh_binh","unit_type":"Xã","unit_type_en":"Commune","admin_level":2,"province_code":"48","province_name":"Đà Nẵng","province_full_name":"Thành phố Đà Nẵng","province_slug":"da_nang","join_key":"20878","status":"active","dataset_effective_date":"2026-04-30","catalog_version":"2026-07-12","geometry_status":"not_embedded_boundary_available_by_url","boundary_source_url":"https://raw.githubusercontent.com/thanglequoc/vietnamese-provinces-database/master/json/geojson/48_da_nang/wards/20878_thanh_binh.geojson","boundary_source_page":"https://github.com/thanglequoc/vietnamese-provinces-database/blob/master/json/geojson/48_da_nang/wards/20878_thanh_binh.geojson","source_catalog":"https://github.com/thanglequoc/vietnamese-provinces-database"},"geometry":null},{"type":"Feature","id":"20900","properties":{"commune_code":"20900","commune_name":"Trà My","commune_name_en":"Tra My","commune_full_name":"Xã Trà My","commune_full_name_en":"Tra My Commune","commune_slug":"tra_my","unit_type":"Xã","unit_type_en":"Commune","admin_level":2,"province_code":"48","province_name":"Đà Nẵng","province_full_name":"Thành phố Đà Nẵng","province_slug":"da_nang","join_key":"20900","status":"active","dataset_effective_date":"2026-04-30","catalog_version":"2026-07-12","geometry_status":"not_embedded_boundary_available_by_url","boundary_source_url":"https://raw.githubusercontent.com/thanglequoc/vietnamese-provinces-database/master/json/geojson/48_da_nang/wards/20900_tra_my.geojson","boundary_source_page":"https://github.com/thanglequoc/vietnamese-provinces-database/blob/master/json/geojson/48_da_nang/wards/20900_tra_my.geojson","source_catalog":"https://github.com/thanglequoc/vietnamese-provinces-database"},"geometry":null},{"type":"Feature","id":"20908","properties":{"commune_code":"20908","commune_name":"Trà Liên","commune_name_en":"Tra Lien","commune_full_name":"Xã Trà Liên","commune_full_name_en":"Tra Lien Commune","commune_slug":"tra_lien","unit_type":"Xã","unit_type_en":"Commune","admin_level":2,"province_code":"48","province_name":"Đà Nẵng","province_full_name":"Thành phố Đà Nẵng","province_slug":"da_nang","join_key":"20908","status":"active","dataset_effective_date":"2026-04-30","catalog_version":"2026-07-12","geometry_status":"not_embedded_boundary_available_by_url","boundary_source_url":"https://raw.githubusercontent.com/thanglequoc/vietnamese-provinces-database/master/json/geojson/48_da_nang/wards/20908_tra_lien.geojson","boundary_source_page":"https://github.com/thanglequoc/vietnamese-provinces-database/blob/master/json/geojson/48_da_nang/wards/20908_tra_lien.geojson","source_catalog":"https://github.com/thanglequoc/vietnamese-provinces-database"},"geometry":null},{"type":"Feature","id":"20920","properties":{"commune_code":"20920","commune_name":"Trà Đốc","commune_name_en":"Tra Doc","commune_full_name":"Xã Trà Đốc","commune_full_name_en":"Tra Doc Commune","commune_slug":"tra_doc","unit_type":"Xã","unit_type_en":"Commune","admin_level":2,"province_code":"48","province_name":"Đà Nẵng","province_full_name":"Thành phố Đà Nẵng","province_slug":"da_nang","join_key":"20920","status":"active","dataset_effective_date":"2026-04-30","catalog_version":"2026-07-12","geometry_status":"not_embedded_boundary_available_by_url","boundary_source_url":"https://raw.githubusercontent.com/thanglequoc/vietnamese-provinces-database/master/json/geojson/48_da_nang/wards/20920_tra_doc.geojson","boundary_source_page":"https://github.com/thanglequoc/vietnamese-provinces-database/blob/master/json/geojson/48_da_nang/wards/20920_tra_doc.geojson","source_catalog":"https://github.com/thanglequoc/vietnamese-provinces-database"},"geometry":null},{"type":"Feature","id":"20923","properties":{"commune_code":"20923","commune_name":"Trà Tân","commune_name_en":"Tra Tan","commune_full_name":"Xã Trà Tân","commune_full_name_en":"Tra Tan Commune","commune_slug":"tra_tan","unit_type":"Xã","unit_type_en":"Commune","admin_level":2,"province_code":"48","province_name":"Đà Nẵng","province_full_name":"Thành phố Đà Nẵng","province_slug":"da_nang","join_key":"20923","status":"active","dataset_effective_date":"2026-04-30","catalog_version":"2026-07-12","geometry_status":"not_embedded_boundary_available_by_url","boundary_source_url":"https://raw.githubusercontent.com/thanglequoc/vietnamese-provinces-database/master/json/geojson/48_da_nang/wards/20923_tra_tan.geojson","boundary_source_page":"https://github.com/thanglequoc/vietnamese-provinces-database/blob/master/json/geojson/48_da_nang/wards/20923_tra_tan.geojson","source_catalog":"https://github.com/thanglequoc/vietnamese-provinces-database"},"geometry":null},{"type":"Feature","id":"20929","properties":{"commune_code":"20929","commune_name":"Trà Giáp","commune_name_en":"Tra Giap","commune_full_name":"Xã Trà Giáp","commune_full_name_en":"Tra Giap Commune","commune_slug":"tra_giap","unit_type":"Xã","unit_type_en":"Commune","admin_level":2,"province_code":"48","province_name":"Đà Nẵng","province_full_name":"Thành phố Đà Nẵng","province_slug":"da_nang","join_key":"20929","status":"active","dataset_effective_date":"2026-04-30","catalog_version":"2026-07-12","geometry_status":"not_embedded_boundary_available_by_url","boundary_source_url":"https://raw.githubusercontent.com/thanglequoc/vietnamese-provinces-database/master/json/geojson/48_da_nang/wards/20929_tra_giap.geojson","boundary_source_page":"https://github.com/thanglequoc/vietnamese-provinces-database/blob/master/json/geojson/48_da_nang/wards/20929_tra_giap.geojson","source_catalog":"https://github.com/thanglequoc/vietnamese-provinces-database"},"geometry":null},{"type":"Feature","id":"20938","properties":{"commune_code":"20938","commune_name":"Trà Leng","commune_name_en":"Tra Leng","commune_full_name":"Xã Trà Leng","commune_full_name_en":"Tra Leng Commune","commune_slug":"tra_leng","unit_type":"Xã","unit_type_en":"Commune","admin_level":2,"province_code":"48","province_name":"Đà Nẵng","province_full_name":"Thành phố Đà Nẵng","province_slug":"da_nang","join_key":"20938","status":"active","dataset_effective_date":"2026-04-30","catalog_version":"2026-07-12","geometry_status":"not_embedded_boundary_available_by_url","boundary_source_url":"https://raw.githubusercontent.com/thanglequoc/vietnamese-provinces-database/master/json/geojson/48_da_nang/wards/20938_tra_leng.geojson","boundary_source_page":"https://github.com/thanglequoc/vietnamese-provinces-database/blob/master/json/geojson/48_da_nang/wards/20938_tra_leng.geojson","source_catalog":"https://github.com/thanglequoc/vietnamese-provinces-database"},"geometry":null},{"type":"Feature","id":"20941","properties":{"commune_code":"20941","commune_name":"Trà Tập","commune_name_en":"Tra Tap","commune_full_name":"Xã Trà Tập","commune_full_name_en":"Tra Tap Commune","commune_slug":"tra_tap","unit_type":"Xã","unit_type_en":"Commune","admin_level":2,"province_code":"48","province_name":"Đà Nẵng","province_full_name":"Thành phố Đà Nẵng","province_slug":"da_nang","join_key":"20941","status":"active","dataset_effective_date":"2026-04-30","catalog_version":"2026-07-12","geometry_status":"not_embedded_boundary_available_by_url","boundary_source_url":"https://raw.githubusercontent.com/thanglequoc/vietnamese-provinces-database/master/json/geojson/48_da_nang/wards/20941_tra_tap.geojson","boundary_source_page":"https://github.com/thanglequoc/vietnamese-provinces-database/blob/master/json/geojson/48_da_nang/wards/20941_tra_tap.geojson","source_catalog":"https://github.com/thanglequoc/vietnamese-provinces-database"},"geometry":null},{"type":"Feature","id":"20944","properties":{"commune_code":"20944","commune_name":"Nam Trà My","commune_name_en":"Nam Tra My","commune_full_name":"Xã Nam Trà My","commune_full_name_en":"Nam Tra My Commune","commune_slug":"nam_tra_my","unit_type":"Xã","unit_type_en":"Commune","admin_level":2,"province_code":"48","province_name":"Đà Nẵng","province_full_name":"Thành phố Đà Nẵng","province_slug":"da_nang","join_key":"20944","status":"active","dataset_effective_date":"2026-04-30","catalog_version":"2026-07-12","geometry_status":"not_embedded_boundary_available_by_url","boundary_source_url":"https://raw.githubusercontent.com/thanglequoc/vietnamese-provinces-database/master/json/geojson/48_da_nang/wards/20944_nam_tra_my.geojson","boundary_source_page":"https://github.com/thanglequoc/vietnamese-provinces-database/blob/master/json/geojson/48_da_nang/wards/20944_nam_tra_my.geojson","source_catalog":"https://github.com/thanglequoc/vietnamese-provinces-database"},"geometry":null},{"type":"Feature","id":"20950","properties":{"commune_code":"20950","commune_name":"Trà Linh","commune_name_en":"Tra Linh","commune_full_name":"Xã Trà Linh","commune_full_name_en":"Tra Linh Commune","commune_slug":"tra_linh","unit_type":"Xã","unit_type_en":"Commune","admin_level":2,"province_code":"48","province_name":"Đà Nẵng","province_full_name":"Thành phố Đà Nẵng","province_slug":"da_nang","join_key":"20950","status":"active","dataset_effective_date":"2026-04-30","catalog_version":"2026-07-12","geometry_status":"not_embedded_boundary_available_by_url","boundary_source_url":"https://raw.githubusercontent.com/thanglequoc/vietnamese-provinces-database/master/json/geojson/48_da_nang/wards/20950_tra_linh.geojson","boundary_source_page":"https://github.com/thanglequoc/vietnamese-provinces-database/blob/master/json/geojson/48_da_nang/wards/20950_tra_linh.geojson","source_catalog":"https://github.com/thanglequoc/vietnamese-provinces-database"},"geometry":null},{"type":"Feature","id":"20959","properties":{"commune_code":"20959","commune_name":"Trà Vân","commune_name_en":"Tra Van","commune_full_name":"Xã Trà Vân","commune_full_name_en":"Tra Van Commune","commune_slug":"tra_van","unit_type":"Xã","unit_type_en":"Commune","admin_level":2,"province_code":"48","province_name":"Đà Nẵng","province_full_name":"Thành phố Đà Nẵng","province_slug":"da_nang","join_key":"20959","status":"active","dataset_effective_date":"2026-04-30","catalog_version":"2026-07-12","geometry_status":"not_embedded_boundary_available_by_url","boundary_source_url":"https://raw.githubusercontent.com/thanglequoc/vietnamese-provinces-database/master/json/geojson/48_da_nang/wards/20959_tra_van.geojson","boundary_source_page":"https://github.com/thanglequoc/vietnamese-provinces-database/blob/master/json/geojson/48_da_nang/wards/20959_tra_van.geojson","source_catalog":"https://github.com/thanglequoc/vietnamese-provinces-database"},"geometry":null},{"type":"Feature","id":"20965","properties":{"commune_code":"20965","commune_name":"Núi Thành","commune_name_en":"Nui Thanh","commune_full_name":"Xã Núi Thành","commune_full_name_en":"Nui Thanh Commune","commune_slug":"nui_thanh","unit_type":"Xã","unit_type_en":"Commune","admin_level":2,"province_code":"48","province_name":"Đà Nẵng","province_full_name":"Thành phố Đà Nẵng","province_slug":"da_nang","join_key":"20965","status":"active","dataset_effective_date":"2026-04-30","catalog_version":"2026-07-12","geometry_status":"not_embedded_boundary_available_by_url","boundary_source_url":"https://raw.githubusercontent.com/thanglequoc/vietnamese-provinces-database/master/json/geojson/48_da_nang/wards/20965_nui_thanh.geojson","boundary_source_page":"https://github.com/thanglequoc/vietnamese-provinces-database/blob/master/json/geojson/48_da_nang/wards/20965_nui_thanh.geojson","source_catalog":"https://github.com/thanglequoc/vietnamese-provinces-database"},"geometry":null},{"type":"Feature","id":"20971","properties":{"commune_code":"20971","commune_name":"Tam Xuân","commune_name_en":"Tam Xuan","commune_full_name":"Xã Tam Xuân","commune_full_name_en":"Tam Xuan Commune","commune_slug":"tam_xuan","unit_type":"Xã","unit_type_en":"Commune","admin_level":2,"province_code":"48","province_name":"Đà Nẵng","province_full_name":"Thành phố Đà Nẵng","province_slug":"da_nang","join_key":"20971","status":"active","dataset_effective_date":"2026-04-30","catalog_version":"2026-07-12","geometry_status":"not_embedded_boundary_available_by_url","boundary_source_url":"https://raw.githubusercontent.com/thanglequoc/vietnamese-provinces-database/master/json/geojson/48_da_nang/wards/20971_tam_xuan.geojson","boundary_source_page":"https://github.com/thanglequoc/vietnamese-provinces-database/blob/master/json/geojson/48_da_nang/wards/20971_tam_xuan.geojson","source_catalog":"https://github.com/thanglequoc/vietnamese-provinces-database"},"geometry":null},{"type":"Feature","id":"20977","properties":{"commune_code":"20977","commune_name":"Đức Phú","commune_name_en":"Duc Phu","commune_full_name":"Xã Đức Phú","commune_full_name_en":"Duc Phu Commune","commune_slug":"duc_phu","unit_type":"Xã","unit_type_en":"Commune","admin_level":2,"province_code":"48","province_name":"Đà Nẵng","province_full_name":"Thành phố Đà Nẵng","province_slug":"da_nang","join_key":"20977","status":"active","dataset_effective_date":"2026-04-30","catalog_version":"2026-07-12","geometry_status":"not_embedded_boundary_available_by_url","boundary_source_url":"https://raw.githubusercontent.com/thanglequoc/vietnamese-provinces-database/master/json/geojson/48_da_nang/wards/20977_duc_phu.geojson","boundary_source_page":"https://github.com/thanglequoc/vietnamese-provinces-database/blob/master/json/geojson/48_da_nang/wards/20977_duc_phu.geojson","source_catalog":"https://github.com/thanglequoc/vietnamese-provinces-database"},"geometry":null},{"type":"Feature","id":"20984","properties":{"commune_code":"20984","commune_name":"Tam Anh","commune_name_en":"Tam Anh","commune_full_name":"Xã Tam Anh","commune_full_name_en":"Tam Anh Commune","commune_slug":"tam_anh","unit_type":"Xã","unit_type_en":"Commune","admin_level":2,"province_code":"48","province_name":"Đà Nẵng","province_full_name":"Thành phố Đà Nẵng","province_slug":"da_nang","join_key":"20984","status":"active","dataset_effective_date":"2026-04-30","catalog_version":"2026-07-12","geometry_status":"not_embedded_boundary_available_by_url","boundary_source_url":"https://raw.githubusercontent.com/thanglequoc/vietnamese-provinces-database/master/json/geojson/48_da_nang/wards/20984_tam_anh.geojson","boundary_source_page":"https://github.com/thanglequoc/vietnamese-provinces-database/blob/master/json/geojson/48_da_nang/wards/20984_tam_anh.geojson","source_catalog":"https://github.com/thanglequoc/vietnamese-provinces-database"},"geometry":null},{"type":"Feature","id":"20992","properties":{"commune_code":"20992","commune_name":"Tam Hải","commune_name_en":"Tam Hai","commune_full_name":"Xã Tam Hải","commune_full_name_en":"Tam Hai Commune","commune_slug":"tam_hai","unit_type":"Xã","unit_type_en":"Commune","admin_level":2,"province_code":"48","province_name":"Đà Nẵng","province_full_name":"Thành phố Đà Nẵng","province_slug":"da_nang","join_key":"20992","status":"active","dataset_effective_date":"2026-04-30","catalog_version":"2026-07-12","geometry_status":"not_embedded_boundary_available_by_url","boundary_source_url":"https://raw.githubusercontent.com/thanglequoc/vietnamese-provinces-database/master/json/geojson/48_da_nang/wards/20992_tam_hai.geojson","boundary_source_page":"https://github.com/thanglequoc/vietnamese-provinces-database/blob/master/json/geojson/48_da_nang/wards/20992_tam_hai.geojson","source_catalog":"https://github.com/thanglequoc/vietnamese-provinces-database"},"geometry":null},{"type":"Feature","id":"21004","properties":{"commune_code":"21004","commune_name":"Tam Mỹ","commune_name_en":"Tam My","commune_full_name":"Xã Tam Mỹ","commune_full_name_en":"Tam My Commune","commune_slug":"tam_my","unit_type":"Xã","unit_type_en":"Commune","admin_level":2,"province_code":"48","province_name":"Đà Nẵng","province_full_name":"Thành phố Đà Nẵng","province_slug":"da_nang","join_key":"21004","status":"active","dataset_effective_date":"2026-04-30","catalog_version":"2026-07-12","geometry_status":"not_embedded_boundary_available_by_url","boundary_source_url":"https://raw.githubusercontent.com/thanglequoc/vietnamese-provinces-database/master/json/geojson/48_da_nang/wards/21004_tam_my.geojson","boundary_source_page":"https://github.com/thanglequoc/vietnamese-provinces-database/blob/master/json/geojson/48_da_nang/wards/21004_tam_my.geojson","source_catalog":"https://github.com/thanglequoc/vietnamese-provinces-database"},"geometry":null}]}