{"type":"FeatureCollection","name":"75_dong_nai_communes_attributes","metadata":{"province_code":"75","province_name":"Đồng Nai","feature_count":95,"geometry":null,"join_key":"commune_code"},"features":[{"type":"Feature","id":"25195","properties":{"commune_code":"25195","commune_name":"Bình Phước","commune_name_en":"Binh Phuoc","commune_full_name":"Phường Bình Phước","commune_full_name_en":"Binh Phuoc Ward","commune_slug":"binh_phuoc","unit_type":"Phường","unit_type_en":"Ward","admin_level":2,"province_code":"75","province_name":"Đồng Nai","province_full_name":"Thành phố Đồng Nai","province_slug":"dong_nai","join_key":"25195","status":"active","dataset_effective_date":"2026-04-30","catalog_version":"2026-07-12","geometry_status":"not_embedded_boundary_available_by_url","boundary_source_url":"https://raw.githubusercontent.com/thanglequoc/vietnamese-provinces-database/master/json/geojson/75_dong_nai/wards/25195_binh_phuoc.geojson","boundary_source_page":"https://github.com/thanglequoc/vietnamese-provinces-database/blob/master/json/geojson/75_dong_nai/wards/25195_binh_phuoc.geojson","source_catalog":"https://github.com/thanglequoc/vietnamese-provinces-database"},"geometry":null},{"type":"Feature","id":"25210","properties":{"commune_code":"25210","commune_name":"Đồng Xoài","commune_name_en":"Dong Xoai","commune_full_name":"Phường Đồng Xoài","commune_full_name_en":"Dong Xoai Ward","commune_slug":"dong_xoai","unit_type":"Phường","unit_type_en":"Ward","admin_level":2,"province_code":"75","province_name":"Đồng Nai","province_full_name":"Thành phố Đồng Nai","province_slug":"dong_nai","join_key":"25210","status":"active","dataset_effective_date":"2026-04-30","catalog_version":"2026-07-12","geometry_status":"not_embedded_boundary_available_by_url","boundary_source_url":"https://raw.githubusercontent.com/thanglequoc/vietnamese-provinces-database/master/json/geojson/75_dong_nai/wards/25210_dong_xoai.geojson","boundary_source_page":"https://github.com/thanglequoc/vietnamese-provinces-database/blob/master/json/geojson/75_dong_nai/wards/25210_dong_xoai.geojson","source_catalog":"https://github.com/thanglequoc/vietnamese-provinces-database"},"geometry":null},{"type":"Feature","id":"25217","properties":{"commune_code":"25217","commune_name":"Phước Long","commune_name_en":"Phuoc Long","commune_full_name":"Phường Phước Long","commune_full_name_en":"Phuoc Long Ward","commune_slug":"phuoc_long","unit_type":"Phường","unit_type_en":"Ward","admin_level":2,"province_code":"75","province_name":"Đồng Nai","province_full_name":"Thành phố Đồng Nai","province_slug":"dong_nai","join_key":"25217","status":"active","dataset_effective_date":"2026-04-30","catalog_version":"2026-07-12","geometry_status":"not_embedded_boundary_available_by_url","boundary_source_url":"https://raw.githubusercontent.com/thanglequoc/vietnamese-provinces-database/master/json/geojson/75_dong_nai/wards/25217_phuoc_long.geojson","boundary_source_page":"https://github.com/thanglequoc/vietnamese-provinces-database/blob/master/json/geojson/75_dong_nai/wards/25217_phuoc_long.geojson","source_catalog":"https://github.com/thanglequoc/vietnamese-provinces-database"},"geometry":null},{"type":"Feature","id":"25220","properties":{"commune_code":"25220","commune_name":"Phước Bình","commune_name_en":"Phuoc Binh","commune_full_name":"Phường Phước Bình","commune_full_name_en":"Phuoc Binh Ward","commune_slug":"phuoc_binh","unit_type":"Phường","unit_type_en":"Ward","admin_level":2,"province_code":"75","province_name":"Đồng Nai","province_full_name":"Thành phố Đồng Nai","province_slug":"dong_nai","join_key":"25220","status":"active","dataset_effective_date":"2026-04-30","catalog_version":"2026-07-12","geometry_status":"not_embedded_boundary_available_by_url","boundary_source_url":"https://raw.githubusercontent.com/thanglequoc/vietnamese-provinces-database/master/json/geojson/75_dong_nai/wards/25220_phuoc_binh.geojson","boundary_source_page":"https://github.com/thanglequoc/vietnamese-provinces-database/blob/master/json/geojson/75_dong_nai/wards/25220_phuoc_binh.geojson","source_catalog":"https://github.com/thanglequoc/vietnamese-provinces-database"},"geometry":null},{"type":"Feature","id":"25222","properties":{"commune_code":"25222","commune_name":"Bù Gia Mập","commune_name_en":"Bu Gia Map","commune_full_name":"Xã Bù Gia Mập","commune_full_name_en":"Bu Gia Map Commune","commune_slug":"bu_gia_map","unit_type":"Xã","unit_type_en":"Commune","admin_level":2,"province_code":"75","province_name":"Đồng Nai","province_full_name":"Thành phố Đồng Nai","province_slug":"dong_nai","join_key":"25222","status":"active","dataset_effective_date":"2026-04-30","catalog_version":"2026-07-12","geometry_status":"not_embedded_boundary_available_by_url","boundary_source_url":"https://raw.githubusercontent.com/thanglequoc/vietnamese-provinces-database/master/json/geojson/75_dong_nai/wards/25222_bu_gia_map.geojson","boundary_source_page":"https://github.com/thanglequoc/vietnamese-provinces-database/blob/master/json/geojson/75_dong_nai/wards/25222_bu_gia_map.geojson","source_catalog":"https://github.com/thanglequoc/vietnamese-provinces-database"},"geometry":null},{"type":"Feature","id":"25225","properties":{"commune_code":"25225","commune_name":"Đăk Ơ","commune_name_en":"Dak O","commune_full_name":"Xã Đăk Ơ","commune_full_name_en":"Dak O Commune","commune_slug":"dak_o","unit_type":"Xã","unit_type_en":"Commune","admin_level":2,"province_code":"75","province_name":"Đồng Nai","province_full_name":"Thành phố Đồng Nai","province_slug":"dong_nai","join_key":"25225","status":"active","dataset_effective_date":"2026-04-30","catalog_version":"2026-07-12","geometry_status":"not_embedded_boundary_available_by_url","boundary_source_url":"https://raw.githubusercontent.com/thanglequoc/vietnamese-provinces-database/master/json/geojson/75_dong_nai/wards/25225_dak_o.geojson","boundary_source_page":"https://github.com/thanglequoc/vietnamese-provinces-database/blob/master/json/geojson/75_dong_nai/wards/25225_dak_o.geojson","source_catalog":"https://github.com/thanglequoc/vietnamese-provinces-database"},"geometry":null},{"type":"Feature","id":"25231","properties":{"commune_code":"25231","commune_name":"Đa Kia","commune_name_en":"Da Kia","commune_full_name":"Xã Đa Kia","commune_full_name_en":"Da Kia Commune","commune_slug":"da_kia","unit_type":"Xã","unit_type_en":"Commune","admin_level":2,"province_code":"75","province_name":"Đồng Nai","province_full_name":"Thành phố Đồng Nai","province_slug":"dong_nai","join_key":"25231","status":"active","dataset_effective_date":"2026-04-30","catalog_version":"2026-07-12","geometry_status":"not_embedded_boundary_available_by_url","boundary_source_url":"https://raw.githubusercontent.com/thanglequoc/vietnamese-provinces-database/master/json/geojson/75_dong_nai/wards/25231_da_kia.geojson","boundary_source_page":"https://github.com/thanglequoc/vietnamese-provinces-database/blob/master/json/geojson/75_dong_nai/wards/25231_da_kia.geojson","source_catalog":"https://github.com/thanglequoc/vietnamese-provinces-database"},"geometry":null},{"type":"Feature","id":"25246","properties":{"commune_code":"25246","commune_name":"Bình Tân","commune_name_en":"Binh Tan","commune_full_name":"Xã Bình Tân","commune_full_name_en":"Binh Tan Commune","commune_slug":"binh_tan","unit_type":"Xã","unit_type_en":"Commune","admin_level":2,"province_code":"75","province_name":"Đồng Nai","province_full_name":"Thành phố Đồng Nai","province_slug":"dong_nai","join_key":"25246","status":"active","dataset_effective_date":"2026-04-30","catalog_version":"2026-07-12","geometry_status":"not_embedded_boundary_available_by_url","boundary_source_url":"https://raw.githubusercontent.com/thanglequoc/vietnamese-provinces-database/master/json/geojson/75_dong_nai/wards/25246_binh_tan.geojson","boundary_source_page":"https://github.com/thanglequoc/vietnamese-provinces-database/blob/master/json/geojson/75_dong_nai/wards/25246_binh_tan.geojson","source_catalog":"https://github.com/thanglequoc/vietnamese-provinces-database"},"geometry":null},{"type":"Feature","id":"25252","properties":{"commune_code":"25252","commune_name":"Phú Riềng","commune_name_en":"Phu Rieng","commune_full_name":"Xã Phú Riềng","commune_full_name_en":"Phu Rieng Commune","commune_slug":"phu_rieng","unit_type":"Xã","unit_type_en":"Commune","admin_level":2,"province_code":"75","province_name":"Đồng Nai","province_full_name":"Thành phố Đồng Nai","province_slug":"dong_nai","join_key":"25252","status":"active","dataset_effective_date":"2026-04-30","catalog_version":"2026-07-12","geometry_status":"not_embedded_boundary_available_by_url","boundary_source_url":"https://raw.githubusercontent.com/thanglequoc/vietnamese-provinces-database/master/json/geojson/75_dong_nai/wards/25252_phu_rieng.geojson","boundary_source_page":"https://github.com/thanglequoc/vietnamese-provinces-database/blob/master/json/geojson/75_dong_nai/wards/25252_phu_rieng.geojson","source_catalog":"https://github.com/thanglequoc/vietnamese-provinces-database"},"geometry":null},{"type":"Feature","id":"25255","properties":{"commune_code":"25255","commune_name":"Long Hà","commune_name_en":"Long Ha","commune_full_name":"Xã Long Hà","commune_full_name_en":"Long Ha Commune","commune_slug":"long_ha","unit_type":"Xã","unit_type_en":"Commune","admin_level":2,"province_code":"75","province_name":"Đồng Nai","province_full_name":"Thành phố Đồng Nai","province_slug":"dong_nai","join_key":"25255","status":"active","dataset_effective_date":"2026-04-30","catalog_version":"2026-07-12","geometry_status":"not_embedded_boundary_available_by_url","boundary_source_url":"https://raw.githubusercontent.com/thanglequoc/vietnamese-provinces-database/master/json/geojson/75_dong_nai/wards/25255_long_ha.geojson","boundary_source_page":"https://github.com/thanglequoc/vietnamese-provinces-database/blob/master/json/geojson/75_dong_nai/wards/25255_long_ha.geojson","source_catalog":"https://github.com/thanglequoc/vietnamese-provinces-database"},"geometry":null},{"type":"Feature","id":"25261","properties":{"commune_code":"25261","commune_name":"Phú Trung","commune_name_en":"Phu Trung","commune_full_name":"Xã Phú Trung","commune_full_name_en":"Phu Trung Commune","commune_slug":"phu_trung","unit_type":"Xã","unit_type_en":"Commune","admin_level":2,"province_code":"75","province_name":"Đồng Nai","province_full_name":"Thành phố Đồng Nai","province_slug":"dong_nai","join_key":"25261","status":"active","dataset_effective_date":"2026-04-30","catalog_version":"2026-07-12","geometry_status":"not_embedded_boundary_available_by_url","boundary_source_url":"https://raw.githubusercontent.com/thanglequoc/vietnamese-provinces-database/master/json/geojson/75_dong_nai/wards/25261_phu_trung.geojson","boundary_source_page":"https://github.com/thanglequoc/vietnamese-provinces-database/blob/master/json/geojson/75_dong_nai/wards/25261_phu_trung.geojson","source_catalog":"https://github.com/thanglequoc/vietnamese-provinces-database"},"geometry":null},{"type":"Feature","id":"25267","properties":{"commune_code":"25267","commune_name":"Phú Nghĩa","commune_name_en":"Phu Nghia","commune_full_name":"Xã Phú Nghĩa","commune_full_name_en":"Phu Nghia Commune","commune_slug":"phu_nghia","unit_type":"Xã","unit_type_en":"Commune","admin_level":2,"province_code":"75","province_name":"Đồng Nai","province_full_name":"Thành phố Đồng Nai","province_slug":"dong_nai","join_key":"25267","status":"active","dataset_effective_date":"2026-04-30","catalog_version":"2026-07-12","geometry_status":"not_embedded_boundary_available_by_url","boundary_source_url":"https://raw.githubusercontent.com/thanglequoc/vietnamese-provinces-database/master/json/geojson/75_dong_nai/wards/25267_phu_nghia.geojson","boundary_source_page":"https://github.com/thanglequoc/vietnamese-provinces-database/blob/master/json/geojson/75_dong_nai/wards/25267_phu_nghia.geojson","source_catalog":"https://github.com/thanglequoc/vietnamese-provinces-database"},"geometry":null},{"type":"Feature","id":"25270","properties":{"commune_code":"25270","commune_name":"Lộc Ninh","commune_name_en":"Loc Ninh","commune_full_name":"Phường Lộc Ninh","commune_full_name_en":"Loc Ninh Ward","commune_slug":"loc_ninh","unit_type":"Phường","unit_type_en":"Ward","admin_level":2,"province_code":"75","province_name":"Đồng Nai","province_full_name":"Thành phố Đồng Nai","province_slug":"dong_nai","join_key":"25270","status":"active","dataset_effective_date":"2026-04-30","catalog_version":"2026-07-12","geometry_status":"not_embedded_boundary_available_by_url","boundary_source_url":"https://raw.githubusercontent.com/thanglequoc/vietnamese-provinces-database/master/json/geojson/75_dong_nai/wards/25270_loc_ninh.geojson","boundary_source_page":"https://github.com/thanglequoc/vietnamese-provinces-database/blob/master/json/geojson/75_dong_nai/wards/25270_loc_ninh.geojson","source_catalog":"https://github.com/thanglequoc/vietnamese-provinces-database"},"geometry":null},{"type":"Feature","id":"25279","properties":{"commune_code":"25279","commune_name":"Lộc Tấn","commune_name_en":"Loc Tan","commune_full_name":"Xã Lộc Tấn","commune_full_name_en":"Loc Tan Commune","commune_slug":"loc_tan","unit_type":"Xã","unit_type_en":"Commune","admin_level":2,"province_code":"75","province_name":"Đồng Nai","province_full_name":"Thành phố Đồng Nai","province_slug":"dong_nai","join_key":"25279","status":"active","dataset_effective_date":"2026-04-30","catalog_version":"2026-07-12","geometry_status":"not_embedded_boundary_available_by_url","boundary_source_url":"https://raw.githubusercontent.com/thanglequoc/vietnamese-provinces-database/master/json/geojson/75_dong_nai/wards/25279_loc_tan.geojson","boundary_source_page":"https://github.com/thanglequoc/vietnamese-provinces-database/blob/master/json/geojson/75_dong_nai/wards/25279_loc_tan.geojson","source_catalog":"https://github.com/thanglequoc/vietnamese-provinces-database"},"geometry":null},{"type":"Feature","id":"25280","properties":{"commune_code":"25280","commune_name":"Lộc Thạnh","commune_name_en":"Loc Thanh","commune_full_name":"Xã Lộc Thạnh","commune_full_name_en":"Loc Thanh Commune","commune_slug":"loc_thanh","unit_type":"Xã","unit_type_en":"Commune","admin_level":2,"province_code":"75","province_name":"Đồng Nai","province_full_name":"Thành phố Đồng Nai","province_slug":"dong_nai","join_key":"25280","status":"active","dataset_effective_date":"2026-04-30","catalog_version":"2026-07-12","geometry_status":"not_embedded_boundary_available_by_url","boundary_source_url":"https://raw.githubusercontent.com/thanglequoc/vietnamese-provinces-database/master/json/geojson/75_dong_nai/wards/25280_loc_thanh.geojson","boundary_source_page":"https://github.com/thanglequoc/vietnamese-provinces-database/blob/master/json/geojson/75_dong_nai/wards/25280_loc_thanh.geojson","source_catalog":"https://github.com/thanglequoc/vietnamese-provinces-database"},"geometry":null},{"type":"Feature","id":"25292","properties":{"commune_code":"25292","commune_name":"Lộc Quang","commune_name_en":"Loc Quang","commune_full_name":"Xã Lộc Quang","commune_full_name_en":"Loc Quang Commune","commune_slug":"loc_quang","unit_type":"Xã","unit_type_en":"Commune","admin_level":2,"province_code":"75","province_name":"Đồng Nai","province_full_name":"Thành phố Đồng Nai","province_slug":"dong_nai","join_key":"25292","status":"active","dataset_effective_date":"2026-04-30","catalog_version":"2026-07-12","geometry_status":"not_embedded_boundary_available_by_url","boundary_source_url":"https://raw.githubusercontent.com/thanglequoc/vietnamese-provinces-database/master/json/geojson/75_dong_nai/wards/25292_loc_quang.geojson","boundary_source_page":"https://github.com/thanglequoc/vietnamese-provinces-database/blob/master/json/geojson/75_dong_nai/wards/25292_loc_quang.geojson","source_catalog":"https://github.com/thanglequoc/vietnamese-provinces-database"},"geometry":null},{"type":"Feature","id":"25294","properties":{"commune_code":"25294","commune_name":"Lộc Thành","commune_name_en":"Loc Thanh","commune_full_name":"Xã Lộc Thành","commune_full_name_en":"Loc Thanh Commune","commune_slug":"loc_thanh","unit_type":"Xã","unit_type_en":"Commune","admin_level":2,"province_code":"75","province_name":"Đồng Nai","province_full_name":"Thành phố Đồng Nai","province_slug":"dong_nai","join_key":"25294","status":"active","dataset_effective_date":"2026-04-30","catalog_version":"2026-07-12","geometry_status":"not_embedded_boundary_available_by_url","boundary_source_url":"https://raw.githubusercontent.com/thanglequoc/vietnamese-provinces-database/master/json/geojson/75_dong_nai/wards/25294_loc_thanh.geojson","boundary_source_page":"https://github.com/thanglequoc/vietnamese-provinces-database/blob/master/json/geojson/75_dong_nai/wards/25294_loc_thanh.geojson","source_catalog":"https://github.com/thanglequoc/vietnamese-provinces-database"},"geometry":null},{"type":"Feature","id":"25303","properties":{"commune_code":"25303","commune_name":"Lộc Hưng","commune_name_en":"Loc Hung","commune_full_name":"Xã Lộc Hưng","commune_full_name_en":"Loc Hung Commune","commune_slug":"loc_hung","unit_type":"Xã","unit_type_en":"Commune","admin_level":2,"province_code":"75","province_name":"Đồng Nai","province_full_name":"Thành phố Đồng Nai","province_slug":"dong_nai","join_key":"25303","status":"active","dataset_effective_date":"2026-04-30","catalog_version":"2026-07-12","geometry_status":"not_embedded_boundary_available_by_url","boundary_source_url":"https://raw.githubusercontent.com/thanglequoc/vietnamese-provinces-database/master/json/geojson/75_dong_nai/wards/25303_loc_hung.geojson","boundary_source_page":"https://github.com/thanglequoc/vietnamese-provinces-database/blob/master/json/geojson/75_dong_nai/wards/25303_loc_hung.geojson","source_catalog":"https://github.com/thanglequoc/vietnamese-provinces-database"},"geometry":null},{"type":"Feature","id":"25308","properties":{"commune_code":"25308","commune_name":"Thiện Hưng","commune_name_en":"Thien Hung","commune_full_name":"Xã Thiện Hưng","commune_full_name_en":"Thien Hung Commune","commune_slug":"thien_hung","unit_type":"Xã","unit_type_en":"Commune","admin_level":2,"province_code":"75","province_name":"Đồng Nai","province_full_name":"Thành phố Đồng Nai","province_slug":"dong_nai","join_key":"25308","status":"active","dataset_effective_date":"2026-04-30","catalog_version":"2026-07-12","geometry_status":"not_embedded_boundary_available_by_url","boundary_source_url":"https://raw.githubusercontent.com/thanglequoc/vietnamese-provinces-database/master/json/geojson/75_dong_nai/wards/25308_thien_hung.geojson","boundary_source_page":"https://github.com/thanglequoc/vietnamese-provinces-database/blob/master/json/geojson/75_dong_nai/wards/25308_thien_hung.geojson","source_catalog":"https://github.com/thanglequoc/vietnamese-provinces-database"},"geometry":null},{"type":"Feature","id":"25309","properties":{"commune_code":"25309","commune_name":"Hưng Phước","commune_name_en":"Hung Phuoc","commune_full_name":"Xã Hưng Phước","commune_full_name_en":"Hung Phuoc Commune","commune_slug":"hung_phuoc","unit_type":"Xã","unit_type_en":"Commune","admin_level":2,"province_code":"75","province_name":"Đồng Nai","province_full_name":"Thành phố Đồng Nai","province_slug":"dong_nai","join_key":"25309","status":"active","dataset_effective_date":"2026-04-30","catalog_version":"2026-07-12","geometry_status":"not_embedded_boundary_available_by_url","boundary_source_url":"https://raw.githubusercontent.com/thanglequoc/vietnamese-provinces-database/master/json/geojson/75_dong_nai/wards/25309_hung_phuoc.geojson","boundary_source_page":"https://github.com/thanglequoc/vietnamese-provinces-database/blob/master/json/geojson/75_dong_nai/wards/25309_hung_phuoc.geojson","source_catalog":"https://github.com/thanglequoc/vietnamese-provinces-database"},"geometry":null},{"type":"Feature","id":"25318","properties":{"commune_code":"25318","commune_name":"Tân Tiến","commune_name_en":"Tan Tien","commune_full_name":"Xã Tân Tiến","commune_full_name_en":"Tan Tien Commune","commune_slug":"tan_tien","unit_type":"Xã","unit_type_en":"Commune","admin_level":2,"province_code":"75","province_name":"Đồng Nai","province_full_name":"Thành phố Đồng Nai","province_slug":"dong_nai","join_key":"25318","status":"active","dataset_effective_date":"2026-04-30","catalog_version":"2026-07-12","geometry_status":"not_embedded_boundary_available_by_url","boundary_source_url":"https://raw.githubusercontent.com/thanglequoc/vietnamese-provinces-database/master/json/geojson/75_dong_nai/wards/25318_tan_tien.geojson","boundary_source_page":"https://github.com/thanglequoc/vietnamese-provinces-database/blob/master/json/geojson/75_dong_nai/wards/25318_tan_tien.geojson","source_catalog":"https://github.com/thanglequoc/vietnamese-provinces-database"},"geometry":null},{"type":"Feature","id":"25326","properties":{"commune_code":"25326","commune_name":"Bình Long","commune_name_en":"Binh Long","commune_full_name":"Phường Bình Long","commune_full_name_en":"Binh Long Ward","commune_slug":"binh_long","unit_type":"Phường","unit_type_en":"Ward","admin_level":2,"province_code":"75","province_name":"Đồng Nai","province_full_name":"Thành phố Đồng Nai","province_slug":"dong_nai","join_key":"25326","status":"active","dataset_effective_date":"2026-04-30","catalog_version":"2026-07-12","geometry_status":"not_embedded_boundary_available_by_url","boundary_source_url":"https://raw.githubusercontent.com/thanglequoc/vietnamese-provinces-database/master/json/geojson/75_dong_nai/wards/25326_binh_long.geojson","boundary_source_page":"https://github.com/thanglequoc/vietnamese-provinces-database/blob/master/json/geojson/75_dong_nai/wards/25326_binh_long.geojson","source_catalog":"https://github.com/thanglequoc/vietnamese-provinces-database"},"geometry":null},{"type":"Feature","id":"25333","properties":{"commune_code":"25333","commune_name":"An Lộc","commune_name_en":"An Loc","commune_full_name":"Phường An Lộc","commune_full_name_en":"An Loc Ward","commune_slug":"an_loc","unit_type":"Phường","unit_type_en":"Ward","admin_level":2,"province_code":"75","province_name":"Đồng Nai","province_full_name":"Thành phố Đồng Nai","province_slug":"dong_nai","join_key":"25333","status":"active","dataset_effective_date":"2026-04-30","catalog_version":"2026-07-12","geometry_status":"not_embedded_boundary_available_by_url","boundary_source_url":"https://raw.githubusercontent.com/thanglequoc/vietnamese-provinces-database/master/json/geojson/75_dong_nai/wards/25333_an_loc.geojson","boundary_source_page":"https://github.com/thanglequoc/vietnamese-provinces-database/blob/master/json/geojson/75_dong_nai/wards/25333_an_loc.geojson","source_catalog":"https://github.com/thanglequoc/vietnamese-provinces-database"},"geometry":null},{"type":"Feature","id":"25345","properties":{"commune_code":"25345","commune_name":"Tân Hưng","commune_name_en":"Tan Hung","commune_full_name":"Xã Tân Hưng","commune_full_name_en":"Tan Hung Commune","commune_slug":"tan_hung","unit_type":"Xã","unit_type_en":"Commune","admin_level":2,"province_code":"75","province_name":"Đồng Nai","province_full_name":"Thành phố Đồng Nai","province_slug":"dong_nai","join_key":"25345","status":"active","dataset_effective_date":"2026-04-30","catalog_version":"2026-07-12","geometry_status":"not_embedded_boundary_available_by_url","boundary_source_url":"https://raw.githubusercontent.com/thanglequoc/vietnamese-provinces-database/master/json/geojson/75_dong_nai/wards/25345_tan_hung.geojson","boundary_source_page":"https://github.com/thanglequoc/vietnamese-provinces-database/blob/master/json/geojson/75_dong_nai/wards/25345_tan_hung.geojson","source_catalog":"https://github.com/thanglequoc/vietnamese-provinces-database"},"geometry":null},{"type":"Feature","id":"25349","properties":{"commune_code":"25349","commune_name":"Minh Đức","commune_name_en":"Minh Duc","commune_full_name":"Xã Minh Đức","commune_full_name_en":"Minh Duc Commune","commune_slug":"minh_duc","unit_type":"Xã","unit_type_en":"Commune","admin_level":2,"province_code":"75","province_name":"Đồng Nai","province_full_name":"Thành phố Đồng Nai","province_slug":"dong_nai","join_key":"25349","status":"active","dataset_effective_date":"2026-04-30","catalog_version":"2026-07-12","geometry_status":"not_embedded_boundary_available_by_url","boundary_source_url":"https://raw.githubusercontent.com/thanglequoc/vietnamese-provinces-database/master/json/geojson/75_dong_nai/wards/25349_minh_duc.geojson","boundary_source_page":"https://github.com/thanglequoc/vietnamese-provinces-database/blob/master/json/geojson/75_dong_nai/wards/25349_minh_duc.geojson","source_catalog":"https://github.com/thanglequoc/vietnamese-provinces-database"},"geometry":null},{"type":"Feature","id":"25351","properties":{"commune_code":"25351","commune_name":"Tân Quan","commune_name_en":"Tan Quan","commune_full_name":"Xã Tân Quan","commune_full_name_en":"Tan Quan Commune","commune_slug":"tan_quan","unit_type":"Xã","unit_type_en":"Commune","admin_level":2,"province_code":"75","province_name":"Đồng Nai","province_full_name":"Thành phố Đồng Nai","province_slug":"dong_nai","join_key":"25351","status":"active","dataset_effective_date":"2026-04-30","catalog_version":"2026-07-12","geometry_status":"not_embedded_boundary_available_by_url","boundary_source_url":"https://raw.githubusercontent.com/thanglequoc/vietnamese-provinces-database/master/json/geojson/75_dong_nai/wards/25351_tan_quan.geojson","boundary_source_page":"https://github.com/thanglequoc/vietnamese-provinces-database/blob/master/json/geojson/75_dong_nai/wards/25351_tan_quan.geojson","source_catalog":"https://github.com/thanglequoc/vietnamese-provinces-database"},"geometry":null},{"type":"Feature","id":"25357","properties":{"commune_code":"25357","commune_name":"Tân Khai","commune_name_en":"Tan Khai","commune_full_name":"Phường Tân Khai","commune_full_name_en":"Tan Khai Ward","commune_slug":"tan_khai","unit_type":"Phường","unit_type_en":"Ward","admin_level":2,"province_code":"75","province_name":"Đồng Nai","province_full_name":"Thành phố Đồng Nai","province_slug":"dong_nai","join_key":"25357","status":"active","dataset_effective_date":"2026-04-30","catalog_version":"2026-07-12","geometry_status":"not_embedded_boundary_available_by_url","boundary_source_url":"https://raw.githubusercontent.com/thanglequoc/vietnamese-provinces-database/master/json/geojson/75_dong_nai/wards/25357_tan_khai.geojson","boundary_source_page":"https://github.com/thanglequoc/vietnamese-provinces-database/blob/master/json/geojson/75_dong_nai/wards/25357_tan_khai.geojson","source_catalog":"https://github.com/thanglequoc/vietnamese-provinces-database"},"geometry":null},{"type":"Feature","id":"25363","properties":{"commune_code":"25363","commune_name":"Đồng Phú","commune_name_en":"Dong Phu","commune_full_name":"Phường Đồng Phú","commune_full_name_en":"Dong Phu Ward","commune_slug":"dong_phu","unit_type":"Phường","unit_type_en":"Ward","admin_level":2,"province_code":"75","province_name":"Đồng Nai","province_full_name":"Thành phố Đồng Nai","province_slug":"dong_nai","join_key":"25363","status":"active","dataset_effective_date":"2026-04-30","catalog_version":"2026-07-12","geometry_status":"not_embedded_boundary_available_by_url","boundary_source_url":"https://raw.githubusercontent.com/thanglequoc/vietnamese-provinces-database/master/json/geojson/75_dong_nai/wards/25363_dong_phu.geojson","boundary_source_page":"https://github.com/thanglequoc/vietnamese-provinces-database/blob/master/json/geojson/75_dong_nai/wards/25363_dong_phu.geojson","source_catalog":"https://github.com/thanglequoc/vietnamese-provinces-database"},"geometry":null},{"type":"Feature","id":"25378","properties":{"commune_code":"25378","commune_name":"Tân Lợi","commune_name_en":"Tan Loi","commune_full_name":"Xã Tân Lợi","commune_full_name_en":"Tan Loi Commune","commune_slug":"tan_loi","unit_type":"Xã","unit_type_en":"Commune","admin_level":2,"province_code":"75","province_name":"Đồng Nai","province_full_name":"Thành phố Đồng Nai","province_slug":"dong_nai","join_key":"25378","status":"active","dataset_effective_date":"2026-04-30","catalog_version":"2026-07-12","geometry_status":"not_embedded_boundary_available_by_url","boundary_source_url":"https://raw.githubusercontent.com/thanglequoc/vietnamese-provinces-database/master/json/geojson/75_dong_nai/wards/25378_tan_loi.geojson","boundary_source_page":"https://github.com/thanglequoc/vietnamese-provinces-database/blob/master/json/geojson/75_dong_nai/wards/25378_tan_loi.geojson","source_catalog":"https://github.com/thanglequoc/vietnamese-provinces-database"},"geometry":null},{"type":"Feature","id":"25387","properties":{"commune_code":"25387","commune_name":"Thuận Lợi","commune_name_en":"Thuan Loi","commune_full_name":"Xã Thuận Lợi","commune_full_name_en":"Thuan Loi Commune","commune_slug":"thuan_loi","unit_type":"Xã","unit_type_en":"Commune","admin_level":2,"province_code":"75","province_name":"Đồng Nai","province_full_name":"Thành phố Đồng Nai","province_slug":"dong_nai","join_key":"25387","status":"active","dataset_effective_date":"2026-04-30","catalog_version":"2026-07-12","geometry_status":"not_embedded_boundary_available_by_url","boundary_source_url":"https://raw.githubusercontent.com/thanglequoc/vietnamese-provinces-database/master/json/geojson/75_dong_nai/wards/25387_thuan_loi.geojson","boundary_source_page":"https://github.com/thanglequoc/vietnamese-provinces-database/blob/master/json/geojson/75_dong_nai/wards/25387_thuan_loi.geojson","source_catalog":"https://github.com/thanglequoc/vietnamese-provinces-database"},"geometry":null},{"type":"Feature","id":"25390","properties":{"commune_code":"25390","commune_name":"Đồng Tâm","commune_name_en":"Dong Tam","commune_full_name":"Xã Đồng Tâm","commune_full_name_en":"Dong Tam Commune","commune_slug":"dong_tam","unit_type":"Xã","unit_type_en":"Commune","admin_level":2,"province_code":"75","province_name":"Đồng Nai","province_full_name":"Thành phố Đồng Nai","province_slug":"dong_nai","join_key":"25390","status":"active","dataset_effective_date":"2026-04-30","catalog_version":"2026-07-12","geometry_status":"not_embedded_boundary_available_by_url","boundary_source_url":"https://raw.githubusercontent.com/thanglequoc/vietnamese-provinces-database/master/json/geojson/75_dong_nai/wards/25390_dong_tam.geojson","boundary_source_page":"https://github.com/thanglequoc/vietnamese-provinces-database/blob/master/json/geojson/75_dong_nai/wards/25390_dong_tam.geojson","source_catalog":"https://github.com/thanglequoc/vietnamese-provinces-database"},"geometry":null},{"type":"Feature","id":"25396","properties":{"commune_code":"25396","commune_name":"Bù Đăng","commune_name_en":"Bu Dang","commune_full_name":"Xã Bù Đăng","commune_full_name_en":"Bu Dang Commune","commune_slug":"bu_dang","unit_type":"Xã","unit_type_en":"Commune","admin_level":2,"province_code":"75","province_name":"Đồng Nai","province_full_name":"Thành phố Đồng Nai","province_slug":"dong_nai","join_key":"25396","status":"active","dataset_effective_date":"2026-04-30","catalog_version":"2026-07-12","geometry_status":"not_embedded_boundary_available_by_url","boundary_source_url":"https://raw.githubusercontent.com/thanglequoc/vietnamese-provinces-database/master/json/geojson/75_dong_nai/wards/25396_bu_dang.geojson","boundary_source_page":"https://github.com/thanglequoc/vietnamese-provinces-database/blob/master/json/geojson/75_dong_nai/wards/25396_bu_dang.geojson","source_catalog":"https://github.com/thanglequoc/vietnamese-provinces-database"},"geometry":null},{"type":"Feature","id":"25399","properties":{"commune_code":"25399","commune_name":"Đak Nhau","commune_name_en":"Dak Nhau","commune_full_name":"Xã Đak Nhau","commune_full_name_en":"Dak Nhau Commune","commune_slug":"dak_nhau","unit_type":"Xã","unit_type_en":"Commune","admin_level":2,"province_code":"75","province_name":"Đồng Nai","province_full_name":"Thành phố Đồng Nai","province_slug":"dong_nai","join_key":"25399","status":"active","dataset_effective_date":"2026-04-30","catalog_version":"2026-07-12","geometry_status":"not_embedded_boundary_available_by_url","boundary_source_url":"https://raw.githubusercontent.com/thanglequoc/vietnamese-provinces-database/master/json/geojson/75_dong_nai/wards/25399_dak_nhau.geojson","boundary_source_page":"https://github.com/thanglequoc/vietnamese-provinces-database/blob/master/json/geojson/75_dong_nai/wards/25399_dak_nhau.geojson","source_catalog":"https://github.com/thanglequoc/vietnamese-provinces-database"},"geometry":null},{"type":"Feature","id":"25402","properties":{"commune_code":"25402","commune_name":"Thọ Sơn","commune_name_en":"Tho Son","commune_full_name":"Xã Thọ Sơn","commune_full_name_en":"Tho Son Commune","commune_slug":"tho_son","unit_type":"Xã","unit_type_en":"Commune","admin_level":2,"province_code":"75","province_name":"Đồng Nai","province_full_name":"Thành phố Đồng Nai","province_slug":"dong_nai","join_key":"25402","status":"active","dataset_effective_date":"2026-04-30","catalog_version":"2026-07-12","geometry_status":"not_embedded_boundary_available_by_url","boundary_source_url":"https://raw.githubusercontent.com/thanglequoc/vietnamese-provinces-database/master/json/geojson/75_dong_nai/wards/25402_tho_son.geojson","boundary_source_page":"https://github.com/thanglequoc/vietnamese-provinces-database/blob/master/json/geojson/75_dong_nai/wards/25402_tho_son.geojson","source_catalog":"https://github.com/thanglequoc/vietnamese-provinces-database"},"geometry":null},{"type":"Feature","id":"25405","properties":{"commune_code":"25405","commune_name":"Bom Bo","commune_name_en":"Bom Bo","commune_full_name":"Xã Bom Bo","commune_full_name_en":"Bom Bo Commune","commune_slug":"bom_bo","unit_type":"Xã","unit_type_en":"Commune","admin_level":2,"province_code":"75","province_name":"Đồng Nai","province_full_name":"Thành phố Đồng Nai","province_slug":"dong_nai","join_key":"25405","status":"active","dataset_effective_date":"2026-04-30","catalog_version":"2026-07-12","geometry_status":"not_embedded_boundary_available_by_url","boundary_source_url":"https://raw.githubusercontent.com/thanglequoc/vietnamese-provinces-database/master/json/geojson/75_dong_nai/wards/25405_bom_bo.geojson","boundary_source_page":"https://github.com/thanglequoc/vietnamese-provinces-database/blob/master/json/geojson/75_dong_nai/wards/25405_bom_bo.geojson","source_catalog":"https://github.com/thanglequoc/vietnamese-provinces-database"},"geometry":null},{"type":"Feature","id":"25417","properties":{"commune_code":"25417","commune_name":"Nghĩa Trung","commune_name_en":"Nghia Trung","commune_full_name":"Xã Nghĩa Trung","commune_full_name_en":"Nghia Trung Commune","commune_slug":"nghia_trung","unit_type":"Xã","unit_type_en":"Commune","admin_level":2,"province_code":"75","province_name":"Đồng Nai","province_full_name":"Thành phố Đồng Nai","province_slug":"dong_nai","join_key":"25417","status":"active","dataset_effective_date":"2026-04-30","catalog_version":"2026-07-12","geometry_status":"not_embedded_boundary_available_by_url","boundary_source_url":"https://raw.githubusercontent.com/thanglequoc/vietnamese-provinces-database/master/json/geojson/75_dong_nai/wards/25417_nghia_trung.geojson","boundary_source_page":"https://github.com/thanglequoc/vietnamese-provinces-database/blob/master/json/geojson/75_dong_nai/wards/25417_nghia_trung.geojson","source_catalog":"https://github.com/thanglequoc/vietnamese-provinces-database"},"geometry":null},{"type":"Feature","id":"25420","properties":{"commune_code":"25420","commune_name":"Phước Sơn","commune_name_en":"Phuoc Son","commune_full_name":"Xã Phước Sơn","commune_full_name_en":"Phuoc Son Commune","commune_slug":"phuoc_son","unit_type":"Xã","unit_type_en":"Commune","admin_level":2,"province_code":"75","province_name":"Đồng Nai","province_full_name":"Thành phố Đồng Nai","province_slug":"dong_nai","join_key":"25420","status":"active","dataset_effective_date":"2026-04-30","catalog_version":"2026-07-12","geometry_status":"not_embedded_boundary_available_by_url","boundary_source_url":"https://raw.githubusercontent.com/thanglequoc/vietnamese-provinces-database/master/json/geojson/75_dong_nai/wards/25420_phuoc_son.geojson","boundary_source_page":"https://github.com/thanglequoc/vietnamese-provinces-database/blob/master/json/geojson/75_dong_nai/wards/25420_phuoc_son.geojson","source_catalog":"https://github.com/thanglequoc/vietnamese-provinces-database"},"geometry":null},{"type":"Feature","id":"25432","properties":{"commune_code":"25432","commune_name":"Chơn Thành","commune_name_en":"Chon Thanh","commune_full_name":"Phường Chơn Thành","commune_full_name_en":"Chon Thanh Ward","commune_slug":"chon_thanh","unit_type":"Phường","unit_type_en":"Ward","admin_level":2,"province_code":"75","province_name":"Đồng Nai","province_full_name":"Thành phố Đồng Nai","province_slug":"dong_nai","join_key":"25432","status":"active","dataset_effective_date":"2026-04-30","catalog_version":"2026-07-12","geometry_status":"not_embedded_boundary_available_by_url","boundary_source_url":"https://raw.githubusercontent.com/thanglequoc/vietnamese-provinces-database/master/json/geojson/75_dong_nai/wards/25432_chon_thanh.geojson","boundary_source_page":"https://github.com/thanglequoc/vietnamese-provinces-database/blob/master/json/geojson/75_dong_nai/wards/25432_chon_thanh.geojson","source_catalog":"https://github.com/thanglequoc/vietnamese-provinces-database"},"geometry":null},{"type":"Feature","id":"25441","properties":{"commune_code":"25441","commune_name":"Minh Hưng","commune_name_en":"Minh Hung","commune_full_name":"Phường Minh Hưng","commune_full_name_en":"Minh Hung Ward","commune_slug":"minh_hung","unit_type":"Phường","unit_type_en":"Ward","admin_level":2,"province_code":"75","province_name":"Đồng Nai","province_full_name":"Thành phố Đồng Nai","province_slug":"dong_nai","join_key":"25441","status":"active","dataset_effective_date":"2026-04-30","catalog_version":"2026-07-12","geometry_status":"not_embedded_boundary_available_by_url","boundary_source_url":"https://raw.githubusercontent.com/thanglequoc/vietnamese-provinces-database/master/json/geojson/75_dong_nai/wards/25441_minh_hung.geojson","boundary_source_page":"https://github.com/thanglequoc/vietnamese-provinces-database/blob/master/json/geojson/75_dong_nai/wards/25441_minh_hung.geojson","source_catalog":"https://github.com/thanglequoc/vietnamese-provinces-database"},"geometry":null},{"type":"Feature","id":"25450","properties":{"commune_code":"25450","commune_name":"Nha Bích","commune_name_en":"Nha Bich","commune_full_name":"Xã Nha Bích","commune_full_name_en":"Nha Bich Commune","commune_slug":"nha_bich","unit_type":"Xã","unit_type_en":"Commune","admin_level":2,"province_code":"75","province_name":"Đồng Nai","province_full_name":"Thành phố Đồng Nai","province_slug":"dong_nai","join_key":"25450","status":"active","dataset_effective_date":"2026-04-30","catalog_version":"2026-07-12","geometry_status":"not_embedded_boundary_available_by_url","boundary_source_url":"https://raw.githubusercontent.com/thanglequoc/vietnamese-provinces-database/master/json/geojson/75_dong_nai/wards/25450_nha_bich.geojson","boundary_source_page":"https://github.com/thanglequoc/vietnamese-provinces-database/blob/master/json/geojson/75_dong_nai/wards/25450_nha_bich.geojson","source_catalog":"https://github.com/thanglequoc/vietnamese-provinces-database"},"geometry":null},{"type":"Feature","id":"25993","properties":{"commune_code":"25993","commune_name":"Trảng Dài","commune_name_en":"Trang Dai","commune_full_name":"Phường Trảng Dài","commune_full_name_en":"Trang Dai Ward","commune_slug":"trang_dai","unit_type":"Phường","unit_type_en":"Ward","admin_level":2,"province_code":"75","province_name":"Đồng Nai","province_full_name":"Thành phố Đồng Nai","province_slug":"dong_nai","join_key":"25993","status":"active","dataset_effective_date":"2026-04-30","catalog_version":"2026-07-12","geometry_status":"not_embedded_boundary_available_by_url","boundary_source_url":"https://raw.githubusercontent.com/thanglequoc/vietnamese-provinces-database/master/json/geojson/75_dong_nai/wards/25993_trang_dai.geojson","boundary_source_page":"https://github.com/thanglequoc/vietnamese-provinces-database/blob/master/json/geojson/75_dong_nai/wards/25993_trang_dai.geojson","source_catalog":"https://github.com/thanglequoc/vietnamese-provinces-database"},"geometry":null},{"type":"Feature","id":"26005","properties":{"commune_code":"26005","commune_name":"Hố Nai","commune_name_en":"Ho Nai","commune_full_name":"Phường Hố Nai","commune_full_name_en":"Ho Nai Ward","commune_slug":"ho_nai","unit_type":"Phường","unit_type_en":"Ward","admin_level":2,"province_code":"75","province_name":"Đồng Nai","province_full_name":"Thành phố Đồng Nai","province_slug":"dong_nai","join_key":"26005","status":"active","dataset_effective_date":"2026-04-30","catalog_version":"2026-07-12","geometry_status":"not_embedded_boundary_available_by_url","boundary_source_url":"https://raw.githubusercontent.com/thanglequoc/vietnamese-provinces-database/master/json/geojson/75_dong_nai/wards/26005_ho_nai.geojson","boundary_source_page":"https://github.com/thanglequoc/vietnamese-provinces-database/blob/master/json/geojson/75_dong_nai/wards/26005_ho_nai.geojson","source_catalog":"https://github.com/thanglequoc/vietnamese-provinces-database"},"geometry":null},{"type":"Feature","id":"26017","properties":{"commune_code":"26017","commune_name":"Tam Hiệp","commune_name_en":"Tam Hiep","commune_full_name":"Phường Tam Hiệp","commune_full_name_en":"Tam Hiep Ward","commune_slug":"tam_hiep","unit_type":"Phường","unit_type_en":"Ward","admin_level":2,"province_code":"75","province_name":"Đồng Nai","province_full_name":"Thành phố Đồng Nai","province_slug":"dong_nai","join_key":"26017","status":"active","dataset_effective_date":"2026-04-30","catalog_version":"2026-07-12","geometry_status":"not_embedded_boundary_available_by_url","boundary_source_url":"https://raw.githubusercontent.com/thanglequoc/vietnamese-provinces-database/master/json/geojson/75_dong_nai/wards/26017_tam_hiep.geojson","boundary_source_page":"https://github.com/thanglequoc/vietnamese-provinces-database/blob/master/json/geojson/75_dong_nai/wards/26017_tam_hiep.geojson","source_catalog":"https://github.com/thanglequoc/vietnamese-provinces-database"},"geometry":null},{"type":"Feature","id":"26020","properties":{"commune_code":"26020","commune_name":"Long Bình","commune_name_en":"Long Binh","commune_full_name":"Phường Long Bình","commune_full_name_en":"Long Binh Ward","commune_slug":"long_binh","unit_type":"Phường","unit_type_en":"Ward","admin_level":2,"province_code":"75","province_name":"Đồng Nai","province_full_name":"Thành phố Đồng Nai","province_slug":"dong_nai","join_key":"26020","status":"active","dataset_effective_date":"2026-04-30","catalog_version":"2026-07-12","geometry_status":"not_embedded_boundary_available_by_url","boundary_source_url":"https://raw.githubusercontent.com/thanglequoc/vietnamese-provinces-database/master/json/geojson/75_dong_nai/wards/26020_long_binh.geojson","boundary_source_page":"https://github.com/thanglequoc/vietnamese-provinces-database/blob/master/json/geojson/75_dong_nai/wards/26020_long_binh.geojson","source_catalog":"https://github.com/thanglequoc/vietnamese-provinces-database"},"geometry":null},{"type":"Feature","id":"26041","properties":{"commune_code":"26041","commune_name":"Trấn Biên","commune_name_en":"Tran Bien","commune_full_name":"Phường Trấn Biên","commune_full_name_en":"Tran Bien Ward","commune_slug":"tran_bien","unit_type":"Phường","unit_type_en":"Ward","admin_level":2,"province_code":"75","province_name":"Đồng Nai","province_full_name":"Thành phố Đồng Nai","province_slug":"dong_nai","join_key":"26041","status":"active","dataset_effective_date":"2026-04-30","catalog_version":"2026-07-12","geometry_status":"not_embedded_boundary_available_by_url","boundary_source_url":"https://raw.githubusercontent.com/thanglequoc/vietnamese-provinces-database/master/json/geojson/75_dong_nai/wards/26041_tran_bien.geojson","boundary_source_page":"https://github.com/thanglequoc/vietnamese-provinces-database/blob/master/json/geojson/75_dong_nai/wards/26041_tran_bien.geojson","source_catalog":"https://github.com/thanglequoc/vietnamese-provinces-database"},"geometry":null},{"type":"Feature","id":"26068","properties":{"commune_code":"26068","commune_name":"Biên Hoà","commune_name_en":"Bien Hoa","commune_full_name":"Phường Biên Hoà","commune_full_name_en":"Bien Hoa Ward","commune_slug":"bien_hoa","unit_type":"Phường","unit_type_en":"Ward","admin_level":2,"province_code":"75","province_name":"Đồng Nai","province_full_name":"Thành phố Đồng Nai","province_slug":"dong_nai","join_key":"26068","status":"active","dataset_effective_date":"2026-04-30","catalog_version":"2026-07-12","geometry_status":"not_embedded_boundary_available_by_url","boundary_source_url":"https://raw.githubusercontent.com/thanglequoc/vietnamese-provinces-database/master/json/geojson/75_dong_nai/wards/26068_bien_hoa.geojson","boundary_source_page":"https://github.com/thanglequoc/vietnamese-provinces-database/blob/master/json/geojson/75_dong_nai/wards/26068_bien_hoa.geojson","source_catalog":"https://github.com/thanglequoc/vietnamese-provinces-database"},"geometry":null},{"type":"Feature","id":"26080","properties":{"commune_code":"26080","commune_name":"Long Khánh","commune_name_en":"Long Khanh","commune_full_name":"Phường Long Khánh","commune_full_name_en":"Long Khanh Ward","commune_slug":"long_khanh","unit_type":"Phường","unit_type_en":"Ward","admin_level":2,"province_code":"75","province_name":"Đồng Nai","province_full_name":"Thành phố Đồng Nai","province_slug":"dong_nai","join_key":"26080","status":"active","dataset_effective_date":"2026-04-30","catalog_version":"2026-07-12","geometry_status":"not_embedded_boundary_available_by_url","boundary_source_url":"https://raw.githubusercontent.com/thanglequoc/vietnamese-provinces-database/master/json/geojson/75_dong_nai/wards/26080_long_khanh.geojson","boundary_source_page":"https://github.com/thanglequoc/vietnamese-provinces-database/blob/master/json/geojson/75_dong_nai/wards/26080_long_khanh.geojson","source_catalog":"https://github.com/thanglequoc/vietnamese-provinces-database"},"geometry":null},{"type":"Feature","id":"26089","properties":{"commune_code":"26089","commune_name":"Bình Lộc","commune_name_en":"Binh Loc","commune_full_name":"Phường Bình Lộc","commune_full_name_en":"Binh Loc Ward","commune_slug":"binh_loc","unit_type":"Phường","unit_type_en":"Ward","admin_level":2,"province_code":"75","province_name":"Đồng Nai","province_full_name":"Thành phố Đồng Nai","province_slug":"dong_nai","join_key":"26089","status":"active","dataset_effective_date":"2026-04-30","catalog_version":"2026-07-12","geometry_status":"not_embedded_boundary_available_by_url","boundary_source_url":"https://raw.githubusercontent.com/thanglequoc/vietnamese-provinces-database/master/json/geojson/75_dong_nai/wards/26089_binh_loc.geojson","boundary_source_page":"https://github.com/thanglequoc/vietnamese-provinces-database/blob/master/json/geojson/75_dong_nai/wards/26089_binh_loc.geojson","source_catalog":"https://github.com/thanglequoc/vietnamese-provinces-database"},"geometry":null},{"type":"Feature","id":"26098","properties":{"commune_code":"26098","commune_name":"Bảo Vinh","commune_name_en":"Bao Vinh","commune_full_name":"Phường Bảo Vinh","commune_full_name_en":"Bao Vinh Ward","commune_slug":"bao_vinh","unit_type":"Phường","unit_type_en":"Ward","admin_level":2,"province_code":"75","province_name":"Đồng Nai","province_full_name":"Thành phố Đồng Nai","province_slug":"dong_nai","join_key":"26098","status":"active","dataset_effective_date":"2026-04-30","catalog_version":"2026-07-12","geometry_status":"not_embedded_boundary_available_by_url","boundary_source_url":"https://raw.githubusercontent.com/thanglequoc/vietnamese-provinces-database/master/json/geojson/75_dong_nai/wards/26098_bao_vinh.geojson","boundary_source_page":"https://github.com/thanglequoc/vietnamese-provinces-database/blob/master/json/geojson/75_dong_nai/wards/26098_bao_vinh.geojson","source_catalog":"https://github.com/thanglequoc/vietnamese-provinces-database"},"geometry":null},{"type":"Feature","id":"26104","properties":{"commune_code":"26104","commune_name":"Xuân Lập","commune_name_en":"Xuan Lap","commune_full_name":"Phường Xuân Lập","commune_full_name_en":"Xuan Lap Ward","commune_slug":"xuan_lap","unit_type":"Phường","unit_type_en":"Ward","admin_level":2,"province_code":"75","province_name":"Đồng Nai","province_full_name":"Thành phố Đồng Nai","province_slug":"dong_nai","join_key":"26104","status":"active","dataset_effective_date":"2026-04-30","catalog_version":"2026-07-12","geometry_status":"not_embedded_boundary_available_by_url","boundary_source_url":"https://raw.githubusercontent.com/thanglequoc/vietnamese-provinces-database/master/json/geojson/75_dong_nai/wards/26104_xuan_lap.geojson","boundary_source_page":"https://github.com/thanglequoc/vietnamese-provinces-database/blob/master/json/geojson/75_dong_nai/wards/26104_xuan_lap.geojson","source_catalog":"https://github.com/thanglequoc/vietnamese-provinces-database"},"geometry":null},{"type":"Feature","id":"26113","properties":{"commune_code":"26113","commune_name":"Hàng Gòn","commune_name_en":"Hang Gon","commune_full_name":"Phường Hàng Gòn","commune_full_name_en":"Hang Gon Ward","commune_slug":"hang_gon","unit_type":"Phường","unit_type_en":"Ward","admin_level":2,"province_code":"75","province_name":"Đồng Nai","province_full_name":"Thành phố Đồng Nai","province_slug":"dong_nai","join_key":"26113","status":"active","dataset_effective_date":"2026-04-30","catalog_version":"2026-07-12","geometry_status":"not_embedded_boundary_available_by_url","boundary_source_url":"https://raw.githubusercontent.com/thanglequoc/vietnamese-provinces-database/master/json/geojson/75_dong_nai/wards/26113_hang_gon.geojson","boundary_source_page":"https://github.com/thanglequoc/vietnamese-provinces-database/blob/master/json/geojson/75_dong_nai/wards/26113_hang_gon.geojson","source_catalog":"https://github.com/thanglequoc/vietnamese-provinces-database"},"geometry":null},{"type":"Feature","id":"26116","properties":{"commune_code":"26116","commune_name":"Tân Phú","commune_name_en":"Tan Phu","commune_full_name":"Phường Tân Phú","commune_full_name_en":"Tan Phu Ward","commune_slug":"tan_phu","unit_type":"Phường","unit_type_en":"Ward","admin_level":2,"province_code":"75","province_name":"Đồng Nai","province_full_name":"Thành phố Đồng Nai","province_slug":"dong_nai","join_key":"26116","status":"active","dataset_effective_date":"2026-04-30","catalog_version":"2026-07-12","geometry_status":"not_embedded_boundary_available_by_url","boundary_source_url":"https://raw.githubusercontent.com/thanglequoc/vietnamese-provinces-database/master/json/geojson/75_dong_nai/wards/26116_tan_phu.geojson","boundary_source_page":"https://github.com/thanglequoc/vietnamese-provinces-database/blob/master/json/geojson/75_dong_nai/wards/26116_tan_phu.geojson","source_catalog":"https://github.com/thanglequoc/vietnamese-provinces-database"},"geometry":null},{"type":"Feature","id":"26119","properties":{"commune_code":"26119","commune_name":"Đak Lua","commune_name_en":"Dak Lua","commune_full_name":"Xã Đak Lua","commune_full_name_en":"Dak Lua Commune","commune_slug":"dak_lua","unit_type":"Xã","unit_type_en":"Commune","admin_level":2,"province_code":"75","province_name":"Đồng Nai","province_full_name":"Thành phố Đồng Nai","province_slug":"dong_nai","join_key":"26119","status":"active","dataset_effective_date":"2026-04-30","catalog_version":"2026-07-12","geometry_status":"not_embedded_boundary_available_by_url","boundary_source_url":"https://raw.githubusercontent.com/thanglequoc/vietnamese-provinces-database/master/json/geojson/75_dong_nai/wards/26119_dak_lua.geojson","boundary_source_page":"https://github.com/thanglequoc/vietnamese-provinces-database/blob/master/json/geojson/75_dong_nai/wards/26119_dak_lua.geojson","source_catalog":"https://github.com/thanglequoc/vietnamese-provinces-database"},"geometry":null},{"type":"Feature","id":"26122","properties":{"commune_code":"26122","commune_name":"Nam Cát Tiên","commune_name_en":"Nam Cat Tien","commune_full_name":"Xã Nam Cát Tiên","commune_full_name_en":"Nam Cat Tien Commune","commune_slug":"nam_cat_tien","unit_type":"Xã","unit_type_en":"Commune","admin_level":2,"province_code":"75","province_name":"Đồng Nai","province_full_name":"Thành phố Đồng Nai","province_slug":"dong_nai","join_key":"26122","status":"active","dataset_effective_date":"2026-04-30","catalog_version":"2026-07-12","geometry_status":"not_embedded_boundary_available_by_url","boundary_source_url":"https://raw.githubusercontent.com/thanglequoc/vietnamese-provinces-database/master/json/geojson/75_dong_nai/wards/26122_nam_cat_tien.geojson","boundary_source_page":"https://github.com/thanglequoc/vietnamese-provinces-database/blob/master/json/geojson/75_dong_nai/wards/26122_nam_cat_tien.geojson","source_catalog":"https://github.com/thanglequoc/vietnamese-provinces-database"},"geometry":null},{"type":"Feature","id":"26134","properties":{"commune_code":"26134","commune_name":"Tà Lài","commune_name_en":"Ta Lai","commune_full_name":"Xã Tà Lài","commune_full_name_en":"Ta Lai Commune","commune_slug":"ta_lai","unit_type":"Xã","unit_type_en":"Commune","admin_level":2,"province_code":"75","province_name":"Đồng Nai","province_full_name":"Thành phố Đồng Nai","province_slug":"dong_nai","join_key":"26134","status":"active","dataset_effective_date":"2026-04-30","catalog_version":"2026-07-12","geometry_status":"not_embedded_boundary_available_by_url","boundary_source_url":"https://raw.githubusercontent.com/thanglequoc/vietnamese-provinces-database/master/json/geojson/75_dong_nai/wards/26134_ta_lai.geojson","boundary_source_page":"https://github.com/thanglequoc/vietnamese-provinces-database/blob/master/json/geojson/75_dong_nai/wards/26134_ta_lai.geojson","source_catalog":"https://github.com/thanglequoc/vietnamese-provinces-database"},"geometry":null},{"type":"Feature","id":"26158","properties":{"commune_code":"26158","commune_name":"Phú Lâm","commune_name_en":"Phu Lam","commune_full_name":"Xã Phú Lâm","commune_full_name_en":"Phu Lam Commune","commune_slug":"phu_lam","unit_type":"Xã","unit_type_en":"Commune","admin_level":2,"province_code":"75","province_name":"Đồng Nai","province_full_name":"Thành phố Đồng Nai","province_slug":"dong_nai","join_key":"26158","status":"active","dataset_effective_date":"2026-04-30","catalog_version":"2026-07-12","geometry_status":"not_embedded_boundary_available_by_url","boundary_source_url":"https://raw.githubusercontent.com/thanglequoc/vietnamese-provinces-database/master/json/geojson/75_dong_nai/wards/26158_phu_lam.geojson","boundary_source_page":"https://github.com/thanglequoc/vietnamese-provinces-database/blob/master/json/geojson/75_dong_nai/wards/26158_phu_lam.geojson","source_catalog":"https://github.com/thanglequoc/vietnamese-provinces-database"},"geometry":null},{"type":"Feature","id":"26170","properties":{"commune_code":"26170","commune_name":"Trị An","commune_name_en":"Tri An","commune_full_name":"Phường Trị An","commune_full_name_en":"Tri An Ward","commune_slug":"tri_an","unit_type":"Phường","unit_type_en":"Ward","admin_level":2,"province_code":"75","province_name":"Đồng Nai","province_full_name":"Thành phố Đồng Nai","province_slug":"dong_nai","join_key":"26170","status":"active","dataset_effective_date":"2026-04-30","catalog_version":"2026-07-12","geometry_status":"not_embedded_boundary_available_by_url","boundary_source_url":"https://raw.githubusercontent.com/thanglequoc/vietnamese-provinces-database/master/json/geojson/75_dong_nai/wards/26170_tri_an.geojson","boundary_source_page":"https://github.com/thanglequoc/vietnamese-provinces-database/blob/master/json/geojson/75_dong_nai/wards/26170_tri_an.geojson","source_catalog":"https://github.com/thanglequoc/vietnamese-provinces-database"},"geometry":null},{"type":"Feature","id":"26173","properties":{"commune_code":"26173","commune_name":"Phú Lý","commune_name_en":"Phu Ly","commune_full_name":"Xã Phú Lý","commune_full_name_en":"Phu Ly Commune","commune_slug":"phu_ly","unit_type":"Xã","unit_type_en":"Commune","admin_level":2,"province_code":"75","province_name":"Đồng Nai","province_full_name":"Thành phố Đồng Nai","province_slug":"dong_nai","join_key":"26173","status":"active","dataset_effective_date":"2026-04-30","catalog_version":"2026-07-12","geometry_status":"not_embedded_boundary_available_by_url","boundary_source_url":"https://raw.githubusercontent.com/thanglequoc/vietnamese-provinces-database/master/json/geojson/75_dong_nai/wards/26173_phu_ly.geojson","boundary_source_page":"https://github.com/thanglequoc/vietnamese-provinces-database/blob/master/json/geojson/75_dong_nai/wards/26173_phu_ly.geojson","source_catalog":"https://github.com/thanglequoc/vietnamese-provinces-database"},"geometry":null},{"type":"Feature","id":"26179","properties":{"commune_code":"26179","commune_name":"Tân An","commune_name_en":"Tan An","commune_full_name":"Xã Tân An","commune_full_name_en":"Tan An Commune","commune_slug":"tan_an","unit_type":"Xã","unit_type_en":"Commune","admin_level":2,"province_code":"75","province_name":"Đồng Nai","province_full_name":"Thành phố Đồng Nai","province_slug":"dong_nai","join_key":"26179","status":"active","dataset_effective_date":"2026-04-30","catalog_version":"2026-07-12","geometry_status":"not_embedded_boundary_available_by_url","boundary_source_url":"https://raw.githubusercontent.com/thanglequoc/vietnamese-provinces-database/master/json/geojson/75_dong_nai/wards/26179_tan_an.geojson","boundary_source_page":"https://github.com/thanglequoc/vietnamese-provinces-database/blob/master/json/geojson/75_dong_nai/wards/26179_tan_an.geojson","source_catalog":"https://github.com/thanglequoc/vietnamese-provinces-database"},"geometry":null},{"type":"Feature","id":"26188","properties":{"commune_code":"26188","commune_name":"Tân Triều","commune_name_en":"Tan Trieu","commune_full_name":"Phường Tân Triều","commune_full_name_en":"Tan Trieu Ward","commune_slug":"tan_trieu","unit_type":"Phường","unit_type_en":"Ward","admin_level":2,"province_code":"75","province_name":"Đồng Nai","province_full_name":"Thành phố Đồng Nai","province_slug":"dong_nai","join_key":"26188","status":"active","dataset_effective_date":"2026-04-30","catalog_version":"2026-07-12","geometry_status":"not_embedded_boundary_available_by_url","boundary_source_url":"https://raw.githubusercontent.com/thanglequoc/vietnamese-provinces-database/master/json/geojson/75_dong_nai/wards/26188_tan_trieu.geojson","boundary_source_page":"https://github.com/thanglequoc/vietnamese-provinces-database/blob/master/json/geojson/75_dong_nai/wards/26188_tan_trieu.geojson","source_catalog":"https://github.com/thanglequoc/vietnamese-provinces-database"},"geometry":null},{"type":"Feature","id":"26206","properties":{"commune_code":"26206","commune_name":"Định Quán","commune_name_en":"Dinh Quan","commune_full_name":"Xã Định Quán","commune_full_name_en":"Dinh Quan Commune","commune_slug":"dinh_quan","unit_type":"Xã","unit_type_en":"Commune","admin_level":2,"province_code":"75","province_name":"Đồng Nai","province_full_name":"Thành phố Đồng Nai","province_slug":"dong_nai","join_key":"26206","status":"active","dataset_effective_date":"2026-04-30","catalog_version":"2026-07-12","geometry_status":"not_embedded_boundary_available_by_url","boundary_source_url":"https://raw.githubusercontent.com/thanglequoc/vietnamese-provinces-database/master/json/geojson/75_dong_nai/wards/26206_dinh_quan.geojson","boundary_source_page":"https://github.com/thanglequoc/vietnamese-provinces-database/blob/master/json/geojson/75_dong_nai/wards/26206_dinh_quan.geojson","source_catalog":"https://github.com/thanglequoc/vietnamese-provinces-database"},"geometry":null},{"type":"Feature","id":"26209","properties":{"commune_code":"26209","commune_name":"Thanh Sơn","commune_name_en":"Thanh Son","commune_full_name":"Xã Thanh Sơn","commune_full_name_en":"Thanh Son Commune","commune_slug":"thanh_son","unit_type":"Xã","unit_type_en":"Commune","admin_level":2,"province_code":"75","province_name":"Đồng Nai","province_full_name":"Thành phố Đồng Nai","province_slug":"dong_nai","join_key":"26209","status":"active","dataset_effective_date":"2026-04-30","catalog_version":"2026-07-12","geometry_status":"not_embedded_boundary_available_by_url","boundary_source_url":"https://raw.githubusercontent.com/thanglequoc/vietnamese-provinces-database/master/json/geojson/75_dong_nai/wards/26209_thanh_son.geojson","boundary_source_page":"https://github.com/thanglequoc/vietnamese-provinces-database/blob/master/json/geojson/75_dong_nai/wards/26209_thanh_son.geojson","source_catalog":"https://github.com/thanglequoc/vietnamese-provinces-database"},"geometry":null},{"type":"Feature","id":"26215","properties":{"commune_code":"26215","commune_name":"Phú Vinh","commune_name_en":"Phu Vinh","commune_full_name":"Xã Phú Vinh","commune_full_name_en":"Phu Vinh Commune","commune_slug":"phu_vinh","unit_type":"Xã","unit_type_en":"Commune","admin_level":2,"province_code":"75","province_name":"Đồng Nai","province_full_name":"Thành phố Đồng Nai","province_slug":"dong_nai","join_key":"26215","status":"active","dataset_effective_date":"2026-04-30","catalog_version":"2026-07-12","geometry_status":"not_embedded_boundary_available_by_url","boundary_source_url":"https://raw.githubusercontent.com/thanglequoc/vietnamese-provinces-database/master/json/geojson/75_dong_nai/wards/26215_phu_vinh.geojson","boundary_source_page":"https://github.com/thanglequoc/vietnamese-provinces-database/blob/master/json/geojson/75_dong_nai/wards/26215_phu_vinh.geojson","source_catalog":"https://github.com/thanglequoc/vietnamese-provinces-database"},"geometry":null},{"type":"Feature","id":"26221","properties":{"commune_code":"26221","commune_name":"Phú Hoà","commune_name_en":"Phu Hoa","commune_full_name":"Xã Phú Hoà","commune_full_name_en":"Phu Hoa Commune","commune_slug":"phu_hoa","unit_type":"Xã","unit_type_en":"Commune","admin_level":2,"province_code":"75","province_name":"Đồng Nai","province_full_name":"Thành phố Đồng Nai","province_slug":"dong_nai","join_key":"26221","status":"active","dataset_effective_date":"2026-04-30","catalog_version":"2026-07-12","geometry_status":"not_embedded_boundary_available_by_url","boundary_source_url":"https://raw.githubusercontent.com/thanglequoc/vietnamese-provinces-database/master/json/geojson/75_dong_nai/wards/26221_phu_hoa.geojson","boundary_source_page":"https://github.com/thanglequoc/vietnamese-provinces-database/blob/master/json/geojson/75_dong_nai/wards/26221_phu_hoa.geojson","source_catalog":"https://github.com/thanglequoc/vietnamese-provinces-database"},"geometry":null},{"type":"Feature","id":"26227","properties":{"commune_code":"26227","commune_name":"La Ngà","commune_name_en":"La Nga","commune_full_name":"Xã La Ngà","commune_full_name_en":"La Nga Commune","commune_slug":"la_nga","unit_type":"Xã","unit_type_en":"Commune","admin_level":2,"province_code":"75","province_name":"Đồng Nai","province_full_name":"Thành phố Đồng Nai","province_slug":"dong_nai","join_key":"26227","status":"active","dataset_effective_date":"2026-04-30","catalog_version":"2026-07-12","geometry_status":"not_embedded_boundary_available_by_url","boundary_source_url":"https://raw.githubusercontent.com/thanglequoc/vietnamese-provinces-database/master/json/geojson/75_dong_nai/wards/26227_la_nga.geojson","boundary_source_page":"https://github.com/thanglequoc/vietnamese-provinces-database/blob/master/json/geojson/75_dong_nai/wards/26227_la_nga.geojson","source_catalog":"https://github.com/thanglequoc/vietnamese-provinces-database"},"geometry":null},{"type":"Feature","id":"26248","properties":{"commune_code":"26248","commune_name":"Trảng Bom","commune_name_en":"Trang Bom","commune_full_name":"Phường Trảng Bom","commune_full_name_en":"Trang Bom Ward","commune_slug":"trang_bom","unit_type":"Phường","unit_type_en":"Ward","admin_level":2,"province_code":"75","province_name":"Đồng Nai","province_full_name":"Thành phố Đồng Nai","province_slug":"dong_nai","join_key":"26248","status":"active","dataset_effective_date":"2026-04-30","catalog_version":"2026-07-12","geometry_status":"not_embedded_boundary_available_by_url","boundary_source_url":"https://raw.githubusercontent.com/thanglequoc/vietnamese-provinces-database/master/json/geojson/75_dong_nai/wards/26248_trang_bom.geojson","boundary_source_page":"https://github.com/thanglequoc/vietnamese-provinces-database/blob/master/json/geojson/75_dong_nai/wards/26248_trang_bom.geojson","source_catalog":"https://github.com/thanglequoc/vietnamese-provinces-database"},"geometry":null},{"type":"Feature","id":"26254","properties":{"commune_code":"26254","commune_name":"Bàu Hàm","commune_name_en":"Bau Ham","commune_full_name":"Xã Bàu Hàm","commune_full_name_en":"Bau Ham Commune","commune_slug":"bau_ham","unit_type":"Xã","unit_type_en":"Commune","admin_level":2,"province_code":"75","province_name":"Đồng Nai","province_full_name":"Thành phố Đồng Nai","province_slug":"dong_nai","join_key":"26254","status":"active","dataset_effective_date":"2026-04-30","catalog_version":"2026-07-12","geometry_status":"not_embedded_boundary_available_by_url","boundary_source_url":"https://raw.githubusercontent.com/thanglequoc/vietnamese-provinces-database/master/json/geojson/75_dong_nai/wards/26254_bau_ham.geojson","boundary_source_page":"https://github.com/thanglequoc/vietnamese-provinces-database/blob/master/json/geojson/75_dong_nai/wards/26254_bau_ham.geojson","source_catalog":"https://github.com/thanglequoc/vietnamese-provinces-database"},"geometry":null},{"type":"Feature","id":"26278","properties":{"commune_code":"26278","commune_name":"Bình Minh","commune_name_en":"Binh Minh","commune_full_name":"Xã Bình Minh","commune_full_name_en":"Binh Minh Commune","commune_slug":"binh_minh","unit_type":"Xã","unit_type_en":"Commune","admin_level":2,"province_code":"75","province_name":"Đồng Nai","province_full_name":"Thành phố Đồng Nai","province_slug":"dong_nai","join_key":"26278","status":"active","dataset_effective_date":"2026-04-30","catalog_version":"2026-07-12","geometry_status":"not_embedded_boundary_available_by_url","boundary_source_url":"https://raw.githubusercontent.com/thanglequoc/vietnamese-provinces-database/master/json/geojson/75_dong_nai/wards/26278_binh_minh.geojson","boundary_source_page":"https://github.com/thanglequoc/vietnamese-provinces-database/blob/master/json/geojson/75_dong_nai/wards/26278_binh_minh.geojson","source_catalog":"https://github.com/thanglequoc/vietnamese-provinces-database"},"geometry":null},{"type":"Feature","id":"26281","properties":{"commune_code":"26281","commune_name":"Hưng Thịnh","commune_name_en":"Hung Thinh","commune_full_name":"Xã Hưng Thịnh","commune_full_name_en":"Hung Thinh Commune","commune_slug":"hung_thinh","unit_type":"Xã","unit_type_en":"Commune","admin_level":2,"province_code":"75","province_name":"Đồng Nai","province_full_name":"Thành phố Đồng Nai","province_slug":"dong_nai","join_key":"26281","status":"active","dataset_effective_date":"2026-04-30","catalog_version":"2026-07-12","geometry_status":"not_embedded_boundary_available_by_url","boundary_source_url":"https://raw.githubusercontent.com/thanglequoc/vietnamese-provinces-database/master/json/geojson/75_dong_nai/wards/26281_hung_thinh.geojson","boundary_source_page":"https://github.com/thanglequoc/vietnamese-provinces-database/blob/master/json/geojson/75_dong_nai/wards/26281_hung_thinh.geojson","source_catalog":"https://github.com/thanglequoc/vietnamese-provinces-database"},"geometry":null},{"type":"Feature","id":"26296","properties":{"commune_code":"26296","commune_name":"An Viễn","commune_name_en":"An Vien","commune_full_name":"Xã An Viễn","commune_full_name_en":"An Vien Commune","commune_slug":"an_vien","unit_type":"Xã","unit_type_en":"Commune","admin_level":2,"province_code":"75","province_name":"Đồng Nai","province_full_name":"Thành phố Đồng Nai","province_slug":"dong_nai","join_key":"26296","status":"active","dataset_effective_date":"2026-04-30","catalog_version":"2026-07-12","geometry_status":"not_embedded_boundary_available_by_url","boundary_source_url":"https://raw.githubusercontent.com/thanglequoc/vietnamese-provinces-database/master/json/geojson/75_dong_nai/wards/26296_an_vien.geojson","boundary_source_page":"https://github.com/thanglequoc/vietnamese-provinces-database/blob/master/json/geojson/75_dong_nai/wards/26296_an_vien.geojson","source_catalog":"https://github.com/thanglequoc/vietnamese-provinces-database"},"geometry":null},{"type":"Feature","id":"26299","properties":{"commune_code":"26299","commune_name":"Thống Nhất","commune_name_en":"Thong Nhat","commune_full_name":"Xã Thống Nhất","commune_full_name_en":"Thong Nhat Commune","commune_slug":"thong_nhat","unit_type":"Xã","unit_type_en":"Commune","admin_level":2,"province_code":"75","province_name":"Đồng Nai","province_full_name":"Thành phố Đồng Nai","province_slug":"dong_nai","join_key":"26299","status":"active","dataset_effective_date":"2026-04-30","catalog_version":"2026-07-12","geometry_status":"not_embedded_boundary_available_by_url","boundary_source_url":"https://raw.githubusercontent.com/thanglequoc/vietnamese-provinces-database/master/json/geojson/75_dong_nai/wards/26299_thong_nhat.geojson","boundary_source_page":"https://github.com/thanglequoc/vietnamese-provinces-database/blob/master/json/geojson/75_dong_nai/wards/26299_thong_nhat.geojson","source_catalog":"https://github.com/thanglequoc/vietnamese-provinces-database"},"geometry":null},{"type":"Feature","id":"26311","properties":{"commune_code":"26311","commune_name":"Gia Kiệm","commune_name_en":"Gia Kiem","commune_full_name":"Xã Gia Kiệm","commune_full_name_en":"Gia Kiem Commune","commune_slug":"gia_kiem","unit_type":"Xã","unit_type_en":"Commune","admin_level":2,"province_code":"75","province_name":"Đồng Nai","province_full_name":"Thành phố Đồng Nai","province_slug":"dong_nai","join_key":"26311","status":"active","dataset_effective_date":"2026-04-30","catalog_version":"2026-07-12","geometry_status":"not_embedded_boundary_available_by_url","boundary_source_url":"https://raw.githubusercontent.com/thanglequoc/vietnamese-provinces-database/master/json/geojson/75_dong_nai/wards/26311_gia_kiem.geojson","boundary_source_page":"https://github.com/thanglequoc/vietnamese-provinces-database/blob/master/json/geojson/75_dong_nai/wards/26311_gia_kiem.geojson","source_catalog":"https://github.com/thanglequoc/vietnamese-provinces-database"},"geometry":null},{"type":"Feature","id":"26326","properties":{"commune_code":"26326","commune_name":"Dầu Giây","commune_name_en":"Dau Giay","commune_full_name":"Phường Dầu Giây","commune_full_name_en":"Dau Giay Ward","commune_slug":"dau_giay","unit_type":"Phường","unit_type_en":"Ward","admin_level":2,"province_code":"75","province_name":"Đồng Nai","province_full_name":"Thành phố Đồng Nai","province_slug":"dong_nai","join_key":"26326","status":"active","dataset_effective_date":"2026-04-30","catalog_version":"2026-07-12","geometry_status":"not_embedded_boundary_available_by_url","boundary_source_url":"https://raw.githubusercontent.com/thanglequoc/vietnamese-provinces-database/master/json/geojson/75_dong_nai/wards/26326_dau_giay.geojson","boundary_source_page":"https://github.com/thanglequoc/vietnamese-provinces-database/blob/master/json/geojson/75_dong_nai/wards/26326_dau_giay.geojson","source_catalog":"https://github.com/thanglequoc/vietnamese-provinces-database"},"geometry":null},{"type":"Feature","id":"26332","properties":{"commune_code":"26332","commune_name":"Xuân Quế","commune_name_en":"Xuan Que","commune_full_name":"Xã Xuân Quế","commune_full_name_en":"Xuan Que Commune","commune_slug":"xuan_que","unit_type":"Xã","unit_type_en":"Commune","admin_level":2,"province_code":"75","province_name":"Đồng Nai","province_full_name":"Thành phố Đồng Nai","province_slug":"dong_nai","join_key":"26332","status":"active","dataset_effective_date":"2026-04-30","catalog_version":"2026-07-12","geometry_status":"not_embedded_boundary_available_by_url","boundary_source_url":"https://raw.githubusercontent.com/thanglequoc/vietnamese-provinces-database/master/json/geojson/75_dong_nai/wards/26332_xuan_que.geojson","boundary_source_page":"https://github.com/thanglequoc/vietnamese-provinces-database/blob/master/json/geojson/75_dong_nai/wards/26332_xuan_que.geojson","source_catalog":"https://github.com/thanglequoc/vietnamese-provinces-database"},"geometry":null},{"type":"Feature","id":"26341","properties":{"commune_code":"26341","commune_name":"Cẩm Mỹ","commune_name_en":"Cam My","commune_full_name":"Xã Cẩm Mỹ","commune_full_name_en":"Cam My Commune","commune_slug":"cam_my","unit_type":"Xã","unit_type_en":"Commune","admin_level":2,"province_code":"75","province_name":"Đồng Nai","province_full_name":"Thành phố Đồng Nai","province_slug":"dong_nai","join_key":"26341","status":"active","dataset_effective_date":"2026-04-30","catalog_version":"2026-07-12","geometry_status":"not_embedded_boundary_available_by_url","boundary_source_url":"https://raw.githubusercontent.com/thanglequoc/vietnamese-provinces-database/master/json/geojson/75_dong_nai/wards/26341_cam_my.geojson","boundary_source_page":"https://github.com/thanglequoc/vietnamese-provinces-database/blob/master/json/geojson/75_dong_nai/wards/26341_cam_my.geojson","source_catalog":"https://github.com/thanglequoc/vietnamese-provinces-database"},"geometry":null},{"type":"Feature","id":"26347","properties":{"commune_code":"26347","commune_name":"Xuân Đường","commune_name_en":"Xuan Duong","commune_full_name":"Xã Xuân Đường","commune_full_name_en":"Xuan Duong Commune","commune_slug":"xuan_duong","unit_type":"Xã","unit_type_en":"Commune","admin_level":2,"province_code":"75","province_name":"Đồng Nai","province_full_name":"Thành phố Đồng Nai","province_slug":"dong_nai","join_key":"26347","status":"active","dataset_effective_date":"2026-04-30","catalog_version":"2026-07-12","geometry_status":"not_embedded_boundary_available_by_url","boundary_source_url":"https://raw.githubusercontent.com/thanglequoc/vietnamese-provinces-database/master/json/geojson/75_dong_nai/wards/26347_xuan_duong.geojson","boundary_source_page":"https://github.com/thanglequoc/vietnamese-provinces-database/blob/master/json/geojson/75_dong_nai/wards/26347_xuan_duong.geojson","source_catalog":"https://github.com/thanglequoc/vietnamese-provinces-database"},"geometry":null},{"type":"Feature","id":"26359","properties":{"commune_code":"26359","commune_name":"Xuân Đông","commune_name_en":"Xuan Dong","commune_full_name":"Xã Xuân Đông","commune_full_name_en":"Xuan Dong Commune","commune_slug":"xuan_dong","unit_type":"Xã","unit_type_en":"Commune","admin_level":2,"province_code":"75","province_name":"Đồng Nai","province_full_name":"Thành phố Đồng Nai","province_slug":"dong_nai","join_key":"26359","status":"active","dataset_effective_date":"2026-04-30","catalog_version":"2026-07-12","geometry_status":"not_embedded_boundary_available_by_url","boundary_source_url":"https://raw.githubusercontent.com/thanglequoc/vietnamese-provinces-database/master/json/geojson/75_dong_nai/wards/26359_xuan_dong.geojson","boundary_source_page":"https://github.com/thanglequoc/vietnamese-provinces-database/blob/master/json/geojson/75_dong_nai/wards/26359_xuan_dong.geojson","source_catalog":"https://github.com/thanglequoc/vietnamese-provinces-database"},"geometry":null},{"type":"Feature","id":"26362","properties":{"commune_code":"26362","commune_name":"Sông Ray","commune_name_en":"Song Ray","commune_full_name":"Xã Sông Ray","commune_full_name_en":"Song Ray Commune","commune_slug":"song_ray","unit_type":"Xã","unit_type_en":"Commune","admin_level":2,"province_code":"75","province_name":"Đồng Nai","province_full_name":"Thành phố Đồng Nai","province_slug":"dong_nai","join_key":"26362","status":"active","dataset_effective_date":"2026-04-30","catalog_version":"2026-07-12","geometry_status":"not_embedded_boundary_available_by_url","boundary_source_url":"https://raw.githubusercontent.com/thanglequoc/vietnamese-provinces-database/master/json/geojson/75_dong_nai/wards/26362_song_ray.geojson","boundary_source_page":"https://github.com/thanglequoc/vietnamese-provinces-database/blob/master/json/geojson/75_dong_nai/wards/26362_song_ray.geojson","source_catalog":"https://github.com/thanglequoc/vietnamese-provinces-database"},"geometry":null},{"type":"Feature","id":"26368","properties":{"commune_code":"26368","commune_name":"Long Thành","commune_name_en":"Long Thanh","commune_full_name":"Phường Long Thành","commune_full_name_en":"Long Thanh Ward","commune_slug":"long_thanh","unit_type":"Phường","unit_type_en":"Ward","admin_level":2,"province_code":"75","province_name":"Đồng Nai","province_full_name":"Thành phố Đồng Nai","province_slug":"dong_nai","join_key":"26368","status":"active","dataset_effective_date":"2026-04-30","catalog_version":"2026-07-12","geometry_status":"not_embedded_boundary_available_by_url","boundary_source_url":"https://raw.githubusercontent.com/thanglequoc/vietnamese-provinces-database/master/json/geojson/75_dong_nai/wards/26368_long_thanh.geojson","boundary_source_page":"https://github.com/thanglequoc/vietnamese-provinces-database/blob/master/json/geojson/75_dong_nai/wards/26368_long_thanh.geojson","source_catalog":"https://github.com/thanglequoc/vietnamese-provinces-database"},"geometry":null},{"type":"Feature","id":"26374","properties":{"commune_code":"26374","commune_name":"Tam Phước","commune_name_en":"Tam Phuoc","commune_full_name":"Phường Tam Phước","commune_full_name_en":"Tam Phuoc Ward","commune_slug":"tam_phuoc","unit_type":"Phường","unit_type_en":"Ward","admin_level":2,"province_code":"75","province_name":"Đồng Nai","province_full_name":"Thành phố Đồng Nai","province_slug":"dong_nai","join_key":"26374","status":"active","dataset_effective_date":"2026-04-30","catalog_version":"2026-07-12","geometry_status":"not_embedded_boundary_available_by_url","boundary_source_url":"https://raw.githubusercontent.com/thanglequoc/vietnamese-provinces-database/master/json/geojson/75_dong_nai/wards/26374_tam_phuoc.geojson","boundary_source_page":"https://github.com/thanglequoc/vietnamese-provinces-database/blob/master/json/geojson/75_dong_nai/wards/26374_tam_phuoc.geojson","source_catalog":"https://github.com/thanglequoc/vietnamese-provinces-database"},"geometry":null},{"type":"Feature","id":"26377","properties":{"commune_code":"26377","commune_name":"Phước Tân","commune_name_en":"Phuoc Tan","commune_full_name":"Phường Phước Tân","commune_full_name_en":"Phuoc Tan Ward","commune_slug":"phuoc_tan","unit_type":"Phường","unit_type_en":"Ward","admin_level":2,"province_code":"75","province_name":"Đồng Nai","province_full_name":"Thành phố Đồng Nai","province_slug":"dong_nai","join_key":"26377","status":"active","dataset_effective_date":"2026-04-30","catalog_version":"2026-07-12","geometry_status":"not_embedded_boundary_available_by_url","boundary_source_url":"https://raw.githubusercontent.com/thanglequoc/vietnamese-provinces-database/master/json/geojson/75_dong_nai/wards/26377_phuoc_tan.geojson","boundary_source_page":"https://github.com/thanglequoc/vietnamese-provinces-database/blob/master/json/geojson/75_dong_nai/wards/26377_phuoc_tan.geojson","source_catalog":"https://github.com/thanglequoc/vietnamese-provinces-database"},"geometry":null},{"type":"Feature","id":"26380","properties":{"commune_code":"26380","commune_name":"Long Hưng","commune_name_en":"Long Hung","commune_full_name":"Phường Long Hưng","commune_full_name_en":"Long Hung Ward","commune_slug":"long_hung","unit_type":"Phường","unit_type_en":"Ward","admin_level":2,"province_code":"75","province_name":"Đồng Nai","province_full_name":"Thành phố Đồng Nai","province_slug":"dong_nai","join_key":"26380","status":"active","dataset_effective_date":"2026-04-30","catalog_version":"2026-07-12","geometry_status":"not_embedded_boundary_available_by_url","boundary_source_url":"https://raw.githubusercontent.com/thanglequoc/vietnamese-provinces-database/master/json/geojson/75_dong_nai/wards/26380_long_hung.geojson","boundary_source_page":"https://github.com/thanglequoc/vietnamese-provinces-database/blob/master/json/geojson/75_dong_nai/wards/26380_long_hung.geojson","source_catalog":"https://github.com/thanglequoc/vietnamese-provinces-database"},"geometry":null},{"type":"Feature","id":"26383","properties":{"commune_code":"26383","commune_name":"An Phước","commune_name_en":"An Phuoc","commune_full_name":"Xã An Phước","commune_full_name_en":"An Phuoc Commune","commune_slug":"an_phuoc","unit_type":"Xã","unit_type_en":"Commune","admin_level":2,"province_code":"75","province_name":"Đồng Nai","province_full_name":"Thành phố Đồng Nai","province_slug":"dong_nai","join_key":"26383","status":"active","dataset_effective_date":"2026-04-30","catalog_version":"2026-07-12","geometry_status":"not_embedded_boundary_available_by_url","boundary_source_url":"https://raw.githubusercontent.com/thanglequoc/vietnamese-provinces-database/master/json/geojson/75_dong_nai/wards/26383_an_phuoc.geojson","boundary_source_page":"https://github.com/thanglequoc/vietnamese-provinces-database/blob/master/json/geojson/75_dong_nai/wards/26383_an_phuoc.geojson","source_catalog":"https://github.com/thanglequoc/vietnamese-provinces-database"},"geometry":null},{"type":"Feature","id":"26389","properties":{"commune_code":"26389","commune_name":"Bình An","commune_name_en":"Binh An","commune_full_name":"Xã Bình An","commune_full_name_en":"Binh An Commune","commune_slug":"binh_an","unit_type":"Xã","unit_type_en":"Commune","admin_level":2,"province_code":"75","province_name":"Đồng Nai","province_full_name":"Thành phố Đồng Nai","province_slug":"dong_nai","join_key":"26389","status":"active","dataset_effective_date":"2026-04-30","catalog_version":"2026-07-12","geometry_status":"not_embedded_boundary_available_by_url","boundary_source_url":"https://raw.githubusercontent.com/thanglequoc/vietnamese-provinces-database/master/json/geojson/75_dong_nai/wards/26389_binh_an.geojson","boundary_source_page":"https://github.com/thanglequoc/vietnamese-provinces-database/blob/master/json/geojson/75_dong_nai/wards/26389_binh_an.geojson","source_catalog":"https://github.com/thanglequoc/vietnamese-provinces-database"},"geometry":null},{"type":"Feature","id":"26413","properties":{"commune_code":"26413","commune_name":"Long Phước","commune_name_en":"Long Phuoc","commune_full_name":"Xã Long Phước","commune_full_name_en":"Long Phuoc Commune","commune_slug":"long_phuoc","unit_type":"Xã","unit_type_en":"Commune","admin_level":2,"province_code":"75","province_name":"Đồng Nai","province_full_name":"Thành phố Đồng Nai","province_slug":"dong_nai","join_key":"26413","status":"active","dataset_effective_date":"2026-04-30","catalog_version":"2026-07-12","geometry_status":"not_embedded_boundary_available_by_url","boundary_source_url":"https://raw.githubusercontent.com/thanglequoc/vietnamese-provinces-database/master/json/geojson/75_dong_nai/wards/26413_long_phuoc.geojson","boundary_source_page":"https://github.com/thanglequoc/vietnamese-provinces-database/blob/master/json/geojson/75_dong_nai/wards/26413_long_phuoc.geojson","source_catalog":"https://github.com/thanglequoc/vietnamese-provinces-database"},"geometry":null},{"type":"Feature","id":"26422","properties":{"commune_code":"26422","commune_name":"Phước Thái","commune_name_en":"Phuoc Thai","commune_full_name":"Xã Phước Thái","commune_full_name_en":"Phuoc Thai Commune","commune_slug":"phuoc_thai","unit_type":"Xã","unit_type_en":"Commune","admin_level":2,"province_code":"75","province_name":"Đồng Nai","province_full_name":"Thành phố Đồng Nai","province_slug":"dong_nai","join_key":"26422","status":"active","dataset_effective_date":"2026-04-30","catalog_version":"2026-07-12","geometry_status":"not_embedded_boundary_available_by_url","boundary_source_url":"https://raw.githubusercontent.com/thanglequoc/vietnamese-provinces-database/master/json/geojson/75_dong_nai/wards/26422_phuoc_thai.geojson","boundary_source_page":"https://github.com/thanglequoc/vietnamese-provinces-database/blob/master/json/geojson/75_dong_nai/wards/26422_phuoc_thai.geojson","source_catalog":"https://github.com/thanglequoc/vietnamese-provinces-database"},"geometry":null},{"type":"Feature","id":"26425","properties":{"commune_code":"26425","commune_name":"Xuân Lộc","commune_name_en":"Xuan Loc","commune_full_name":"Phường Xuân Lộc","commune_full_name_en":"Xuan Loc Ward","commune_slug":"xuan_loc","unit_type":"Phường","unit_type_en":"Ward","admin_level":2,"province_code":"75","province_name":"Đồng Nai","province_full_name":"Thành phố Đồng Nai","province_slug":"dong_nai","join_key":"26425","status":"active","dataset_effective_date":"2026-04-30","catalog_version":"2026-07-12","geometry_status":"not_embedded_boundary_available_by_url","boundary_source_url":"https://raw.githubusercontent.com/thanglequoc/vietnamese-provinces-database/master/json/geojson/75_dong_nai/wards/26425_xuan_loc.geojson","boundary_source_page":"https://github.com/thanglequoc/vietnamese-provinces-database/blob/master/json/geojson/75_dong_nai/wards/26425_xuan_loc.geojson","source_catalog":"https://github.com/thanglequoc/vietnamese-provinces-database"},"geometry":null},{"type":"Feature","id":"26428","properties":{"commune_code":"26428","commune_name":"Xuân Bắc","commune_name_en":"Xuan Bac","commune_full_name":"Xã Xuân Bắc","commune_full_name_en":"Xuan Bac Commune","commune_slug":"xuan_bac","unit_type":"Xã","unit_type_en":"Commune","admin_level":2,"province_code":"75","province_name":"Đồng Nai","province_full_name":"Thành phố Đồng Nai","province_slug":"dong_nai","join_key":"26428","status":"active","dataset_effective_date":"2026-04-30","catalog_version":"2026-07-12","geometry_status":"not_embedded_boundary_available_by_url","boundary_source_url":"https://raw.githubusercontent.com/thanglequoc/vietnamese-provinces-database/master/json/geojson/75_dong_nai/wards/26428_xuan_bac.geojson","boundary_source_page":"https://github.com/thanglequoc/vietnamese-provinces-database/blob/master/json/geojson/75_dong_nai/wards/26428_xuan_bac.geojson","source_catalog":"https://github.com/thanglequoc/vietnamese-provinces-database"},"geometry":null},{"type":"Feature","id":"26434","properties":{"commune_code":"26434","commune_name":"Xuân Thành","commune_name_en":"Xuan Thanh","commune_full_name":"Xã Xuân Thành","commune_full_name_en":"Xuan Thanh Commune","commune_slug":"xuan_thanh","unit_type":"Xã","unit_type_en":"Commune","admin_level":2,"province_code":"75","province_name":"Đồng Nai","province_full_name":"Thành phố Đồng Nai","province_slug":"dong_nai","join_key":"26434","status":"active","dataset_effective_date":"2026-04-30","catalog_version":"2026-07-12","geometry_status":"not_embedded_boundary_available_by_url","boundary_source_url":"https://raw.githubusercontent.com/thanglequoc/vietnamese-provinces-database/master/json/geojson/75_dong_nai/wards/26434_xuan_thanh.geojson","boundary_source_page":"https://github.com/thanglequoc/vietnamese-provinces-database/blob/master/json/geojson/75_dong_nai/wards/26434_xuan_thanh.geojson","source_catalog":"https://github.com/thanglequoc/vietnamese-provinces-database"},"geometry":null},{"type":"Feature","id":"26446","properties":{"commune_code":"26446","commune_name":"Xuân Hoà","commune_name_en":"Xuan Hoa","commune_full_name":"Xã Xuân Hoà","commune_full_name_en":"Xuan Hoa Commune","commune_slug":"xuan_hoa","unit_type":"Xã","unit_type_en":"Commune","admin_level":2,"province_code":"75","province_name":"Đồng Nai","province_full_name":"Thành phố Đồng Nai","province_slug":"dong_nai","join_key":"26446","status":"active","dataset_effective_date":"2026-04-30","catalog_version":"2026-07-12","geometry_status":"not_embedded_boundary_available_by_url","boundary_source_url":"https://raw.githubusercontent.com/thanglequoc/vietnamese-provinces-database/master/json/geojson/75_dong_nai/wards/26446_xuan_hoa.geojson","boundary_source_page":"https://github.com/thanglequoc/vietnamese-provinces-database/blob/master/json/geojson/75_dong_nai/wards/26446_xuan_hoa.geojson","source_catalog":"https://github.com/thanglequoc/vietnamese-provinces-database"},"geometry":null},{"type":"Feature","id":"26458","properties":{"commune_code":"26458","commune_name":"Xuân Phú","commune_name_en":"Xuan Phu","commune_full_name":"Xã Xuân Phú","commune_full_name_en":"Xuan Phu Commune","commune_slug":"xuan_phu","unit_type":"Xã","unit_type_en":"Commune","admin_level":2,"province_code":"75","province_name":"Đồng Nai","province_full_name":"Thành phố Đồng Nai","province_slug":"dong_nai","join_key":"26458","status":"active","dataset_effective_date":"2026-04-30","catalog_version":"2026-07-12","geometry_status":"not_embedded_boundary_available_by_url","boundary_source_url":"https://raw.githubusercontent.com/thanglequoc/vietnamese-provinces-database/master/json/geojson/75_dong_nai/wards/26458_xuan_phu.geojson","boundary_source_page":"https://github.com/thanglequoc/vietnamese-provinces-database/blob/master/json/geojson/75_dong_nai/wards/26458_xuan_phu.geojson","source_catalog":"https://github.com/thanglequoc/vietnamese-provinces-database"},"geometry":null},{"type":"Feature","id":"26461","properties":{"commune_code":"26461","commune_name":"Xuân Định","commune_name_en":"Xuan Dinh","commune_full_name":"Xã Xuân Định","commune_full_name_en":"Xuan Dinh Commune","commune_slug":"xuan_dinh","unit_type":"Xã","unit_type_en":"Commune","admin_level":2,"province_code":"75","province_name":"Đồng Nai","province_full_name":"Thành phố Đồng Nai","province_slug":"dong_nai","join_key":"26461","status":"active","dataset_effective_date":"2026-04-30","catalog_version":"2026-07-12","geometry_status":"not_embedded_boundary_available_by_url","boundary_source_url":"https://raw.githubusercontent.com/thanglequoc/vietnamese-provinces-database/master/json/geojson/75_dong_nai/wards/26461_xuan_dinh.geojson","boundary_source_page":"https://github.com/thanglequoc/vietnamese-provinces-database/blob/master/json/geojson/75_dong_nai/wards/26461_xuan_dinh.geojson","source_catalog":"https://github.com/thanglequoc/vietnamese-provinces-database"},"geometry":null},{"type":"Feature","id":"26485","properties":{"commune_code":"26485","commune_name":"Nhơn Trạch","commune_name_en":"Nhon Trach","commune_full_name":"Phường Nhơn Trạch","commune_full_name_en":"Nhon Trach Ward","commune_slug":"nhon_trach","unit_type":"Phường","unit_type_en":"Ward","admin_level":2,"province_code":"75","province_name":"Đồng Nai","province_full_name":"Thành phố Đồng Nai","province_slug":"dong_nai","join_key":"26485","status":"active","dataset_effective_date":"2026-04-30","catalog_version":"2026-07-12","geometry_status":"not_embedded_boundary_available_by_url","boundary_source_url":"https://raw.githubusercontent.com/thanglequoc/vietnamese-provinces-database/master/json/geojson/75_dong_nai/wards/26485_nhon_trach.geojson","boundary_source_page":"https://github.com/thanglequoc/vietnamese-provinces-database/blob/master/json/geojson/75_dong_nai/wards/26485_nhon_trach.geojson","source_catalog":"https://github.com/thanglequoc/vietnamese-provinces-database"},"geometry":null},{"type":"Feature","id":"26491","properties":{"commune_code":"26491","commune_name":"Đại Phước","commune_name_en":"Dai Phuoc","commune_full_name":"Xã Đại Phước","commune_full_name_en":"Dai Phuoc Commune","commune_slug":"dai_phuoc","unit_type":"Xã","unit_type_en":"Commune","admin_level":2,"province_code":"75","province_name":"Đồng Nai","province_full_name":"Thành phố Đồng Nai","province_slug":"dong_nai","join_key":"26491","status":"active","dataset_effective_date":"2026-04-30","catalog_version":"2026-07-12","geometry_status":"not_embedded_boundary_available_by_url","boundary_source_url":"https://raw.githubusercontent.com/thanglequoc/vietnamese-provinces-database/master/json/geojson/75_dong_nai/wards/26491_dai_phuoc.geojson","boundary_source_page":"https://github.com/thanglequoc/vietnamese-provinces-database/blob/master/json/geojson/75_dong_nai/wards/26491_dai_phuoc.geojson","source_catalog":"https://github.com/thanglequoc/vietnamese-provinces-database"},"geometry":null},{"type":"Feature","id":"26503","properties":{"commune_code":"26503","commune_name":"Phước An","commune_name_en":"Phuoc An","commune_full_name":"Xã Phước An","commune_full_name_en":"Phuoc An Commune","commune_slug":"phuoc_an","unit_type":"Xã","unit_type_en":"Commune","admin_level":2,"province_code":"75","province_name":"Đồng Nai","province_full_name":"Thành phố Đồng Nai","province_slug":"dong_nai","join_key":"26503","status":"active","dataset_effective_date":"2026-04-30","catalog_version":"2026-07-12","geometry_status":"not_embedded_boundary_available_by_url","boundary_source_url":"https://raw.githubusercontent.com/thanglequoc/vietnamese-provinces-database/master/json/geojson/75_dong_nai/wards/26503_phuoc_an.geojson","boundary_source_page":"https://github.com/thanglequoc/vietnamese-provinces-database/blob/master/json/geojson/75_dong_nai/wards/26503_phuoc_an.geojson","source_catalog":"https://github.com/thanglequoc/vietnamese-provinces-database"},"geometry":null}]}