{"type":"FeatureCollection","name":"91_an_giang_communes_attributes","metadata":{"province_code":"91","province_name":"An Giang","feature_count":102,"geometry":null,"join_key":"commune_code"},"features":[{"type":"Feature","id":"30292","properties":{"commune_code":"30292","commune_name":"Bình Đức","commune_name_en":"Binh Duc","commune_full_name":"Phường Bình Đức","commune_full_name_en":"Binh Duc Ward","commune_slug":"binh_duc","unit_type":"Phường","unit_type_en":"Ward","admin_level":2,"province_code":"91","province_name":"An Giang","province_full_name":"Tỉnh An Giang","province_slug":"an_giang","join_key":"30292","status":"active","dataset_effective_date":"2026-04-30","catalog_version":"2026-07-12","geometry_status":"not_embedded_boundary_available_by_url","boundary_source_url":"https://raw.githubusercontent.com/thanglequoc/vietnamese-provinces-database/master/json/geojson/91_an_giang/wards/30292_binh_duc.geojson","boundary_source_page":"https://github.com/thanglequoc/vietnamese-provinces-database/blob/master/json/geojson/91_an_giang/wards/30292_binh_duc.geojson","source_catalog":"https://github.com/thanglequoc/vietnamese-provinces-database"},"geometry":null},{"type":"Feature","id":"30301","properties":{"commune_code":"30301","commune_name":"Mỹ Thới","commune_name_en":"My Thoi","commune_full_name":"Phường Mỹ Thới","commune_full_name_en":"My Thoi Ward","commune_slug":"my_thoi","unit_type":"Phường","unit_type_en":"Ward","admin_level":2,"province_code":"91","province_name":"An Giang","province_full_name":"Tỉnh An Giang","province_slug":"an_giang","join_key":"30301","status":"active","dataset_effective_date":"2026-04-30","catalog_version":"2026-07-12","geometry_status":"not_embedded_boundary_available_by_url","boundary_source_url":"https://raw.githubusercontent.com/thanglequoc/vietnamese-provinces-database/master/json/geojson/91_an_giang/wards/30301_my_thoi.geojson","boundary_source_page":"https://github.com/thanglequoc/vietnamese-provinces-database/blob/master/json/geojson/91_an_giang/wards/30301_my_thoi.geojson","source_catalog":"https://github.com/thanglequoc/vietnamese-provinces-database"},"geometry":null},{"type":"Feature","id":"30307","properties":{"commune_code":"30307","commune_name":"Long Xuyên","commune_name_en":"Long Xuyen","commune_full_name":"Phường Long Xuyên","commune_full_name_en":"Long Xuyen Ward","commune_slug":"long_xuyen","unit_type":"Phường","unit_type_en":"Ward","admin_level":2,"province_code":"91","province_name":"An Giang","province_full_name":"Tỉnh An Giang","province_slug":"an_giang","join_key":"30307","status":"active","dataset_effective_date":"2026-04-30","catalog_version":"2026-07-12","geometry_status":"not_embedded_boundary_available_by_url","boundary_source_url":"https://raw.githubusercontent.com/thanglequoc/vietnamese-provinces-database/master/json/geojson/91_an_giang/wards/30307_long_xuyen.geojson","boundary_source_page":"https://github.com/thanglequoc/vietnamese-provinces-database/blob/master/json/geojson/91_an_giang/wards/30307_long_xuyen.geojson","source_catalog":"https://github.com/thanglequoc/vietnamese-provinces-database"},"geometry":null},{"type":"Feature","id":"30313","properties":{"commune_code":"30313","commune_name":"Mỹ Hoà Hưng","commune_name_en":"My Hoa Hung","commune_full_name":"Xã Mỹ Hoà Hưng","commune_full_name_en":"My Hoa Hung Commune","commune_slug":"my_hoa_hung","unit_type":"Xã","unit_type_en":"Commune","admin_level":2,"province_code":"91","province_name":"An Giang","province_full_name":"Tỉnh An Giang","province_slug":"an_giang","join_key":"30313","status":"active","dataset_effective_date":"2026-04-30","catalog_version":"2026-07-12","geometry_status":"not_embedded_boundary_available_by_url","boundary_source_url":"https://raw.githubusercontent.com/thanglequoc/vietnamese-provinces-database/master/json/geojson/91_an_giang/wards/30313_my_hoa_hung.geojson","boundary_source_page":"https://github.com/thanglequoc/vietnamese-provinces-database/blob/master/json/geojson/91_an_giang/wards/30313_my_hoa_hung.geojson","source_catalog":"https://github.com/thanglequoc/vietnamese-provinces-database"},"geometry":null},{"type":"Feature","id":"30316","properties":{"commune_code":"30316","commune_name":"Châu Đốc","commune_name_en":"Chau Doc","commune_full_name":"Phường Châu Đốc","commune_full_name_en":"Chau Doc Ward","commune_slug":"chau_doc","unit_type":"Phường","unit_type_en":"Ward","admin_level":2,"province_code":"91","province_name":"An Giang","province_full_name":"Tỉnh An Giang","province_slug":"an_giang","join_key":"30316","status":"active","dataset_effective_date":"2026-04-30","catalog_version":"2026-07-12","geometry_status":"not_embedded_boundary_available_by_url","boundary_source_url":"https://raw.githubusercontent.com/thanglequoc/vietnamese-provinces-database/master/json/geojson/91_an_giang/wards/30316_chau_doc.geojson","boundary_source_page":"https://github.com/thanglequoc/vietnamese-provinces-database/blob/master/json/geojson/91_an_giang/wards/30316_chau_doc.geojson","source_catalog":"https://github.com/thanglequoc/vietnamese-provinces-database"},"geometry":null},{"type":"Feature","id":"30325","properties":{"commune_code":"30325","commune_name":"Vĩnh Tế","commune_name_en":"Vinh Te","commune_full_name":"Phường Vĩnh Tế","commune_full_name_en":"Vinh Te Ward","commune_slug":"vinh_te","unit_type":"Phường","unit_type_en":"Ward","admin_level":2,"province_code":"91","province_name":"An Giang","province_full_name":"Tỉnh An Giang","province_slug":"an_giang","join_key":"30325","status":"active","dataset_effective_date":"2026-04-30","catalog_version":"2026-07-12","geometry_status":"not_embedded_boundary_available_by_url","boundary_source_url":"https://raw.githubusercontent.com/thanglequoc/vietnamese-provinces-database/master/json/geojson/91_an_giang/wards/30325_vinh_te.geojson","boundary_source_page":"https://github.com/thanglequoc/vietnamese-provinces-database/blob/master/json/geojson/91_an_giang/wards/30325_vinh_te.geojson","source_catalog":"https://github.com/thanglequoc/vietnamese-provinces-database"},"geometry":null},{"type":"Feature","id":"30337","properties":{"commune_code":"30337","commune_name":"An Phú","commune_name_en":"An Phu","commune_full_name":"Xã An Phú","commune_full_name_en":"An Phu Commune","commune_slug":"an_phu","unit_type":"Xã","unit_type_en":"Commune","admin_level":2,"province_code":"91","province_name":"An Giang","province_full_name":"Tỉnh An Giang","province_slug":"an_giang","join_key":"30337","status":"active","dataset_effective_date":"2026-04-30","catalog_version":"2026-07-12","geometry_status":"not_embedded_boundary_available_by_url","boundary_source_url":"https://raw.githubusercontent.com/thanglequoc/vietnamese-provinces-database/master/json/geojson/91_an_giang/wards/30337_an_phu.geojson","boundary_source_page":"https://github.com/thanglequoc/vietnamese-provinces-database/blob/master/json/geojson/91_an_giang/wards/30337_an_phu.geojson","source_catalog":"https://github.com/thanglequoc/vietnamese-provinces-database"},"geometry":null},{"type":"Feature","id":"30341","properties":{"commune_code":"30341","commune_name":"Khánh Bình","commune_name_en":"Khanh Binh","commune_full_name":"Xã Khánh Bình","commune_full_name_en":"Khanh Binh Commune","commune_slug":"khanh_binh","unit_type":"Xã","unit_type_en":"Commune","admin_level":2,"province_code":"91","province_name":"An Giang","province_full_name":"Tỉnh An Giang","province_slug":"an_giang","join_key":"30341","status":"active","dataset_effective_date":"2026-04-30","catalog_version":"2026-07-12","geometry_status":"not_embedded_boundary_available_by_url","boundary_source_url":"https://raw.githubusercontent.com/thanglequoc/vietnamese-provinces-database/master/json/geojson/91_an_giang/wards/30341_khanh_binh.geojson","boundary_source_page":"https://github.com/thanglequoc/vietnamese-provinces-database/blob/master/json/geojson/91_an_giang/wards/30341_khanh_binh.geojson","source_catalog":"https://github.com/thanglequoc/vietnamese-provinces-database"},"geometry":null},{"type":"Feature","id":"30346","properties":{"commune_code":"30346","commune_name":"Nhơn Hội","commune_name_en":"Nhon Hoi","commune_full_name":"Xã Nhơn Hội","commune_full_name_en":"Nhon Hoi Commune","commune_slug":"nhon_hoi","unit_type":"Xã","unit_type_en":"Commune","admin_level":2,"province_code":"91","province_name":"An Giang","province_full_name":"Tỉnh An Giang","province_slug":"an_giang","join_key":"30346","status":"active","dataset_effective_date":"2026-04-30","catalog_version":"2026-07-12","geometry_status":"not_embedded_boundary_available_by_url","boundary_source_url":"https://raw.githubusercontent.com/thanglequoc/vietnamese-provinces-database/master/json/geojson/91_an_giang/wards/30346_nhon_hoi.geojson","boundary_source_page":"https://github.com/thanglequoc/vietnamese-provinces-database/blob/master/json/geojson/91_an_giang/wards/30346_nhon_hoi.geojson","source_catalog":"https://github.com/thanglequoc/vietnamese-provinces-database"},"geometry":null},{"type":"Feature","id":"30352","properties":{"commune_code":"30352","commune_name":"Phú Hữu","commune_name_en":"Phu Huu","commune_full_name":"Xã Phú Hữu","commune_full_name_en":"Phu Huu Commune","commune_slug":"phu_huu","unit_type":"Xã","unit_type_en":"Commune","admin_level":2,"province_code":"91","province_name":"An Giang","province_full_name":"Tỉnh An Giang","province_slug":"an_giang","join_key":"30352","status":"active","dataset_effective_date":"2026-04-30","catalog_version":"2026-07-12","geometry_status":"not_embedded_boundary_available_by_url","boundary_source_url":"https://raw.githubusercontent.com/thanglequoc/vietnamese-provinces-database/master/json/geojson/91_an_giang/wards/30352_phu_huu.geojson","boundary_source_page":"https://github.com/thanglequoc/vietnamese-provinces-database/blob/master/json/geojson/91_an_giang/wards/30352_phu_huu.geojson","source_catalog":"https://github.com/thanglequoc/vietnamese-provinces-database"},"geometry":null},{"type":"Feature","id":"30367","properties":{"commune_code":"30367","commune_name":"Vĩnh Hậu","commune_name_en":"Vinh Hau","commune_full_name":"Xã Vĩnh Hậu","commune_full_name_en":"Vinh Hau Commune","commune_slug":"vinh_hau","unit_type":"Xã","unit_type_en":"Commune","admin_level":2,"province_code":"91","province_name":"An Giang","province_full_name":"Tỉnh An Giang","province_slug":"an_giang","join_key":"30367","status":"active","dataset_effective_date":"2026-04-30","catalog_version":"2026-07-12","geometry_status":"not_embedded_boundary_available_by_url","boundary_source_url":"https://raw.githubusercontent.com/thanglequoc/vietnamese-provinces-database/master/json/geojson/91_an_giang/wards/30367_vinh_hau.geojson","boundary_source_page":"https://github.com/thanglequoc/vietnamese-provinces-database/blob/master/json/geojson/91_an_giang/wards/30367_vinh_hau.geojson","source_catalog":"https://github.com/thanglequoc/vietnamese-provinces-database"},"geometry":null},{"type":"Feature","id":"30376","properties":{"commune_code":"30376","commune_name":"Tân Châu","commune_name_en":"Tan Chau","commune_full_name":"Phường Tân Châu","commune_full_name_en":"Tan Chau Ward","commune_slug":"tan_chau","unit_type":"Phường","unit_type_en":"Ward","admin_level":2,"province_code":"91","province_name":"An Giang","province_full_name":"Tỉnh An Giang","province_slug":"an_giang","join_key":"30376","status":"active","dataset_effective_date":"2026-04-30","catalog_version":"2026-07-12","geometry_status":"not_embedded_boundary_available_by_url","boundary_source_url":"https://raw.githubusercontent.com/thanglequoc/vietnamese-provinces-database/master/json/geojson/91_an_giang/wards/30376_tan_chau.geojson","boundary_source_page":"https://github.com/thanglequoc/vietnamese-provinces-database/blob/master/json/geojson/91_an_giang/wards/30376_tan_chau.geojson","source_catalog":"https://github.com/thanglequoc/vietnamese-provinces-database"},"geometry":null},{"type":"Feature","id":"30377","properties":{"commune_code":"30377","commune_name":"Long Phú","commune_name_en":"Long Phu","commune_full_name":"Phường Long Phú","commune_full_name_en":"Long Phu Ward","commune_slug":"long_phu","unit_type":"Phường","unit_type_en":"Ward","admin_level":2,"province_code":"91","province_name":"An Giang","province_full_name":"Tỉnh An Giang","province_slug":"an_giang","join_key":"30377","status":"active","dataset_effective_date":"2026-04-30","catalog_version":"2026-07-12","geometry_status":"not_embedded_boundary_available_by_url","boundary_source_url":"https://raw.githubusercontent.com/thanglequoc/vietnamese-provinces-database/master/json/geojson/91_an_giang/wards/30377_long_phu.geojson","boundary_source_page":"https://github.com/thanglequoc/vietnamese-provinces-database/blob/master/json/geojson/91_an_giang/wards/30377_long_phu.geojson","source_catalog":"https://github.com/thanglequoc/vietnamese-provinces-database"},"geometry":null},{"type":"Feature","id":"30385","properties":{"commune_code":"30385","commune_name":"Vĩnh Xương","commune_name_en":"Vinh Xuong","commune_full_name":"Xã Vĩnh Xương","commune_full_name_en":"Vinh Xuong Commune","commune_slug":"vinh_xuong","unit_type":"Xã","unit_type_en":"Commune","admin_level":2,"province_code":"91","province_name":"An Giang","province_full_name":"Tỉnh An Giang","province_slug":"an_giang","join_key":"30385","status":"active","dataset_effective_date":"2026-04-30","catalog_version":"2026-07-12","geometry_status":"not_embedded_boundary_available_by_url","boundary_source_url":"https://raw.githubusercontent.com/thanglequoc/vietnamese-provinces-database/master/json/geojson/91_an_giang/wards/30385_vinh_xuong.geojson","boundary_source_page":"https://github.com/thanglequoc/vietnamese-provinces-database/blob/master/json/geojson/91_an_giang/wards/30385_vinh_xuong.geojson","source_catalog":"https://github.com/thanglequoc/vietnamese-provinces-database"},"geometry":null},{"type":"Feature","id":"30388","properties":{"commune_code":"30388","commune_name":"Tân An","commune_name_en":"Tan An","commune_full_name":"Xã Tân An","commune_full_name_en":"Tan An Commune","commune_slug":"tan_an","unit_type":"Xã","unit_type_en":"Commune","admin_level":2,"province_code":"91","province_name":"An Giang","province_full_name":"Tỉnh An Giang","province_slug":"an_giang","join_key":"30388","status":"active","dataset_effective_date":"2026-04-30","catalog_version":"2026-07-12","geometry_status":"not_embedded_boundary_available_by_url","boundary_source_url":"https://raw.githubusercontent.com/thanglequoc/vietnamese-provinces-database/master/json/geojson/91_an_giang/wards/30388_tan_an.geojson","boundary_source_page":"https://github.com/thanglequoc/vietnamese-provinces-database/blob/master/json/geojson/91_an_giang/wards/30388_tan_an.geojson","source_catalog":"https://github.com/thanglequoc/vietnamese-provinces-database"},"geometry":null},{"type":"Feature","id":"30403","properties":{"commune_code":"30403","commune_name":"Châu Phong","commune_name_en":"Chau Phong","commune_full_name":"Xã Châu Phong","commune_full_name_en":"Chau Phong Commune","commune_slug":"chau_phong","unit_type":"Xã","unit_type_en":"Commune","admin_level":2,"province_code":"91","province_name":"An Giang","province_full_name":"Tỉnh An Giang","province_slug":"an_giang","join_key":"30403","status":"active","dataset_effective_date":"2026-04-30","catalog_version":"2026-07-12","geometry_status":"not_embedded_boundary_available_by_url","boundary_source_url":"https://raw.githubusercontent.com/thanglequoc/vietnamese-provinces-database/master/json/geojson/91_an_giang/wards/30403_chau_phong.geojson","boundary_source_page":"https://github.com/thanglequoc/vietnamese-provinces-database/blob/master/json/geojson/91_an_giang/wards/30403_chau_phong.geojson","source_catalog":"https://github.com/thanglequoc/vietnamese-provinces-database"},"geometry":null},{"type":"Feature","id":"30406","properties":{"commune_code":"30406","commune_name":"Phú Tân","commune_name_en":"Phu Tan","commune_full_name":"Xã Phú Tân","commune_full_name_en":"Phu Tan Commune","commune_slug":"phu_tan","unit_type":"Xã","unit_type_en":"Commune","admin_level":2,"province_code":"91","province_name":"An Giang","province_full_name":"Tỉnh An Giang","province_slug":"an_giang","join_key":"30406","status":"active","dataset_effective_date":"2026-04-30","catalog_version":"2026-07-12","geometry_status":"not_embedded_boundary_available_by_url","boundary_source_url":"https://raw.githubusercontent.com/thanglequoc/vietnamese-provinces-database/master/json/geojson/91_an_giang/wards/30406_phu_tan.geojson","boundary_source_page":"https://github.com/thanglequoc/vietnamese-provinces-database/blob/master/json/geojson/91_an_giang/wards/30406_phu_tan.geojson","source_catalog":"https://github.com/thanglequoc/vietnamese-provinces-database"},"geometry":null},{"type":"Feature","id":"30409","properties":{"commune_code":"30409","commune_name":"Chợ Vàm","commune_name_en":"Cho Vam","commune_full_name":"Xã Chợ Vàm","commune_full_name_en":"Cho Vam Commune","commune_slug":"cho_vam","unit_type":"Xã","unit_type_en":"Commune","admin_level":2,"province_code":"91","province_name":"An Giang","province_full_name":"Tỉnh An Giang","province_slug":"an_giang","join_key":"30409","status":"active","dataset_effective_date":"2026-04-30","catalog_version":"2026-07-12","geometry_status":"not_embedded_boundary_available_by_url","boundary_source_url":"https://raw.githubusercontent.com/thanglequoc/vietnamese-provinces-database/master/json/geojson/91_an_giang/wards/30409_cho_vam.geojson","boundary_source_page":"https://github.com/thanglequoc/vietnamese-provinces-database/blob/master/json/geojson/91_an_giang/wards/30409_cho_vam.geojson","source_catalog":"https://github.com/thanglequoc/vietnamese-provinces-database"},"geometry":null},{"type":"Feature","id":"30421","properties":{"commune_code":"30421","commune_name":"Phú Lâm","commune_name_en":"Phu Lam","commune_full_name":"Xã Phú Lâm","commune_full_name_en":"Phu Lam Commune","commune_slug":"phu_lam","unit_type":"Xã","unit_type_en":"Commune","admin_level":2,"province_code":"91","province_name":"An Giang","province_full_name":"Tỉnh An Giang","province_slug":"an_giang","join_key":"30421","status":"active","dataset_effective_date":"2026-04-30","catalog_version":"2026-07-12","geometry_status":"not_embedded_boundary_available_by_url","boundary_source_url":"https://raw.githubusercontent.com/thanglequoc/vietnamese-provinces-database/master/json/geojson/91_an_giang/wards/30421_phu_lam.geojson","boundary_source_page":"https://github.com/thanglequoc/vietnamese-provinces-database/blob/master/json/geojson/91_an_giang/wards/30421_phu_lam.geojson","source_catalog":"https://github.com/thanglequoc/vietnamese-provinces-database"},"geometry":null},{"type":"Feature","id":"30430","properties":{"commune_code":"30430","commune_name":"Hoà Lạc","commune_name_en":"Hoa Lac","commune_full_name":"Xã Hoà Lạc","commune_full_name_en":"Hoa Lac Commune","commune_slug":"hoa_lac","unit_type":"Xã","unit_type_en":"Commune","admin_level":2,"province_code":"91","province_name":"An Giang","province_full_name":"Tỉnh An Giang","province_slug":"an_giang","join_key":"30430","status":"active","dataset_effective_date":"2026-04-30","catalog_version":"2026-07-12","geometry_status":"not_embedded_boundary_available_by_url","boundary_source_url":"https://raw.githubusercontent.com/thanglequoc/vietnamese-provinces-database/master/json/geojson/91_an_giang/wards/30430_hoa_lac.geojson","boundary_source_page":"https://github.com/thanglequoc/vietnamese-provinces-database/blob/master/json/geojson/91_an_giang/wards/30430_hoa_lac.geojson","source_catalog":"https://github.com/thanglequoc/vietnamese-provinces-database"},"geometry":null},{"type":"Feature","id":"30436","properties":{"commune_code":"30436","commune_name":"Phú An","commune_name_en":"Phu An","commune_full_name":"Xã Phú An","commune_full_name_en":"Phu An Commune","commune_slug":"phu_an","unit_type":"Xã","unit_type_en":"Commune","admin_level":2,"province_code":"91","province_name":"An Giang","province_full_name":"Tỉnh An Giang","province_slug":"an_giang","join_key":"30436","status":"active","dataset_effective_date":"2026-04-30","catalog_version":"2026-07-12","geometry_status":"not_embedded_boundary_available_by_url","boundary_source_url":"https://raw.githubusercontent.com/thanglequoc/vietnamese-provinces-database/master/json/geojson/91_an_giang/wards/30436_phu_an.geojson","boundary_source_page":"https://github.com/thanglequoc/vietnamese-provinces-database/blob/master/json/geojson/91_an_giang/wards/30436_phu_an.geojson","source_catalog":"https://github.com/thanglequoc/vietnamese-provinces-database"},"geometry":null},{"type":"Feature","id":"30445","properties":{"commune_code":"30445","commune_name":"Bình Thạnh Đông","commune_name_en":"Binh Thanh Dong","commune_full_name":"Xã Bình Thạnh Đông","commune_full_name_en":"Binh Thanh Dong Commune","commune_slug":"binh_thanh_dong","unit_type":"Xã","unit_type_en":"Commune","admin_level":2,"province_code":"91","province_name":"An Giang","province_full_name":"Tỉnh An Giang","province_slug":"an_giang","join_key":"30445","status":"active","dataset_effective_date":"2026-04-30","catalog_version":"2026-07-12","geometry_status":"not_embedded_boundary_available_by_url","boundary_source_url":"https://raw.githubusercontent.com/thanglequoc/vietnamese-provinces-database/master/json/geojson/91_an_giang/wards/30445_binh_thanh_dong.geojson","boundary_source_page":"https://github.com/thanglequoc/vietnamese-provinces-database/blob/master/json/geojson/91_an_giang/wards/30445_binh_thanh_dong.geojson","source_catalog":"https://github.com/thanglequoc/vietnamese-provinces-database"},"geometry":null},{"type":"Feature","id":"30463","properties":{"commune_code":"30463","commune_name":"Châu Phú","commune_name_en":"Chau Phu","commune_full_name":"Xã Châu Phú","commune_full_name_en":"Chau Phu Commune","commune_slug":"chau_phu","unit_type":"Xã","unit_type_en":"Commune","admin_level":2,"province_code":"91","province_name":"An Giang","province_full_name":"Tỉnh An Giang","province_slug":"an_giang","join_key":"30463","status":"active","dataset_effective_date":"2026-04-30","catalog_version":"2026-07-12","geometry_status":"not_embedded_boundary_available_by_url","boundary_source_url":"https://raw.githubusercontent.com/thanglequoc/vietnamese-provinces-database/master/json/geojson/91_an_giang/wards/30463_chau_phu.geojson","boundary_source_page":"https://github.com/thanglequoc/vietnamese-provinces-database/blob/master/json/geojson/91_an_giang/wards/30463_chau_phu.geojson","source_catalog":"https://github.com/thanglequoc/vietnamese-provinces-database"},"geometry":null},{"type":"Feature","id":"30469","properties":{"commune_code":"30469","commune_name":"Mỹ Đức","commune_name_en":"My Duc","commune_full_name":"Xã Mỹ Đức","commune_full_name_en":"My Duc Commune","commune_slug":"my_duc","unit_type":"Xã","unit_type_en":"Commune","admin_level":2,"province_code":"91","province_name":"An Giang","province_full_name":"Tỉnh An Giang","province_slug":"an_giang","join_key":"30469","status":"active","dataset_effective_date":"2026-04-30","catalog_version":"2026-07-12","geometry_status":"not_embedded_boundary_available_by_url","boundary_source_url":"https://raw.githubusercontent.com/thanglequoc/vietnamese-provinces-database/master/json/geojson/91_an_giang/wards/30469_my_duc.geojson","boundary_source_page":"https://github.com/thanglequoc/vietnamese-provinces-database/blob/master/json/geojson/91_an_giang/wards/30469_my_duc.geojson","source_catalog":"https://github.com/thanglequoc/vietnamese-provinces-database"},"geometry":null},{"type":"Feature","id":"30478","properties":{"commune_code":"30478","commune_name":"Vĩnh Thạnh Trung","commune_name_en":"Vinh Thanh Trung","commune_full_name":"Xã Vĩnh Thạnh Trung","commune_full_name_en":"Vinh Thanh Trung Commune","commune_slug":"vinh_thanh_trung","unit_type":"Xã","unit_type_en":"Commune","admin_level":2,"province_code":"91","province_name":"An Giang","province_full_name":"Tỉnh An Giang","province_slug":"an_giang","join_key":"30478","status":"active","dataset_effective_date":"2026-04-30","catalog_version":"2026-07-12","geometry_status":"not_embedded_boundary_available_by_url","boundary_source_url":"https://raw.githubusercontent.com/thanglequoc/vietnamese-provinces-database/master/json/geojson/91_an_giang/wards/30478_vinh_thanh_trung.geojson","boundary_source_page":"https://github.com/thanglequoc/vietnamese-provinces-database/blob/master/json/geojson/91_an_giang/wards/30478_vinh_thanh_trung.geojson","source_catalog":"https://github.com/thanglequoc/vietnamese-provinces-database"},"geometry":null},{"type":"Feature","id":"30481","properties":{"commune_code":"30481","commune_name":"Thạnh Mỹ Tây","commune_name_en":"Thanh My Tay","commune_full_name":"Xã Thạnh Mỹ Tây","commune_full_name_en":"Thanh My Tay Commune","commune_slug":"thanh_my_tay","unit_type":"Xã","unit_type_en":"Commune","admin_level":2,"province_code":"91","province_name":"An Giang","province_full_name":"Tỉnh An Giang","province_slug":"an_giang","join_key":"30481","status":"active","dataset_effective_date":"2026-04-30","catalog_version":"2026-07-12","geometry_status":"not_embedded_boundary_available_by_url","boundary_source_url":"https://raw.githubusercontent.com/thanglequoc/vietnamese-provinces-database/master/json/geojson/91_an_giang/wards/30481_thanh_my_tay.geojson","boundary_source_page":"https://github.com/thanglequoc/vietnamese-provinces-database/blob/master/json/geojson/91_an_giang/wards/30481_thanh_my_tay.geojson","source_catalog":"https://github.com/thanglequoc/vietnamese-provinces-database"},"geometry":null},{"type":"Feature","id":"30487","properties":{"commune_code":"30487","commune_name":"Bình Mỹ","commune_name_en":"Binh My","commune_full_name":"Xã Bình Mỹ","commune_full_name_en":"Binh My Commune","commune_slug":"binh_my","unit_type":"Xã","unit_type_en":"Commune","admin_level":2,"province_code":"91","province_name":"An Giang","province_full_name":"Tỉnh An Giang","province_slug":"an_giang","join_key":"30487","status":"active","dataset_effective_date":"2026-04-30","catalog_version":"2026-07-12","geometry_status":"not_embedded_boundary_available_by_url","boundary_source_url":"https://raw.githubusercontent.com/thanglequoc/vietnamese-provinces-database/master/json/geojson/91_an_giang/wards/30487_binh_my.geojson","boundary_source_page":"https://github.com/thanglequoc/vietnamese-provinces-database/blob/master/json/geojson/91_an_giang/wards/30487_binh_my.geojson","source_catalog":"https://github.com/thanglequoc/vietnamese-provinces-database"},"geometry":null},{"type":"Feature","id":"30502","properties":{"commune_code":"30502","commune_name":"Thới Sơn","commune_name_en":"Thoi Son","commune_full_name":"Phường Thới Sơn","commune_full_name_en":"Thoi Son Ward","commune_slug":"thoi_son","unit_type":"Phường","unit_type_en":"Ward","admin_level":2,"province_code":"91","province_name":"An Giang","province_full_name":"Tỉnh An Giang","province_slug":"an_giang","join_key":"30502","status":"active","dataset_effective_date":"2026-04-30","catalog_version":"2026-07-12","geometry_status":"not_embedded_boundary_available_by_url","boundary_source_url":"https://raw.githubusercontent.com/thanglequoc/vietnamese-provinces-database/master/json/geojson/91_an_giang/wards/30502_thoi_son.geojson","boundary_source_page":"https://github.com/thanglequoc/vietnamese-provinces-database/blob/master/json/geojson/91_an_giang/wards/30502_thoi_son.geojson","source_catalog":"https://github.com/thanglequoc/vietnamese-provinces-database"},"geometry":null},{"type":"Feature","id":"30505","properties":{"commune_code":"30505","commune_name":"Chi Lăng","commune_name_en":"Chi Lang","commune_full_name":"Phường Chi Lăng","commune_full_name_en":"Chi Lang Ward","commune_slug":"chi_lang","unit_type":"Phường","unit_type_en":"Ward","admin_level":2,"province_code":"91","province_name":"An Giang","province_full_name":"Tỉnh An Giang","province_slug":"an_giang","join_key":"30505","status":"active","dataset_effective_date":"2026-04-30","catalog_version":"2026-07-12","geometry_status":"not_embedded_boundary_available_by_url","boundary_source_url":"https://raw.githubusercontent.com/thanglequoc/vietnamese-provinces-database/master/json/geojson/91_an_giang/wards/30505_chi_lang.geojson","boundary_source_page":"https://github.com/thanglequoc/vietnamese-provinces-database/blob/master/json/geojson/91_an_giang/wards/30505_chi_lang.geojson","source_catalog":"https://github.com/thanglequoc/vietnamese-provinces-database"},"geometry":null},{"type":"Feature","id":"30520","properties":{"commune_code":"30520","commune_name":"Tịnh Biên","commune_name_en":"Tinh Bien","commune_full_name":"Phường Tịnh Biên","commune_full_name_en":"Tinh Bien Ward","commune_slug":"tinh_bien","unit_type":"Phường","unit_type_en":"Ward","admin_level":2,"province_code":"91","province_name":"An Giang","province_full_name":"Tỉnh An Giang","province_slug":"an_giang","join_key":"30520","status":"active","dataset_effective_date":"2026-04-30","catalog_version":"2026-07-12","geometry_status":"not_embedded_boundary_available_by_url","boundary_source_url":"https://raw.githubusercontent.com/thanglequoc/vietnamese-provinces-database/master/json/geojson/91_an_giang/wards/30520_tinh_bien.geojson","boundary_source_page":"https://github.com/thanglequoc/vietnamese-provinces-database/blob/master/json/geojson/91_an_giang/wards/30520_tinh_bien.geojson","source_catalog":"https://github.com/thanglequoc/vietnamese-provinces-database"},"geometry":null},{"type":"Feature","id":"30526","properties":{"commune_code":"30526","commune_name":"An Cư","commune_name_en":"An Cu","commune_full_name":"Xã An Cư","commune_full_name_en":"An Cu Commune","commune_slug":"an_cu","unit_type":"Xã","unit_type_en":"Commune","admin_level":2,"province_code":"91","province_name":"An Giang","province_full_name":"Tỉnh An Giang","province_slug":"an_giang","join_key":"30526","status":"active","dataset_effective_date":"2026-04-30","catalog_version":"2026-07-12","geometry_status":"not_embedded_boundary_available_by_url","boundary_source_url":"https://raw.githubusercontent.com/thanglequoc/vietnamese-provinces-database/master/json/geojson/91_an_giang/wards/30526_an_cu.geojson","boundary_source_page":"https://github.com/thanglequoc/vietnamese-provinces-database/blob/master/json/geojson/91_an_giang/wards/30526_an_cu.geojson","source_catalog":"https://github.com/thanglequoc/vietnamese-provinces-database"},"geometry":null},{"type":"Feature","id":"30538","properties":{"commune_code":"30538","commune_name":"Núi Cấm","commune_name_en":"Nui Cam","commune_full_name":"Xã Núi Cấm","commune_full_name_en":"Nui Cam Commune","commune_slug":"nui_cam","unit_type":"Xã","unit_type_en":"Commune","admin_level":2,"province_code":"91","province_name":"An Giang","province_full_name":"Tỉnh An Giang","province_slug":"an_giang","join_key":"30538","status":"active","dataset_effective_date":"2026-04-30","catalog_version":"2026-07-12","geometry_status":"not_embedded_boundary_available_by_url","boundary_source_url":"https://raw.githubusercontent.com/thanglequoc/vietnamese-provinces-database/master/json/geojson/91_an_giang/wards/30538_nui_cam.geojson","boundary_source_page":"https://github.com/thanglequoc/vietnamese-provinces-database/blob/master/json/geojson/91_an_giang/wards/30538_nui_cam.geojson","source_catalog":"https://github.com/thanglequoc/vietnamese-provinces-database"},"geometry":null},{"type":"Feature","id":"30544","properties":{"commune_code":"30544","commune_name":"Tri Tôn","commune_name_en":"Tri Ton","commune_full_name":"Xã Tri Tôn","commune_full_name_en":"Tri Ton Commune","commune_slug":"tri_ton","unit_type":"Xã","unit_type_en":"Commune","admin_level":2,"province_code":"91","province_name":"An Giang","province_full_name":"Tỉnh An Giang","province_slug":"an_giang","join_key":"30544","status":"active","dataset_effective_date":"2026-04-30","catalog_version":"2026-07-12","geometry_status":"not_embedded_boundary_available_by_url","boundary_source_url":"https://raw.githubusercontent.com/thanglequoc/vietnamese-provinces-database/master/json/geojson/91_an_giang/wards/30544_tri_ton.geojson","boundary_source_page":"https://github.com/thanglequoc/vietnamese-provinces-database/blob/master/json/geojson/91_an_giang/wards/30544_tri_ton.geojson","source_catalog":"https://github.com/thanglequoc/vietnamese-provinces-database"},"geometry":null},{"type":"Feature","id":"30547","properties":{"commune_code":"30547","commune_name":"Ba Chúc","commune_name_en":"Ba Chuc","commune_full_name":"Xã Ba Chúc","commune_full_name_en":"Ba Chuc Commune","commune_slug":"ba_chuc","unit_type":"Xã","unit_type_en":"Commune","admin_level":2,"province_code":"91","province_name":"An Giang","province_full_name":"Tỉnh An Giang","province_slug":"an_giang","join_key":"30547","status":"active","dataset_effective_date":"2026-04-30","catalog_version":"2026-07-12","geometry_status":"not_embedded_boundary_available_by_url","boundary_source_url":"https://raw.githubusercontent.com/thanglequoc/vietnamese-provinces-database/master/json/geojson/91_an_giang/wards/30547_ba_chuc.geojson","boundary_source_page":"https://github.com/thanglequoc/vietnamese-provinces-database/blob/master/json/geojson/91_an_giang/wards/30547_ba_chuc.geojson","source_catalog":"https://github.com/thanglequoc/vietnamese-provinces-database"},"geometry":null},{"type":"Feature","id":"30568","properties":{"commune_code":"30568","commune_name":"Vĩnh Gia","commune_name_en":"Vinh Gia","commune_full_name":"Xã Vĩnh Gia","commune_full_name_en":"Vinh Gia Commune","commune_slug":"vinh_gia","unit_type":"Xã","unit_type_en":"Commune","admin_level":2,"province_code":"91","province_name":"An Giang","province_full_name":"Tỉnh An Giang","province_slug":"an_giang","join_key":"30568","status":"active","dataset_effective_date":"2026-04-30","catalog_version":"2026-07-12","geometry_status":"not_embedded_boundary_available_by_url","boundary_source_url":"https://raw.githubusercontent.com/thanglequoc/vietnamese-provinces-database/master/json/geojson/91_an_giang/wards/30568_vinh_gia.geojson","boundary_source_page":"https://github.com/thanglequoc/vietnamese-provinces-database/blob/master/json/geojson/91_an_giang/wards/30568_vinh_gia.geojson","source_catalog":"https://github.com/thanglequoc/vietnamese-provinces-database"},"geometry":null},{"type":"Feature","id":"30577","properties":{"commune_code":"30577","commune_name":"Ô Lâm","commune_name_en":"O Lam","commune_full_name":"Xã Ô Lâm","commune_full_name_en":"O Lam Commune","commune_slug":"o_lam","unit_type":"Xã","unit_type_en":"Commune","admin_level":2,"province_code":"91","province_name":"An Giang","province_full_name":"Tỉnh An Giang","province_slug":"an_giang","join_key":"30577","status":"active","dataset_effective_date":"2026-04-30","catalog_version":"2026-07-12","geometry_status":"not_embedded_boundary_available_by_url","boundary_source_url":"https://raw.githubusercontent.com/thanglequoc/vietnamese-provinces-database/master/json/geojson/91_an_giang/wards/30577_o_lam.geojson","boundary_source_page":"https://github.com/thanglequoc/vietnamese-provinces-database/blob/master/json/geojson/91_an_giang/wards/30577_o_lam.geojson","source_catalog":"https://github.com/thanglequoc/vietnamese-provinces-database"},"geometry":null},{"type":"Feature","id":"30580","properties":{"commune_code":"30580","commune_name":"Cô Tô","commune_name_en":"Co To","commune_full_name":"Xã Cô Tô","commune_full_name_en":"Co To Commune","commune_slug":"co_to","unit_type":"Xã","unit_type_en":"Commune","admin_level":2,"province_code":"91","province_name":"An Giang","province_full_name":"Tỉnh An Giang","province_slug":"an_giang","join_key":"30580","status":"active","dataset_effective_date":"2026-04-30","catalog_version":"2026-07-12","geometry_status":"not_embedded_boundary_available_by_url","boundary_source_url":"https://raw.githubusercontent.com/thanglequoc/vietnamese-provinces-database/master/json/geojson/91_an_giang/wards/30580_co_to.geojson","boundary_source_page":"https://github.com/thanglequoc/vietnamese-provinces-database/blob/master/json/geojson/91_an_giang/wards/30580_co_to.geojson","source_catalog":"https://github.com/thanglequoc/vietnamese-provinces-database"},"geometry":null},{"type":"Feature","id":"30589","properties":{"commune_code":"30589","commune_name":"An Châu","commune_name_en":"An Chau","commune_full_name":"Xã An Châu","commune_full_name_en":"An Chau Commune","commune_slug":"an_chau","unit_type":"Xã","unit_type_en":"Commune","admin_level":2,"province_code":"91","province_name":"An Giang","province_full_name":"Tỉnh An Giang","province_slug":"an_giang","join_key":"30589","status":"active","dataset_effective_date":"2026-04-30","catalog_version":"2026-07-12","geometry_status":"not_embedded_boundary_available_by_url","boundary_source_url":"https://raw.githubusercontent.com/thanglequoc/vietnamese-provinces-database/master/json/geojson/91_an_giang/wards/30589_an_chau.geojson","boundary_source_page":"https://github.com/thanglequoc/vietnamese-provinces-database/blob/master/json/geojson/91_an_giang/wards/30589_an_chau.geojson","source_catalog":"https://github.com/thanglequoc/vietnamese-provinces-database"},"geometry":null},{"type":"Feature","id":"30595","properties":{"commune_code":"30595","commune_name":"Cần Đăng","commune_name_en":"Can Dang","commune_full_name":"Xã Cần Đăng","commune_full_name_en":"Can Dang Commune","commune_slug":"can_dang","unit_type":"Xã","unit_type_en":"Commune","admin_level":2,"province_code":"91","province_name":"An Giang","province_full_name":"Tỉnh An Giang","province_slug":"an_giang","join_key":"30595","status":"active","dataset_effective_date":"2026-04-30","catalog_version":"2026-07-12","geometry_status":"not_embedded_boundary_available_by_url","boundary_source_url":"https://raw.githubusercontent.com/thanglequoc/vietnamese-provinces-database/master/json/geojson/91_an_giang/wards/30595_can_dang.geojson","boundary_source_page":"https://github.com/thanglequoc/vietnamese-provinces-database/blob/master/json/geojson/91_an_giang/wards/30595_can_dang.geojson","source_catalog":"https://github.com/thanglequoc/vietnamese-provinces-database"},"geometry":null},{"type":"Feature","id":"30604","properties":{"commune_code":"30604","commune_name":"Vĩnh An","commune_name_en":"Vinh An","commune_full_name":"Xã Vĩnh An","commune_full_name_en":"Vinh An Commune","commune_slug":"vinh_an","unit_type":"Xã","unit_type_en":"Commune","admin_level":2,"province_code":"91","province_name":"An Giang","province_full_name":"Tỉnh An Giang","province_slug":"an_giang","join_key":"30604","status":"active","dataset_effective_date":"2026-04-30","catalog_version":"2026-07-12","geometry_status":"not_embedded_boundary_available_by_url","boundary_source_url":"https://raw.githubusercontent.com/thanglequoc/vietnamese-provinces-database/master/json/geojson/91_an_giang/wards/30604_vinh_an.geojson","boundary_source_page":"https://github.com/thanglequoc/vietnamese-provinces-database/blob/master/json/geojson/91_an_giang/wards/30604_vinh_an.geojson","source_catalog":"https://github.com/thanglequoc/vietnamese-provinces-database"},"geometry":null},{"type":"Feature","id":"30607","properties":{"commune_code":"30607","commune_name":"Bình Hoà","commune_name_en":"Binh Hoa","commune_full_name":"Xã Bình Hoà","commune_full_name_en":"Binh Hoa Commune","commune_slug":"binh_hoa","unit_type":"Xã","unit_type_en":"Commune","admin_level":2,"province_code":"91","province_name":"An Giang","province_full_name":"Tỉnh An Giang","province_slug":"an_giang","join_key":"30607","status":"active","dataset_effective_date":"2026-04-30","catalog_version":"2026-07-12","geometry_status":"not_embedded_boundary_available_by_url","boundary_source_url":"https://raw.githubusercontent.com/thanglequoc/vietnamese-provinces-database/master/json/geojson/91_an_giang/wards/30607_binh_hoa.geojson","boundary_source_page":"https://github.com/thanglequoc/vietnamese-provinces-database/blob/master/json/geojson/91_an_giang/wards/30607_binh_hoa.geojson","source_catalog":"https://github.com/thanglequoc/vietnamese-provinces-database"},"geometry":null},{"type":"Feature","id":"30619","properties":{"commune_code":"30619","commune_name":"Vĩnh Hanh","commune_name_en":"Vinh Hanh","commune_full_name":"Xã Vĩnh Hanh","commune_full_name_en":"Vinh Hanh Commune","commune_slug":"vinh_hanh","unit_type":"Xã","unit_type_en":"Commune","admin_level":2,"province_code":"91","province_name":"An Giang","province_full_name":"Tỉnh An Giang","province_slug":"an_giang","join_key":"30619","status":"active","dataset_effective_date":"2026-04-30","catalog_version":"2026-07-12","geometry_status":"not_embedded_boundary_available_by_url","boundary_source_url":"https://raw.githubusercontent.com/thanglequoc/vietnamese-provinces-database/master/json/geojson/91_an_giang/wards/30619_vinh_hanh.geojson","boundary_source_page":"https://github.com/thanglequoc/vietnamese-provinces-database/blob/master/json/geojson/91_an_giang/wards/30619_vinh_hanh.geojson","source_catalog":"https://github.com/thanglequoc/vietnamese-provinces-database"},"geometry":null},{"type":"Feature","id":"30628","properties":{"commune_code":"30628","commune_name":"Chợ Mới","commune_name_en":"Cho Moi","commune_full_name":"Xã Chợ Mới","commune_full_name_en":"Cho Moi Commune","commune_slug":"cho_moi","unit_type":"Xã","unit_type_en":"Commune","admin_level":2,"province_code":"91","province_name":"An Giang","province_full_name":"Tỉnh An Giang","province_slug":"an_giang","join_key":"30628","status":"active","dataset_effective_date":"2026-04-30","catalog_version":"2026-07-12","geometry_status":"not_embedded_boundary_available_by_url","boundary_source_url":"https://raw.githubusercontent.com/thanglequoc/vietnamese-provinces-database/master/json/geojson/91_an_giang/wards/30628_cho_moi.geojson","boundary_source_page":"https://github.com/thanglequoc/vietnamese-provinces-database/blob/master/json/geojson/91_an_giang/wards/30628_cho_moi.geojson","source_catalog":"https://github.com/thanglequoc/vietnamese-provinces-database"},"geometry":null},{"type":"Feature","id":"30631","properties":{"commune_code":"30631","commune_name":"Long Điền","commune_name_en":"Long Dien","commune_full_name":"Xã Long Điền","commune_full_name_en":"Long Dien Commune","commune_slug":"long_dien","unit_type":"Xã","unit_type_en":"Commune","admin_level":2,"province_code":"91","province_name":"An Giang","province_full_name":"Tỉnh An Giang","province_slug":"an_giang","join_key":"30631","status":"active","dataset_effective_date":"2026-04-30","catalog_version":"2026-07-12","geometry_status":"not_embedded_boundary_available_by_url","boundary_source_url":"https://raw.githubusercontent.com/thanglequoc/vietnamese-provinces-database/master/json/geojson/91_an_giang/wards/30631_long_dien.geojson","boundary_source_page":"https://github.com/thanglequoc/vietnamese-provinces-database/blob/master/json/geojson/91_an_giang/wards/30631_long_dien.geojson","source_catalog":"https://github.com/thanglequoc/vietnamese-provinces-database"},"geometry":null},{"type":"Feature","id":"30643","properties":{"commune_code":"30643","commune_name":"Cù Lao Giêng","commune_name_en":"Cu Lao Gieng","commune_full_name":"Xã Cù Lao Giêng","commune_full_name_en":"Cu Lao Gieng Commune","commune_slug":"cu_lao_gieng","unit_type":"Xã","unit_type_en":"Commune","admin_level":2,"province_code":"91","province_name":"An Giang","province_full_name":"Tỉnh An Giang","province_slug":"an_giang","join_key":"30643","status":"active","dataset_effective_date":"2026-04-30","catalog_version":"2026-07-12","geometry_status":"not_embedded_boundary_available_by_url","boundary_source_url":"https://raw.githubusercontent.com/thanglequoc/vietnamese-provinces-database/master/json/geojson/91_an_giang/wards/30643_cu_lao_gieng.geojson","boundary_source_page":"https://github.com/thanglequoc/vietnamese-provinces-database/blob/master/json/geojson/91_an_giang/wards/30643_cu_lao_gieng.geojson","source_catalog":"https://github.com/thanglequoc/vietnamese-provinces-database"},"geometry":null},{"type":"Feature","id":"30658","properties":{"commune_code":"30658","commune_name":"Nhơn Mỹ","commune_name_en":"Nhon My","commune_full_name":"Xã Nhơn Mỹ","commune_full_name_en":"Nhon My Commune","commune_slug":"nhon_my","unit_type":"Xã","unit_type_en":"Commune","admin_level":2,"province_code":"91","province_name":"An Giang","province_full_name":"Tỉnh An Giang","province_slug":"an_giang","join_key":"30658","status":"active","dataset_effective_date":"2026-04-30","catalog_version":"2026-07-12","geometry_status":"not_embedded_boundary_available_by_url","boundary_source_url":"https://raw.githubusercontent.com/thanglequoc/vietnamese-provinces-database/master/json/geojson/91_an_giang/wards/30658_nhon_my.geojson","boundary_source_page":"https://github.com/thanglequoc/vietnamese-provinces-database/blob/master/json/geojson/91_an_giang/wards/30658_nhon_my.geojson","source_catalog":"https://github.com/thanglequoc/vietnamese-provinces-database"},"geometry":null},{"type":"Feature","id":"30664","properties":{"commune_code":"30664","commune_name":"Long Kiến","commune_name_en":"Long Kien","commune_full_name":"Xã Long Kiến","commune_full_name_en":"Long Kien Commune","commune_slug":"long_kien","unit_type":"Xã","unit_type_en":"Commune","admin_level":2,"province_code":"91","province_name":"An Giang","province_full_name":"Tỉnh An Giang","province_slug":"an_giang","join_key":"30664","status":"active","dataset_effective_date":"2026-04-30","catalog_version":"2026-07-12","geometry_status":"not_embedded_boundary_available_by_url","boundary_source_url":"https://raw.githubusercontent.com/thanglequoc/vietnamese-provinces-database/master/json/geojson/91_an_giang/wards/30664_long_kien.geojson","boundary_source_page":"https://github.com/thanglequoc/vietnamese-provinces-database/blob/master/json/geojson/91_an_giang/wards/30664_long_kien.geojson","source_catalog":"https://github.com/thanglequoc/vietnamese-provinces-database"},"geometry":null},{"type":"Feature","id":"30673","properties":{"commune_code":"30673","commune_name":"Hội An","commune_name_en":"Hoi An","commune_full_name":"Xã Hội An","commune_full_name_en":"Hoi An Commune","commune_slug":"hoi_an","unit_type":"Xã","unit_type_en":"Commune","admin_level":2,"province_code":"91","province_name":"An Giang","province_full_name":"Tỉnh An Giang","province_slug":"an_giang","join_key":"30673","status":"active","dataset_effective_date":"2026-04-30","catalog_version":"2026-07-12","geometry_status":"not_embedded_boundary_available_by_url","boundary_source_url":"https://raw.githubusercontent.com/thanglequoc/vietnamese-provinces-database/master/json/geojson/91_an_giang/wards/30673_hoi_an.geojson","boundary_source_page":"https://github.com/thanglequoc/vietnamese-provinces-database/blob/master/json/geojson/91_an_giang/wards/30673_hoi_an.geojson","source_catalog":"https://github.com/thanglequoc/vietnamese-provinces-database"},"geometry":null},{"type":"Feature","id":"30682","properties":{"commune_code":"30682","commune_name":"Thoại Sơn","commune_name_en":"Thoai Son","commune_full_name":"Xã Thoại Sơn","commune_full_name_en":"Thoai Son Commune","commune_slug":"thoai_son","unit_type":"Xã","unit_type_en":"Commune","admin_level":2,"province_code":"91","province_name":"An Giang","province_full_name":"Tỉnh An Giang","province_slug":"an_giang","join_key":"30682","status":"active","dataset_effective_date":"2026-04-30","catalog_version":"2026-07-12","geometry_status":"not_embedded_boundary_available_by_url","boundary_source_url":"https://raw.githubusercontent.com/thanglequoc/vietnamese-provinces-database/master/json/geojson/91_an_giang/wards/30682_thoai_son.geojson","boundary_source_page":"https://github.com/thanglequoc/vietnamese-provinces-database/blob/master/json/geojson/91_an_giang/wards/30682_thoai_son.geojson","source_catalog":"https://github.com/thanglequoc/vietnamese-provinces-database"},"geometry":null},{"type":"Feature","id":"30685","properties":{"commune_code":"30685","commune_name":"Phú Hoà","commune_name_en":"Phu Hoa","commune_full_name":"Xã Phú Hoà","commune_full_name_en":"Phu Hoa Commune","commune_slug":"phu_hoa","unit_type":"Xã","unit_type_en":"Commune","admin_level":2,"province_code":"91","province_name":"An Giang","province_full_name":"Tỉnh An Giang","province_slug":"an_giang","join_key":"30685","status":"active","dataset_effective_date":"2026-04-30","catalog_version":"2026-07-12","geometry_status":"not_embedded_boundary_available_by_url","boundary_source_url":"https://raw.githubusercontent.com/thanglequoc/vietnamese-provinces-database/master/json/geojson/91_an_giang/wards/30685_phu_hoa.geojson","boundary_source_page":"https://github.com/thanglequoc/vietnamese-provinces-database/blob/master/json/geojson/91_an_giang/wards/30685_phu_hoa.geojson","source_catalog":"https://github.com/thanglequoc/vietnamese-provinces-database"},"geometry":null},{"type":"Feature","id":"30688","properties":{"commune_code":"30688","commune_name":"Óc Eo","commune_name_en":"Oc Eo","commune_full_name":"Xã Óc Eo","commune_full_name_en":"Oc Eo Commune","commune_slug":"oc_eo","unit_type":"Xã","unit_type_en":"Commune","admin_level":2,"province_code":"91","province_name":"An Giang","province_full_name":"Tỉnh An Giang","province_slug":"an_giang","join_key":"30688","status":"active","dataset_effective_date":"2026-04-30","catalog_version":"2026-07-12","geometry_status":"not_embedded_boundary_available_by_url","boundary_source_url":"https://raw.githubusercontent.com/thanglequoc/vietnamese-provinces-database/master/json/geojson/91_an_giang/wards/30688_oc_eo.geojson","boundary_source_page":"https://github.com/thanglequoc/vietnamese-provinces-database/blob/master/json/geojson/91_an_giang/wards/30688_oc_eo.geojson","source_catalog":"https://github.com/thanglequoc/vietnamese-provinces-database"},"geometry":null},{"type":"Feature","id":"30691","properties":{"commune_code":"30691","commune_name":"Tây Phú","commune_name_en":"Tay Phu","commune_full_name":"Xã Tây Phú","commune_full_name_en":"Tay Phu Commune","commune_slug":"tay_phu","unit_type":"Xã","unit_type_en":"Commune","admin_level":2,"province_code":"91","province_name":"An Giang","province_full_name":"Tỉnh An Giang","province_slug":"an_giang","join_key":"30691","status":"active","dataset_effective_date":"2026-04-30","catalog_version":"2026-07-12","geometry_status":"not_embedded_boundary_available_by_url","boundary_source_url":"https://raw.githubusercontent.com/thanglequoc/vietnamese-provinces-database/master/json/geojson/91_an_giang/wards/30691_tay_phu.geojson","boundary_source_page":"https://github.com/thanglequoc/vietnamese-provinces-database/blob/master/json/geojson/91_an_giang/wards/30691_tay_phu.geojson","source_catalog":"https://github.com/thanglequoc/vietnamese-provinces-database"},"geometry":null},{"type":"Feature","id":"30697","properties":{"commune_code":"30697","commune_name":"Vĩnh Trạch","commune_name_en":"Vinh Trach","commune_full_name":"Xã Vĩnh Trạch","commune_full_name_en":"Vinh Trach Commune","commune_slug":"vinh_trach","unit_type":"Xã","unit_type_en":"Commune","admin_level":2,"province_code":"91","province_name":"An Giang","province_full_name":"Tỉnh An Giang","province_slug":"an_giang","join_key":"30697","status":"active","dataset_effective_date":"2026-04-30","catalog_version":"2026-07-12","geometry_status":"not_embedded_boundary_available_by_url","boundary_source_url":"https://raw.githubusercontent.com/thanglequoc/vietnamese-provinces-database/master/json/geojson/91_an_giang/wards/30697_vinh_trach.geojson","boundary_source_page":"https://github.com/thanglequoc/vietnamese-provinces-database/blob/master/json/geojson/91_an_giang/wards/30697_vinh_trach.geojson","source_catalog":"https://github.com/thanglequoc/vietnamese-provinces-database"},"geometry":null},{"type":"Feature","id":"30709","properties":{"commune_code":"30709","commune_name":"Định Mỹ","commune_name_en":"Dinh My","commune_full_name":"Xã Định Mỹ","commune_full_name_en":"Dinh My Commune","commune_slug":"dinh_my","unit_type":"Xã","unit_type_en":"Commune","admin_level":2,"province_code":"91","province_name":"An Giang","province_full_name":"Tỉnh An Giang","province_slug":"an_giang","join_key":"30709","status":"active","dataset_effective_date":"2026-04-30","catalog_version":"2026-07-12","geometry_status":"not_embedded_boundary_available_by_url","boundary_source_url":"https://raw.githubusercontent.com/thanglequoc/vietnamese-provinces-database/master/json/geojson/91_an_giang/wards/30709_dinh_my.geojson","boundary_source_page":"https://github.com/thanglequoc/vietnamese-provinces-database/blob/master/json/geojson/91_an_giang/wards/30709_dinh_my.geojson","source_catalog":"https://github.com/thanglequoc/vietnamese-provinces-database"},"geometry":null},{"type":"Feature","id":"30742","properties":{"commune_code":"30742","commune_name":"Rạch Giá","commune_name_en":"Rach Gia","commune_full_name":"Phường Rạch Giá","commune_full_name_en":"Rach Gia Ward","commune_slug":"rach_gia","unit_type":"Phường","unit_type_en":"Ward","admin_level":2,"province_code":"91","province_name":"An Giang","province_full_name":"Tỉnh An Giang","province_slug":"an_giang","join_key":"30742","status":"active","dataset_effective_date":"2026-04-30","catalog_version":"2026-07-12","geometry_status":"not_embedded_boundary_available_by_url","boundary_source_url":"https://raw.githubusercontent.com/thanglequoc/vietnamese-provinces-database/master/json/geojson/91_an_giang/wards/30742_rach_gia.geojson","boundary_source_page":"https://github.com/thanglequoc/vietnamese-provinces-database/blob/master/json/geojson/91_an_giang/wards/30742_rach_gia.geojson","source_catalog":"https://github.com/thanglequoc/vietnamese-provinces-database"},"geometry":null},{"type":"Feature","id":"30760","properties":{"commune_code":"30760","commune_name":"Vĩnh Thông","commune_name_en":"Vinh Thong","commune_full_name":"Phường Vĩnh Thông","commune_full_name_en":"Vinh Thong Ward","commune_slug":"vinh_thong","unit_type":"Phường","unit_type_en":"Ward","admin_level":2,"province_code":"91","province_name":"An Giang","province_full_name":"Tỉnh An Giang","province_slug":"an_giang","join_key":"30760","status":"active","dataset_effective_date":"2026-04-30","catalog_version":"2026-07-12","geometry_status":"not_embedded_boundary_available_by_url","boundary_source_url":"https://raw.githubusercontent.com/thanglequoc/vietnamese-provinces-database/master/json/geojson/91_an_giang/wards/30760_vinh_thong.geojson","boundary_source_page":"https://github.com/thanglequoc/vietnamese-provinces-database/blob/master/json/geojson/91_an_giang/wards/30760_vinh_thong.geojson","source_catalog":"https://github.com/thanglequoc/vietnamese-provinces-database"},"geometry":null},{"type":"Feature","id":"30766","properties":{"commune_code":"30766","commune_name":"Tô Châu","commune_name_en":"To Chau","commune_full_name":"Phường Tô Châu","commune_full_name_en":"To Chau Ward","commune_slug":"to_chau","unit_type":"Phường","unit_type_en":"Ward","admin_level":2,"province_code":"91","province_name":"An Giang","province_full_name":"Tỉnh An Giang","province_slug":"an_giang","join_key":"30766","status":"active","dataset_effective_date":"2026-04-30","catalog_version":"2026-07-12","geometry_status":"not_embedded_boundary_available_by_url","boundary_source_url":"https://raw.githubusercontent.com/thanglequoc/vietnamese-provinces-database/master/json/geojson/91_an_giang/wards/30766_to_chau.geojson","boundary_source_page":"https://github.com/thanglequoc/vietnamese-provinces-database/blob/master/json/geojson/91_an_giang/wards/30766_to_chau.geojson","source_catalog":"https://github.com/thanglequoc/vietnamese-provinces-database"},"geometry":null},{"type":"Feature","id":"30769","properties":{"commune_code":"30769","commune_name":"Hà Tiên","commune_name_en":"Ha Tien","commune_full_name":"Phường Hà Tiên","commune_full_name_en":"Ha Tien Ward","commune_slug":"ha_tien","unit_type":"Phường","unit_type_en":"Ward","admin_level":2,"province_code":"91","province_name":"An Giang","province_full_name":"Tỉnh An Giang","province_slug":"an_giang","join_key":"30769","status":"active","dataset_effective_date":"2026-04-30","catalog_version":"2026-07-12","geometry_status":"not_embedded_boundary_available_by_url","boundary_source_url":"https://raw.githubusercontent.com/thanglequoc/vietnamese-provinces-database/master/json/geojson/91_an_giang/wards/30769_ha_tien.geojson","boundary_source_page":"https://github.com/thanglequoc/vietnamese-provinces-database/blob/master/json/geojson/91_an_giang/wards/30769_ha_tien.geojson","source_catalog":"https://github.com/thanglequoc/vietnamese-provinces-database"},"geometry":null},{"type":"Feature","id":"30781","properties":{"commune_code":"30781","commune_name":"Tiên Hải","commune_name_en":"Tien Hai","commune_full_name":"Xã Tiên Hải","commune_full_name_en":"Tien Hai Commune","commune_slug":"tien_hai","unit_type":"Xã","unit_type_en":"Commune","admin_level":2,"province_code":"91","province_name":"An Giang","province_full_name":"Tỉnh An Giang","province_slug":"an_giang","join_key":"30781","status":"active","dataset_effective_date":"2026-04-30","catalog_version":"2026-07-12","geometry_status":"not_embedded_boundary_available_by_url","boundary_source_url":"https://raw.githubusercontent.com/thanglequoc/vietnamese-provinces-database/master/json/geojson/91_an_giang/wards/30781_tien_hai.geojson","boundary_source_page":"https://github.com/thanglequoc/vietnamese-provinces-database/blob/master/json/geojson/91_an_giang/wards/30781_tien_hai.geojson","source_catalog":"https://github.com/thanglequoc/vietnamese-provinces-database"},"geometry":null},{"type":"Feature","id":"30787","properties":{"commune_code":"30787","commune_name":"Kiên Lương","commune_name_en":"Kien Luong","commune_full_name":"Xã Kiên Lương","commune_full_name_en":"Kien Luong Commune","commune_slug":"kien_luong","unit_type":"Xã","unit_type_en":"Commune","admin_level":2,"province_code":"91","province_name":"An Giang","province_full_name":"Tỉnh An Giang","province_slug":"an_giang","join_key":"30787","status":"active","dataset_effective_date":"2026-04-30","catalog_version":"2026-07-12","geometry_status":"not_embedded_boundary_available_by_url","boundary_source_url":"https://raw.githubusercontent.com/thanglequoc/vietnamese-provinces-database/master/json/geojson/91_an_giang/wards/30787_kien_luong.geojson","boundary_source_page":"https://github.com/thanglequoc/vietnamese-provinces-database/blob/master/json/geojson/91_an_giang/wards/30787_kien_luong.geojson","source_catalog":"https://github.com/thanglequoc/vietnamese-provinces-database"},"geometry":null},{"type":"Feature","id":"30790","properties":{"commune_code":"30790","commune_name":"Hoà Điền","commune_name_en":"Hoa Dien","commune_full_name":"Xã Hoà Điền","commune_full_name_en":"Hoa Dien Commune","commune_slug":"hoa_dien","unit_type":"Xã","unit_type_en":"Commune","admin_level":2,"province_code":"91","province_name":"An Giang","province_full_name":"Tỉnh An Giang","province_slug":"an_giang","join_key":"30790","status":"active","dataset_effective_date":"2026-04-30","catalog_version":"2026-07-12","geometry_status":"not_embedded_boundary_available_by_url","boundary_source_url":"https://raw.githubusercontent.com/thanglequoc/vietnamese-provinces-database/master/json/geojson/91_an_giang/wards/30790_hoa_dien.geojson","boundary_source_page":"https://github.com/thanglequoc/vietnamese-provinces-database/blob/master/json/geojson/91_an_giang/wards/30790_hoa_dien.geojson","source_catalog":"https://github.com/thanglequoc/vietnamese-provinces-database"},"geometry":null},{"type":"Feature","id":"30793","properties":{"commune_code":"30793","commune_name":"Vĩnh Điều","commune_name_en":"Vinh Dieu","commune_full_name":"Xã Vĩnh Điều","commune_full_name_en":"Vinh Dieu Commune","commune_slug":"vinh_dieu","unit_type":"Xã","unit_type_en":"Commune","admin_level":2,"province_code":"91","province_name":"An Giang","province_full_name":"Tỉnh An Giang","province_slug":"an_giang","join_key":"30793","status":"active","dataset_effective_date":"2026-04-30","catalog_version":"2026-07-12","geometry_status":"not_embedded_boundary_available_by_url","boundary_source_url":"https://raw.githubusercontent.com/thanglequoc/vietnamese-provinces-database/master/json/geojson/91_an_giang/wards/30793_vinh_dieu.geojson","boundary_source_page":"https://github.com/thanglequoc/vietnamese-provinces-database/blob/master/json/geojson/91_an_giang/wards/30793_vinh_dieu.geojson","source_catalog":"https://github.com/thanglequoc/vietnamese-provinces-database"},"geometry":null},{"type":"Feature","id":"30796","properties":{"commune_code":"30796","commune_name":"Giang Thành","commune_name_en":"Giang Thanh","commune_full_name":"Xã Giang Thành","commune_full_name_en":"Giang Thanh Commune","commune_slug":"giang_thanh","unit_type":"Xã","unit_type_en":"Commune","admin_level":2,"province_code":"91","province_name":"An Giang","province_full_name":"Tỉnh An Giang","province_slug":"an_giang","join_key":"30796","status":"active","dataset_effective_date":"2026-04-30","catalog_version":"2026-07-12","geometry_status":"not_embedded_boundary_available_by_url","boundary_source_url":"https://raw.githubusercontent.com/thanglequoc/vietnamese-provinces-database/master/json/geojson/91_an_giang/wards/30796_giang_thanh.geojson","boundary_source_page":"https://github.com/thanglequoc/vietnamese-provinces-database/blob/master/json/geojson/91_an_giang/wards/30796_giang_thanh.geojson","source_catalog":"https://github.com/thanglequoc/vietnamese-provinces-database"},"geometry":null},{"type":"Feature","id":"30811","properties":{"commune_code":"30811","commune_name":"Sơn Hải","commune_name_en":"Son Hai","commune_full_name":"Xã Sơn Hải","commune_full_name_en":"Son Hai Commune","commune_slug":"son_hai","unit_type":"Xã","unit_type_en":"Commune","admin_level":2,"province_code":"91","province_name":"An Giang","province_full_name":"Tỉnh An Giang","province_slug":"an_giang","join_key":"30811","status":"active","dataset_effective_date":"2026-04-30","catalog_version":"2026-07-12","geometry_status":"not_embedded_boundary_available_by_url","boundary_source_url":"https://raw.githubusercontent.com/thanglequoc/vietnamese-provinces-database/master/json/geojson/91_an_giang/wards/30811_son_hai.geojson","boundary_source_page":"https://github.com/thanglequoc/vietnamese-provinces-database/blob/master/json/geojson/91_an_giang/wards/30811_son_hai.geojson","source_catalog":"https://github.com/thanglequoc/vietnamese-provinces-database"},"geometry":null},{"type":"Feature","id":"30814","properties":{"commune_code":"30814","commune_name":"Hòn Nghệ","commune_name_en":"Hon Nghe","commune_full_name":"Xã Hòn Nghệ","commune_full_name_en":"Hon Nghe Commune","commune_slug":"hon_nghe","unit_type":"Xã","unit_type_en":"Commune","admin_level":2,"province_code":"91","province_name":"An Giang","province_full_name":"Tỉnh An Giang","province_slug":"an_giang","join_key":"30814","status":"active","dataset_effective_date":"2026-04-30","catalog_version":"2026-07-12","geometry_status":"not_embedded_boundary_available_by_url","boundary_source_url":"https://raw.githubusercontent.com/thanglequoc/vietnamese-provinces-database/master/json/geojson/91_an_giang/wards/30814_hon_nghe.geojson","boundary_source_page":"https://github.com/thanglequoc/vietnamese-provinces-database/blob/master/json/geojson/91_an_giang/wards/30814_hon_nghe.geojson","source_catalog":"https://github.com/thanglequoc/vietnamese-provinces-database"},"geometry":null},{"type":"Feature","id":"30817","properties":{"commune_code":"30817","commune_name":"Hòn Đất","commune_name_en":"Hon Dat","commune_full_name":"Xã Hòn Đất","commune_full_name_en":"Hon Dat Commune","commune_slug":"hon_dat","unit_type":"Xã","unit_type_en":"Commune","admin_level":2,"province_code":"91","province_name":"An Giang","province_full_name":"Tỉnh An Giang","province_slug":"an_giang","join_key":"30817","status":"active","dataset_effective_date":"2026-04-30","catalog_version":"2026-07-12","geometry_status":"not_embedded_boundary_available_by_url","boundary_source_url":"https://raw.githubusercontent.com/thanglequoc/vietnamese-provinces-database/master/json/geojson/91_an_giang/wards/30817_hon_dat.geojson","boundary_source_page":"https://github.com/thanglequoc/vietnamese-provinces-database/blob/master/json/geojson/91_an_giang/wards/30817_hon_dat.geojson","source_catalog":"https://github.com/thanglequoc/vietnamese-provinces-database"},"geometry":null},{"type":"Feature","id":"30823","properties":{"commune_code":"30823","commune_name":"Bình Sơn","commune_name_en":"Binh Son","commune_full_name":"Xã Bình Sơn","commune_full_name_en":"Binh Son Commune","commune_slug":"binh_son","unit_type":"Xã","unit_type_en":"Commune","admin_level":2,"province_code":"91","province_name":"An Giang","province_full_name":"Tỉnh An Giang","province_slug":"an_giang","join_key":"30823","status":"active","dataset_effective_date":"2026-04-30","catalog_version":"2026-07-12","geometry_status":"not_embedded_boundary_available_by_url","boundary_source_url":"https://raw.githubusercontent.com/thanglequoc/vietnamese-provinces-database/master/json/geojson/91_an_giang/wards/30823_binh_son.geojson","boundary_source_page":"https://github.com/thanglequoc/vietnamese-provinces-database/blob/master/json/geojson/91_an_giang/wards/30823_binh_son.geojson","source_catalog":"https://github.com/thanglequoc/vietnamese-provinces-database"},"geometry":null},{"type":"Feature","id":"30826","properties":{"commune_code":"30826","commune_name":"Bình Giang","commune_name_en":"Binh Giang","commune_full_name":"Xã Bình Giang","commune_full_name_en":"Binh Giang Commune","commune_slug":"binh_giang","unit_type":"Xã","unit_type_en":"Commune","admin_level":2,"province_code":"91","province_name":"An Giang","province_full_name":"Tỉnh An Giang","province_slug":"an_giang","join_key":"30826","status":"active","dataset_effective_date":"2026-04-30","catalog_version":"2026-07-12","geometry_status":"not_embedded_boundary_available_by_url","boundary_source_url":"https://raw.githubusercontent.com/thanglequoc/vietnamese-provinces-database/master/json/geojson/91_an_giang/wards/30826_binh_giang.geojson","boundary_source_page":"https://github.com/thanglequoc/vietnamese-provinces-database/blob/master/json/geojson/91_an_giang/wards/30826_binh_giang.geojson","source_catalog":"https://github.com/thanglequoc/vietnamese-provinces-database"},"geometry":null},{"type":"Feature","id":"30835","properties":{"commune_code":"30835","commune_name":"Sơn Kiên","commune_name_en":"Son Kien","commune_full_name":"Xã Sơn Kiên","commune_full_name_en":"Son Kien Commune","commune_slug":"son_kien","unit_type":"Xã","unit_type_en":"Commune","admin_level":2,"province_code":"91","province_name":"An Giang","province_full_name":"Tỉnh An Giang","province_slug":"an_giang","join_key":"30835","status":"active","dataset_effective_date":"2026-04-30","catalog_version":"2026-07-12","geometry_status":"not_embedded_boundary_available_by_url","boundary_source_url":"https://raw.githubusercontent.com/thanglequoc/vietnamese-provinces-database/master/json/geojson/91_an_giang/wards/30835_son_kien.geojson","boundary_source_page":"https://github.com/thanglequoc/vietnamese-provinces-database/blob/master/json/geojson/91_an_giang/wards/30835_son_kien.geojson","source_catalog":"https://github.com/thanglequoc/vietnamese-provinces-database"},"geometry":null},{"type":"Feature","id":"30838","properties":{"commune_code":"30838","commune_name":"Mỹ Thuận","commune_name_en":"My Thuan","commune_full_name":"Xã Mỹ Thuận","commune_full_name_en":"My Thuan Commune","commune_slug":"my_thuan","unit_type":"Xã","unit_type_en":"Commune","admin_level":2,"province_code":"91","province_name":"An Giang","province_full_name":"Tỉnh An Giang","province_slug":"an_giang","join_key":"30838","status":"active","dataset_effective_date":"2026-04-30","catalog_version":"2026-07-12","geometry_status":"not_embedded_boundary_available_by_url","boundary_source_url":"https://raw.githubusercontent.com/thanglequoc/vietnamese-provinces-database/master/json/geojson/91_an_giang/wards/30838_my_thuan.geojson","boundary_source_page":"https://github.com/thanglequoc/vietnamese-provinces-database/blob/master/json/geojson/91_an_giang/wards/30838_my_thuan.geojson","source_catalog":"https://github.com/thanglequoc/vietnamese-provinces-database"},"geometry":null},{"type":"Feature","id":"30850","properties":{"commune_code":"30850","commune_name":"Tân Hiệp","commune_name_en":"Tan Hiep","commune_full_name":"Xã Tân Hiệp","commune_full_name_en":"Tan Hiep Commune","commune_slug":"tan_hiep","unit_type":"Xã","unit_type_en":"Commune","admin_level":2,"province_code":"91","province_name":"An Giang","province_full_name":"Tỉnh An Giang","province_slug":"an_giang","join_key":"30850","status":"active","dataset_effective_date":"2026-04-30","catalog_version":"2026-07-12","geometry_status":"not_embedded_boundary_available_by_url","boundary_source_url":"https://raw.githubusercontent.com/thanglequoc/vietnamese-provinces-database/master/json/geojson/91_an_giang/wards/30850_tan_hiep.geojson","boundary_source_page":"https://github.com/thanglequoc/vietnamese-provinces-database/blob/master/json/geojson/91_an_giang/wards/30850_tan_hiep.geojson","source_catalog":"https://github.com/thanglequoc/vietnamese-provinces-database"},"geometry":null},{"type":"Feature","id":"30856","properties":{"commune_code":"30856","commune_name":"Tân Hội","commune_name_en":"Tan Hoi","commune_full_name":"Xã Tân Hội","commune_full_name_en":"Tan Hoi Commune","commune_slug":"tan_hoi","unit_type":"Xã","unit_type_en":"Commune","admin_level":2,"province_code":"91","province_name":"An Giang","province_full_name":"Tỉnh An Giang","province_slug":"an_giang","join_key":"30856","status":"active","dataset_effective_date":"2026-04-30","catalog_version":"2026-07-12","geometry_status":"not_embedded_boundary_available_by_url","boundary_source_url":"https://raw.githubusercontent.com/thanglequoc/vietnamese-provinces-database/master/json/geojson/91_an_giang/wards/30856_tan_hoi.geojson","boundary_source_page":"https://github.com/thanglequoc/vietnamese-provinces-database/blob/master/json/geojson/91_an_giang/wards/30856_tan_hoi.geojson","source_catalog":"https://github.com/thanglequoc/vietnamese-provinces-database"},"geometry":null},{"type":"Feature","id":"30874","properties":{"commune_code":"30874","commune_name":"Thạnh Đông","commune_name_en":"Thanh Dong","commune_full_name":"Xã Thạnh Đông","commune_full_name_en":"Thanh Dong Commune","commune_slug":"thanh_dong","unit_type":"Xã","unit_type_en":"Commune","admin_level":2,"province_code":"91","province_name":"An Giang","province_full_name":"Tỉnh An Giang","province_slug":"an_giang","join_key":"30874","status":"active","dataset_effective_date":"2026-04-30","catalog_version":"2026-07-12","geometry_status":"not_embedded_boundary_available_by_url","boundary_source_url":"https://raw.githubusercontent.com/thanglequoc/vietnamese-provinces-database/master/json/geojson/91_an_giang/wards/30874_thanh_dong.geojson","boundary_source_page":"https://github.com/thanglequoc/vietnamese-provinces-database/blob/master/json/geojson/91_an_giang/wards/30874_thanh_dong.geojson","source_catalog":"https://github.com/thanglequoc/vietnamese-provinces-database"},"geometry":null},{"type":"Feature","id":"30880","properties":{"commune_code":"30880","commune_name":"Châu Thành","commune_name_en":"Chau Thanh","commune_full_name":"Xã Châu Thành","commune_full_name_en":"Chau Thanh Commune","commune_slug":"chau_thanh","unit_type":"Xã","unit_type_en":"Commune","admin_level":2,"province_code":"91","province_name":"An Giang","province_full_name":"Tỉnh An Giang","province_slug":"an_giang","join_key":"30880","status":"active","dataset_effective_date":"2026-04-30","catalog_version":"2026-07-12","geometry_status":"not_embedded_boundary_available_by_url","boundary_source_url":"https://raw.githubusercontent.com/thanglequoc/vietnamese-provinces-database/master/json/geojson/91_an_giang/wards/30880_chau_thanh.geojson","boundary_source_page":"https://github.com/thanglequoc/vietnamese-provinces-database/blob/master/json/geojson/91_an_giang/wards/30880_chau_thanh.geojson","source_catalog":"https://github.com/thanglequoc/vietnamese-provinces-database"},"geometry":null},{"type":"Feature","id":"30886","properties":{"commune_code":"30886","commune_name":"Thạnh Lộc","commune_name_en":"Thanh Loc","commune_full_name":"Xã Thạnh Lộc","commune_full_name_en":"Thanh Loc Commune","commune_slug":"thanh_loc","unit_type":"Xã","unit_type_en":"Commune","admin_level":2,"province_code":"91","province_name":"An Giang","province_full_name":"Tỉnh An Giang","province_slug":"an_giang","join_key":"30886","status":"active","dataset_effective_date":"2026-04-30","catalog_version":"2026-07-12","geometry_status":"not_embedded_boundary_available_by_url","boundary_source_url":"https://raw.githubusercontent.com/thanglequoc/vietnamese-provinces-database/master/json/geojson/91_an_giang/wards/30886_thanh_loc.geojson","boundary_source_page":"https://github.com/thanglequoc/vietnamese-provinces-database/blob/master/json/geojson/91_an_giang/wards/30886_thanh_loc.geojson","source_catalog":"https://github.com/thanglequoc/vietnamese-provinces-database"},"geometry":null},{"type":"Feature","id":"30898","properties":{"commune_code":"30898","commune_name":"Bình An","commune_name_en":"Binh An","commune_full_name":"Xã Bình An","commune_full_name_en":"Binh An Commune","commune_slug":"binh_an","unit_type":"Xã","unit_type_en":"Commune","admin_level":2,"province_code":"91","province_name":"An Giang","province_full_name":"Tỉnh An Giang","province_slug":"an_giang","join_key":"30898","status":"active","dataset_effective_date":"2026-04-30","catalog_version":"2026-07-12","geometry_status":"not_embedded_boundary_available_by_url","boundary_source_url":"https://raw.githubusercontent.com/thanglequoc/vietnamese-provinces-database/master/json/geojson/91_an_giang/wards/30898_binh_an.geojson","boundary_source_page":"https://github.com/thanglequoc/vietnamese-provinces-database/blob/master/json/geojson/91_an_giang/wards/30898_binh_an.geojson","source_catalog":"https://github.com/thanglequoc/vietnamese-provinces-database"},"geometry":null},{"type":"Feature","id":"30904","properties":{"commune_code":"30904","commune_name":"Giồng Riềng","commune_name_en":"Giong Rieng","commune_full_name":"Xã Giồng Riềng","commune_full_name_en":"Giong Rieng Commune","commune_slug":"giong_rieng","unit_type":"Xã","unit_type_en":"Commune","admin_level":2,"province_code":"91","province_name":"An Giang","province_full_name":"Tỉnh An Giang","province_slug":"an_giang","join_key":"30904","status":"active","dataset_effective_date":"2026-04-30","catalog_version":"2026-07-12","geometry_status":"not_embedded_boundary_available_by_url","boundary_source_url":"https://raw.githubusercontent.com/thanglequoc/vietnamese-provinces-database/master/json/geojson/91_an_giang/wards/30904_giong_rieng.geojson","boundary_source_page":"https://github.com/thanglequoc/vietnamese-provinces-database/blob/master/json/geojson/91_an_giang/wards/30904_giong_rieng.geojson","source_catalog":"https://github.com/thanglequoc/vietnamese-provinces-database"},"geometry":null},{"type":"Feature","id":"30910","properties":{"commune_code":"30910","commune_name":"Thạnh Hưng","commune_name_en":"Thanh Hung","commune_full_name":"Xã Thạnh Hưng","commune_full_name_en":"Thanh Hung Commune","commune_slug":"thanh_hung","unit_type":"Xã","unit_type_en":"Commune","admin_level":2,"province_code":"91","province_name":"An Giang","province_full_name":"Tỉnh An Giang","province_slug":"an_giang","join_key":"30910","status":"active","dataset_effective_date":"2026-04-30","catalog_version":"2026-07-12","geometry_status":"not_embedded_boundary_available_by_url","boundary_source_url":"https://raw.githubusercontent.com/thanglequoc/vietnamese-provinces-database/master/json/geojson/91_an_giang/wards/30910_thanh_hung.geojson","boundary_source_page":"https://github.com/thanglequoc/vietnamese-provinces-database/blob/master/json/geojson/91_an_giang/wards/30910_thanh_hung.geojson","source_catalog":"https://github.com/thanglequoc/vietnamese-provinces-database"},"geometry":null},{"type":"Feature","id":"30928","properties":{"commune_code":"30928","commune_name":"Ngọc Chúc","commune_name_en":"Ngoc Chuc","commune_full_name":"Xã Ngọc Chúc","commune_full_name_en":"Ngoc Chuc Commune","commune_slug":"ngoc_chuc","unit_type":"Xã","unit_type_en":"Commune","admin_level":2,"province_code":"91","province_name":"An Giang","province_full_name":"Tỉnh An Giang","province_slug":"an_giang","join_key":"30928","status":"active","dataset_effective_date":"2026-04-30","catalog_version":"2026-07-12","geometry_status":"not_embedded_boundary_available_by_url","boundary_source_url":"https://raw.githubusercontent.com/thanglequoc/vietnamese-provinces-database/master/json/geojson/91_an_giang/wards/30928_ngoc_chuc.geojson","boundary_source_page":"https://github.com/thanglequoc/vietnamese-provinces-database/blob/master/json/geojson/91_an_giang/wards/30928_ngoc_chuc.geojson","source_catalog":"https://github.com/thanglequoc/vietnamese-provinces-database"},"geometry":null},{"type":"Feature","id":"30934","properties":{"commune_code":"30934","commune_name":"Hoà Hưng","commune_name_en":"Hoa Hung","commune_full_name":"Xã Hoà Hưng","commune_full_name_en":"Hoa Hung Commune","commune_slug":"hoa_hung","unit_type":"Xã","unit_type_en":"Commune","admin_level":2,"province_code":"91","province_name":"An Giang","province_full_name":"Tỉnh An Giang","province_slug":"an_giang","join_key":"30934","status":"active","dataset_effective_date":"2026-04-30","catalog_version":"2026-07-12","geometry_status":"not_embedded_boundary_available_by_url","boundary_source_url":"https://raw.githubusercontent.com/thanglequoc/vietnamese-provinces-database/master/json/geojson/91_an_giang/wards/30934_hoa_hung.geojson","boundary_source_page":"https://github.com/thanglequoc/vietnamese-provinces-database/blob/master/json/geojson/91_an_giang/wards/30934_hoa_hung.geojson","source_catalog":"https://github.com/thanglequoc/vietnamese-provinces-database"},"geometry":null},{"type":"Feature","id":"30943","properties":{"commune_code":"30943","commune_name":"Long Thạnh","commune_name_en":"Long Thanh","commune_full_name":"Xã Long Thạnh","commune_full_name_en":"Long Thanh Commune","commune_slug":"long_thanh","unit_type":"Xã","unit_type_en":"Commune","admin_level":2,"province_code":"91","province_name":"An Giang","province_full_name":"Tỉnh An Giang","province_slug":"an_giang","join_key":"30943","status":"active","dataset_effective_date":"2026-04-30","catalog_version":"2026-07-12","geometry_status":"not_embedded_boundary_available_by_url","boundary_source_url":"https://raw.githubusercontent.com/thanglequoc/vietnamese-provinces-database/master/json/geojson/91_an_giang/wards/30943_long_thanh.geojson","boundary_source_page":"https://github.com/thanglequoc/vietnamese-provinces-database/blob/master/json/geojson/91_an_giang/wards/30943_long_thanh.geojson","source_catalog":"https://github.com/thanglequoc/vietnamese-provinces-database"},"geometry":null},{"type":"Feature","id":"30949","properties":{"commune_code":"30949","commune_name":"Hoà Thuận","commune_name_en":"Hoa Thuan","commune_full_name":"Xã Hoà Thuận","commune_full_name_en":"Hoa Thuan Commune","commune_slug":"hoa_thuan","unit_type":"Xã","unit_type_en":"Commune","admin_level":2,"province_code":"91","province_name":"An Giang","province_full_name":"Tỉnh An Giang","province_slug":"an_giang","join_key":"30949","status":"active","dataset_effective_date":"2026-04-30","catalog_version":"2026-07-12","geometry_status":"not_embedded_boundary_available_by_url","boundary_source_url":"https://raw.githubusercontent.com/thanglequoc/vietnamese-provinces-database/master/json/geojson/91_an_giang/wards/30949_hoa_thuan.geojson","boundary_source_page":"https://github.com/thanglequoc/vietnamese-provinces-database/blob/master/json/geojson/91_an_giang/wards/30949_hoa_thuan.geojson","source_catalog":"https://github.com/thanglequoc/vietnamese-provinces-database"},"geometry":null},{"type":"Feature","id":"30952","properties":{"commune_code":"30952","commune_name":"Gò Quao","commune_name_en":"Go Quao","commune_full_name":"Xã Gò Quao","commune_full_name_en":"Go Quao Commune","commune_slug":"go_quao","unit_type":"Xã","unit_type_en":"Commune","admin_level":2,"province_code":"91","province_name":"An Giang","province_full_name":"Tỉnh An Giang","province_slug":"an_giang","join_key":"30952","status":"active","dataset_effective_date":"2026-04-30","catalog_version":"2026-07-12","geometry_status":"not_embedded_boundary_available_by_url","boundary_source_url":"https://raw.githubusercontent.com/thanglequoc/vietnamese-provinces-database/master/json/geojson/91_an_giang/wards/30952_go_quao.geojson","boundary_source_page":"https://github.com/thanglequoc/vietnamese-provinces-database/blob/master/json/geojson/91_an_giang/wards/30952_go_quao.geojson","source_catalog":"https://github.com/thanglequoc/vietnamese-provinces-database"},"geometry":null},{"type":"Feature","id":"30958","properties":{"commune_code":"30958","commune_name":"Định Hoà","commune_name_en":"Dinh Hoa","commune_full_name":"Xã Định Hoà","commune_full_name_en":"Dinh Hoa Commune","commune_slug":"dinh_hoa","unit_type":"Xã","unit_type_en":"Commune","admin_level":2,"province_code":"91","province_name":"An Giang","province_full_name":"Tỉnh An Giang","province_slug":"an_giang","join_key":"30958","status":"active","dataset_effective_date":"2026-04-30","catalog_version":"2026-07-12","geometry_status":"not_embedded_boundary_available_by_url","boundary_source_url":"https://raw.githubusercontent.com/thanglequoc/vietnamese-provinces-database/master/json/geojson/91_an_giang/wards/30958_dinh_hoa.geojson","boundary_source_page":"https://github.com/thanglequoc/vietnamese-provinces-database/blob/master/json/geojson/91_an_giang/wards/30958_dinh_hoa.geojson","source_catalog":"https://github.com/thanglequoc/vietnamese-provinces-database"},"geometry":null},{"type":"Feature","id":"30970","properties":{"commune_code":"30970","commune_name":"Vĩnh Hoà Hưng","commune_name_en":"Vinh Hoa Hung","commune_full_name":"Xã Vĩnh Hoà Hưng","commune_full_name_en":"Vinh Hoa Hung Commune","commune_slug":"vinh_hoa_hung","unit_type":"Xã","unit_type_en":"Commune","admin_level":2,"province_code":"91","province_name":"An Giang","province_full_name":"Tỉnh An Giang","province_slug":"an_giang","join_key":"30970","status":"active","dataset_effective_date":"2026-04-30","catalog_version":"2026-07-12","geometry_status":"not_embedded_boundary_available_by_url","boundary_source_url":"https://raw.githubusercontent.com/thanglequoc/vietnamese-provinces-database/master/json/geojson/91_an_giang/wards/30970_vinh_hoa_hung.geojson","boundary_source_page":"https://github.com/thanglequoc/vietnamese-provinces-database/blob/master/json/geojson/91_an_giang/wards/30970_vinh_hoa_hung.geojson","source_catalog":"https://github.com/thanglequoc/vietnamese-provinces-database"},"geometry":null},{"type":"Feature","id":"30982","properties":{"commune_code":"30982","commune_name":"Vĩnh Tuy","commune_name_en":"Vinh Tuy","commune_full_name":"Xã Vĩnh Tuy","commune_full_name_en":"Vinh Tuy Commune","commune_slug":"vinh_tuy","unit_type":"Xã","unit_type_en":"Commune","admin_level":2,"province_code":"91","province_name":"An Giang","province_full_name":"Tỉnh An Giang","province_slug":"an_giang","join_key":"30982","status":"active","dataset_effective_date":"2026-04-30","catalog_version":"2026-07-12","geometry_status":"not_embedded_boundary_available_by_url","boundary_source_url":"https://raw.githubusercontent.com/thanglequoc/vietnamese-provinces-database/master/json/geojson/91_an_giang/wards/30982_vinh_tuy.geojson","boundary_source_page":"https://github.com/thanglequoc/vietnamese-provinces-database/blob/master/json/geojson/91_an_giang/wards/30982_vinh_tuy.geojson","source_catalog":"https://github.com/thanglequoc/vietnamese-provinces-database"},"geometry":null},{"type":"Feature","id":"30985","properties":{"commune_code":"30985","commune_name":"An Biên","commune_name_en":"An Bien","commune_full_name":"Xã An Biên","commune_full_name_en":"An Bien Commune","commune_slug":"an_bien","unit_type":"Xã","unit_type_en":"Commune","admin_level":2,"province_code":"91","province_name":"An Giang","province_full_name":"Tỉnh An Giang","province_slug":"an_giang","join_key":"30985","status":"active","dataset_effective_date":"2026-04-30","catalog_version":"2026-07-12","geometry_status":"not_embedded_boundary_available_by_url","boundary_source_url":"https://raw.githubusercontent.com/thanglequoc/vietnamese-provinces-database/master/json/geojson/91_an_giang/wards/30985_an_bien.geojson","boundary_source_page":"https://github.com/thanglequoc/vietnamese-provinces-database/blob/master/json/geojson/91_an_giang/wards/30985_an_bien.geojson","source_catalog":"https://github.com/thanglequoc/vietnamese-provinces-database"},"geometry":null},{"type":"Feature","id":"30988","properties":{"commune_code":"30988","commune_name":"Tây Yên","commune_name_en":"Tay Yen","commune_full_name":"Xã Tây Yên","commune_full_name_en":"Tay Yen Commune","commune_slug":"tay_yen","unit_type":"Xã","unit_type_en":"Commune","admin_level":2,"province_code":"91","province_name":"An Giang","province_full_name":"Tỉnh An Giang","province_slug":"an_giang","join_key":"30988","status":"active","dataset_effective_date":"2026-04-30","catalog_version":"2026-07-12","geometry_status":"not_embedded_boundary_available_by_url","boundary_source_url":"https://raw.githubusercontent.com/thanglequoc/vietnamese-provinces-database/master/json/geojson/91_an_giang/wards/30988_tay_yen.geojson","boundary_source_page":"https://github.com/thanglequoc/vietnamese-provinces-database/blob/master/json/geojson/91_an_giang/wards/30988_tay_yen.geojson","source_catalog":"https://github.com/thanglequoc/vietnamese-provinces-database"},"geometry":null},{"type":"Feature","id":"31006","properties":{"commune_code":"31006","commune_name":"Đông Thái","commune_name_en":"Dong Thai","commune_full_name":"Xã Đông Thái","commune_full_name_en":"Dong Thai Commune","commune_slug":"dong_thai","unit_type":"Xã","unit_type_en":"Commune","admin_level":2,"province_code":"91","province_name":"An Giang","province_full_name":"Tỉnh An Giang","province_slug":"an_giang","join_key":"31006","status":"active","dataset_effective_date":"2026-04-30","catalog_version":"2026-07-12","geometry_status":"not_embedded_boundary_available_by_url","boundary_source_url":"https://raw.githubusercontent.com/thanglequoc/vietnamese-provinces-database/master/json/geojson/91_an_giang/wards/31006_dong_thai.geojson","boundary_source_page":"https://github.com/thanglequoc/vietnamese-provinces-database/blob/master/json/geojson/91_an_giang/wards/31006_dong_thai.geojson","source_catalog":"https://github.com/thanglequoc/vietnamese-provinces-database"},"geometry":null},{"type":"Feature","id":"31012","properties":{"commune_code":"31012","commune_name":"Vĩnh Hoà","commune_name_en":"Vinh Hoa","commune_full_name":"Xã Vĩnh Hoà","commune_full_name_en":"Vinh Hoa Commune","commune_slug":"vinh_hoa","unit_type":"Xã","unit_type_en":"Commune","admin_level":2,"province_code":"91","province_name":"An Giang","province_full_name":"Tỉnh An Giang","province_slug":"an_giang","join_key":"31012","status":"active","dataset_effective_date":"2026-04-30","catalog_version":"2026-07-12","geometry_status":"not_embedded_boundary_available_by_url","boundary_source_url":"https://raw.githubusercontent.com/thanglequoc/vietnamese-provinces-database/master/json/geojson/91_an_giang/wards/31012_vinh_hoa.geojson","boundary_source_page":"https://github.com/thanglequoc/vietnamese-provinces-database/blob/master/json/geojson/91_an_giang/wards/31012_vinh_hoa.geojson","source_catalog":"https://github.com/thanglequoc/vietnamese-provinces-database"},"geometry":null},{"type":"Feature","id":"31018","properties":{"commune_code":"31018","commune_name":"An Minh","commune_name_en":"An Minh","commune_full_name":"Xã An Minh","commune_full_name_en":"An Minh Commune","commune_slug":"an_minh","unit_type":"Xã","unit_type_en":"Commune","admin_level":2,"province_code":"91","province_name":"An Giang","province_full_name":"Tỉnh An Giang","province_slug":"an_giang","join_key":"31018","status":"active","dataset_effective_date":"2026-04-30","catalog_version":"2026-07-12","geometry_status":"not_embedded_boundary_available_by_url","boundary_source_url":"https://raw.githubusercontent.com/thanglequoc/vietnamese-provinces-database/master/json/geojson/91_an_giang/wards/31018_an_minh.geojson","boundary_source_page":"https://github.com/thanglequoc/vietnamese-provinces-database/blob/master/json/geojson/91_an_giang/wards/31018_an_minh.geojson","source_catalog":"https://github.com/thanglequoc/vietnamese-provinces-database"},"geometry":null},{"type":"Feature","id":"31024","properties":{"commune_code":"31024","commune_name":"Đông Hoà","commune_name_en":"Dong Hoa","commune_full_name":"Xã Đông Hoà","commune_full_name_en":"Dong Hoa Commune","commune_slug":"dong_hoa","unit_type":"Xã","unit_type_en":"Commune","admin_level":2,"province_code":"91","province_name":"An Giang","province_full_name":"Tỉnh An Giang","province_slug":"an_giang","join_key":"31024","status":"active","dataset_effective_date":"2026-04-30","catalog_version":"2026-07-12","geometry_status":"not_embedded_boundary_available_by_url","boundary_source_url":"https://raw.githubusercontent.com/thanglequoc/vietnamese-provinces-database/master/json/geojson/91_an_giang/wards/31024_dong_hoa.geojson","boundary_source_page":"https://github.com/thanglequoc/vietnamese-provinces-database/blob/master/json/geojson/91_an_giang/wards/31024_dong_hoa.geojson","source_catalog":"https://github.com/thanglequoc/vietnamese-provinces-database"},"geometry":null},{"type":"Feature","id":"31027","properties":{"commune_code":"31027","commune_name":"U Minh Thượng","commune_name_en":"U Minh Thuong","commune_full_name":"Xã U Minh Thượng","commune_full_name_en":"U Minh Thuong Commune","commune_slug":"u_minh_thuong","unit_type":"Xã","unit_type_en":"Commune","admin_level":2,"province_code":"91","province_name":"An Giang","province_full_name":"Tỉnh An Giang","province_slug":"an_giang","join_key":"31027","status":"active","dataset_effective_date":"2026-04-30","catalog_version":"2026-07-12","geometry_status":"not_embedded_boundary_available_by_url","boundary_source_url":"https://raw.githubusercontent.com/thanglequoc/vietnamese-provinces-database/master/json/geojson/91_an_giang/wards/31027_u_minh_thuong.geojson","boundary_source_page":"https://github.com/thanglequoc/vietnamese-provinces-database/blob/master/json/geojson/91_an_giang/wards/31027_u_minh_thuong.geojson","source_catalog":"https://github.com/thanglequoc/vietnamese-provinces-database"},"geometry":null},{"type":"Feature","id":"31031","properties":{"commune_code":"31031","commune_name":"Tân Thạnh","commune_name_en":"Tan Thanh","commune_full_name":"Xã Tân Thạnh","commune_full_name_en":"Tan Thanh Commune","commune_slug":"tan_thanh","unit_type":"Xã","unit_type_en":"Commune","admin_level":2,"province_code":"91","province_name":"An Giang","province_full_name":"Tỉnh An Giang","province_slug":"an_giang","join_key":"31031","status":"active","dataset_effective_date":"2026-04-30","catalog_version":"2026-07-12","geometry_status":"not_embedded_boundary_available_by_url","boundary_source_url":"https://raw.githubusercontent.com/thanglequoc/vietnamese-provinces-database/master/json/geojson/91_an_giang/wards/31031_tan_thanh.geojson","boundary_source_page":"https://github.com/thanglequoc/vietnamese-provinces-database/blob/master/json/geojson/91_an_giang/wards/31031_tan_thanh.geojson","source_catalog":"https://github.com/thanglequoc/vietnamese-provinces-database"},"geometry":null},{"type":"Feature","id":"31036","properties":{"commune_code":"31036","commune_name":"Đông Hưng","commune_name_en":"Dong Hung","commune_full_name":"Xã Đông Hưng","commune_full_name_en":"Dong Hung Commune","commune_slug":"dong_hung","unit_type":"Xã","unit_type_en":"Commune","admin_level":2,"province_code":"91","province_name":"An Giang","province_full_name":"Tỉnh An Giang","province_slug":"an_giang","join_key":"31036","status":"active","dataset_effective_date":"2026-04-30","catalog_version":"2026-07-12","geometry_status":"not_embedded_boundary_available_by_url","boundary_source_url":"https://raw.githubusercontent.com/thanglequoc/vietnamese-provinces-database/master/json/geojson/91_an_giang/wards/31036_dong_hung.geojson","boundary_source_page":"https://github.com/thanglequoc/vietnamese-provinces-database/blob/master/json/geojson/91_an_giang/wards/31036_dong_hung.geojson","source_catalog":"https://github.com/thanglequoc/vietnamese-provinces-database"},"geometry":null},{"type":"Feature","id":"31042","properties":{"commune_code":"31042","commune_name":"Vân Khánh","commune_name_en":"Van Khanh","commune_full_name":"Xã Vân Khánh","commune_full_name_en":"Van Khanh Commune","commune_slug":"van_khanh","unit_type":"Xã","unit_type_en":"Commune","admin_level":2,"province_code":"91","province_name":"An Giang","province_full_name":"Tỉnh An Giang","province_slug":"an_giang","join_key":"31042","status":"active","dataset_effective_date":"2026-04-30","catalog_version":"2026-07-12","geometry_status":"not_embedded_boundary_available_by_url","boundary_source_url":"https://raw.githubusercontent.com/thanglequoc/vietnamese-provinces-database/master/json/geojson/91_an_giang/wards/31042_van_khanh.geojson","boundary_source_page":"https://github.com/thanglequoc/vietnamese-provinces-database/blob/master/json/geojson/91_an_giang/wards/31042_van_khanh.geojson","source_catalog":"https://github.com/thanglequoc/vietnamese-provinces-database"},"geometry":null},{"type":"Feature","id":"31051","properties":{"commune_code":"31051","commune_name":"Vĩnh Phong","commune_name_en":"Vinh Phong","commune_full_name":"Xã Vĩnh Phong","commune_full_name_en":"Vinh Phong Commune","commune_slug":"vinh_phong","unit_type":"Xã","unit_type_en":"Commune","admin_level":2,"province_code":"91","province_name":"An Giang","province_full_name":"Tỉnh An Giang","province_slug":"an_giang","join_key":"31051","status":"active","dataset_effective_date":"2026-04-30","catalog_version":"2026-07-12","geometry_status":"not_embedded_boundary_available_by_url","boundary_source_url":"https://raw.githubusercontent.com/thanglequoc/vietnamese-provinces-database/master/json/geojson/91_an_giang/wards/31051_vinh_phong.geojson","boundary_source_page":"https://github.com/thanglequoc/vietnamese-provinces-database/blob/master/json/geojson/91_an_giang/wards/31051_vinh_phong.geojson","source_catalog":"https://github.com/thanglequoc/vietnamese-provinces-database"},"geometry":null},{"type":"Feature","id":"31064","properties":{"commune_code":"31064","commune_name":"Vĩnh Bình","commune_name_en":"Vinh Binh","commune_full_name":"Xã Vĩnh Bình","commune_full_name_en":"Vinh Binh Commune","commune_slug":"vinh_binh","unit_type":"Xã","unit_type_en":"Commune","admin_level":2,"province_code":"91","province_name":"An Giang","province_full_name":"Tỉnh An Giang","province_slug":"an_giang","join_key":"31064","status":"active","dataset_effective_date":"2026-04-30","catalog_version":"2026-07-12","geometry_status":"not_embedded_boundary_available_by_url","boundary_source_url":"https://raw.githubusercontent.com/thanglequoc/vietnamese-provinces-database/master/json/geojson/91_an_giang/wards/31064_vinh_binh.geojson","boundary_source_page":"https://github.com/thanglequoc/vietnamese-provinces-database/blob/master/json/geojson/91_an_giang/wards/31064_vinh_binh.geojson","source_catalog":"https://github.com/thanglequoc/vietnamese-provinces-database"},"geometry":null},{"type":"Feature","id":"31069","properties":{"commune_code":"31069","commune_name":"Vĩnh Thuận","commune_name_en":"Vinh Thuan","commune_full_name":"Xã Vĩnh Thuận","commune_full_name_en":"Vinh Thuan Commune","commune_slug":"vinh_thuan","unit_type":"Xã","unit_type_en":"Commune","admin_level":2,"province_code":"91","province_name":"An Giang","province_full_name":"Tỉnh An Giang","province_slug":"an_giang","join_key":"31069","status":"active","dataset_effective_date":"2026-04-30","catalog_version":"2026-07-12","geometry_status":"not_embedded_boundary_available_by_url","boundary_source_url":"https://raw.githubusercontent.com/thanglequoc/vietnamese-provinces-database/master/json/geojson/91_an_giang/wards/31069_vinh_thuan.geojson","boundary_source_page":"https://github.com/thanglequoc/vietnamese-provinces-database/blob/master/json/geojson/91_an_giang/wards/31069_vinh_thuan.geojson","source_catalog":"https://github.com/thanglequoc/vietnamese-provinces-database"},"geometry":null},{"type":"Feature","id":"31078","properties":{"commune_code":"31078","commune_name":"Phú Quốc","commune_name_en":"Phu Quoc","commune_full_name":"Đặc khu Phú Quốc","commune_full_name_en":"Phu Quoc Special administrative region","commune_slug":"phu_quoc","unit_type":"Đặc khu","unit_type_en":"Special administrative region","admin_level":2,"province_code":"91","province_name":"An Giang","province_full_name":"Tỉnh An Giang","province_slug":"an_giang","join_key":"31078","status":"active","dataset_effective_date":"2026-04-30","catalog_version":"2026-07-12","geometry_status":"not_embedded_boundary_available_by_url","boundary_source_url":"https://raw.githubusercontent.com/thanglequoc/vietnamese-provinces-database/master/json/geojson/91_an_giang/wards/31078_phu_quoc.geojson","boundary_source_page":"https://github.com/thanglequoc/vietnamese-provinces-database/blob/master/json/geojson/91_an_giang/wards/31078_phu_quoc.geojson","source_catalog":"https://github.com/thanglequoc/vietnamese-provinces-database"},"geometry":null},{"type":"Feature","id":"31105","properties":{"commune_code":"31105","commune_name":"Thổ Châu","commune_name_en":"Tho Chau","commune_full_name":"Đặc khu Thổ Châu","commune_full_name_en":"Tho Chau Special administrative region","commune_slug":"tho_chau","unit_type":"Đặc khu","unit_type_en":"Special administrative region","admin_level":2,"province_code":"91","province_name":"An Giang","province_full_name":"Tỉnh An Giang","province_slug":"an_giang","join_key":"31105","status":"active","dataset_effective_date":"2026-04-30","catalog_version":"2026-07-12","geometry_status":"not_embedded_boundary_available_by_url","boundary_source_url":"https://raw.githubusercontent.com/thanglequoc/vietnamese-provinces-database/master/json/geojson/91_an_giang/wards/31105_tho_chau.geojson","boundary_source_page":"https://github.com/thanglequoc/vietnamese-provinces-database/blob/master/json/geojson/91_an_giang/wards/31105_tho_chau.geojson","source_catalog":"https://github.com/thanglequoc/vietnamese-provinces-database"},"geometry":null},{"type":"Feature","id":"31108","properties":{"commune_code":"31108","commune_name":"Kiên Hải","commune_name_en":"Kien Hai","commune_full_name":"Đặc khu Kiên Hải","commune_full_name_en":"Kien Hai Special administrative region","commune_slug":"kien_hai","unit_type":"Đặc khu","unit_type_en":"Special administrative region","admin_level":2,"province_code":"91","province_name":"An Giang","province_full_name":"Tỉnh An Giang","province_slug":"an_giang","join_key":"31108","status":"active","dataset_effective_date":"2026-04-30","catalog_version":"2026-07-12","geometry_status":"not_embedded_boundary_available_by_url","boundary_source_url":"https://raw.githubusercontent.com/thanglequoc/vietnamese-provinces-database/master/json/geojson/91_an_giang/wards/31108_kien_hai.geojson","boundary_source_page":"https://github.com/thanglequoc/vietnamese-provinces-database/blob/master/json/geojson/91_an_giang/wards/31108_kien_hai.geojson","source_catalog":"https://github.com/thanglequoc/vietnamese-provinces-database"},"geometry":null}]}